{"started_at":"2026-05-02T23:58:12Z","finished_at":"2026-05-02T23:58:14Z","duration_seconds":2.000,"status":"ok","state":{"timestamp_utc":"2026-05-02T23:58:14Z","class_index":0,"class_name":"not_out","is_out":false,"confidence":{"not_out":0.7552189230918884,"full":0.22211571037769318,"partial":0.022665340453386307},"weather":{"station":"KSEA","visibility_sm":10.0,"ceiling_ft":null,"raw":"KSEA 022353Z 34012KT 10SM FEW100 FEW250 23/10 A2993 RMK AO2 SLP140 T02330100 10233 20156 58019 $"},"webcam_url":"https://atmos.uw.edu/data/images/webcam2_latest.jpg","model_version":"latest"}}
{"started_at":"2026-05-03T00:02:54Z","finished_at":"2026-05-03T00:02:56Z","duration_seconds":2.000,"status":"ok","state":{"timestamp_utc":"2026-05-03T00:02:56Z","class_index":0,"class_name":"not_out","is_out":false,"confidence":{"not_out":0.8641856908798218,"full":0.10975880920886993,"partial":0.026055512949824333},"weather":{"station":"KSEA","visibility_sm":10.0,"ceiling_ft":null,"raw":"KSEA 022353Z 34012KT 10SM FEW100 FEW250 23/10 A2993 RMK AO2 SLP140 T02330100 10233 20156 58019 $"},"webcam_url":"https://atmos.uw.edu/data/images/webcam2_latest.jpg","model_version":"latest"}}
