{"started_at":"2026-05-02T23:58:12Z","finished_at":"2026-05-02T23:58:14Z","duration_seconds":2.000,"status":"ok","state":{"timestamp_utc":"2026-05-02T23:58:14Z","class_index":0,"class_name":"not_out","is_out":false,"confidence":{"not_out":0.7552189230918884,"full":0.22211571037769318,"partial":0.022665340453386307},"weather":{"station":"KSEA","visibility_sm":10.0,"ceiling_ft":null,"raw":"KSEA 022353Z 34012KT 10SM FEW100 FEW250 23/10 A2993 RMK AO2 SLP140 T02330100 10233 20156 58019 $"},"webcam_url":"https://atmos.uw.edu/data/images/webcam2_latest.jpg","model_version":"latest"}}
{"started_at":"2026-05-03T00:02:54Z","finished_at":"2026-05-03T00:02:56Z","duration_seconds":2.000,"status":"ok","state":{"timestamp_utc":"2026-05-03T00:02:56Z","class_index":0,"class_name":"not_out","is_out":false,"confidence":{"not_out":0.8641856908798218,"full":0.10975880920886993,"partial":0.026055512949824333},"weather":{"station":"KSEA","visibility_sm":10.0,"ceiling_ft":null,"raw":"KSEA 022353Z 34012KT 10SM FEW100 FEW250 23/10 A2993 RMK AO2 SLP140 T02330100 10233 20156 58019 $"},"webcam_url":"https://atmos.uw.edu/data/images/webcam2_latest.jpg","model_version":"latest"}}
{"started_at":"2026-05-03T00:17:59Z","finished_at":"2026-05-03T00:18:01Z","duration_seconds":2.000,"status":"ok","state":{"timestamp_utc":"2026-05-03T00:18:01Z","class_index":0,"class_name":"not_out","is_out":false,"confidence":{"not_out":0.7725867033004761,"full":0.1865779012441635,"partial":0.04083537310361862},"weather":{"station":"KSEA","visibility_sm":10.0,"ceiling_ft":null,"raw":"KSEA 022353Z 34012KT 10SM FEW100 FEW250 23/10 A2993 RMK AO2 SLP140 T02330100 10233 20156 58019 $"},"webcam_url":"https://atmos.uw.edu/data/images/webcam2_latest.jpg","model_version":"latest"}}
{"started_at":"2026-05-03T00:33:04Z","finished_at":"2026-05-03T00:33:06Z","duration_seconds":2.000,"status":"ok","state":{"timestamp_utc":"2026-05-03T00:33:06Z","class_index":0,"class_name":"not_out","is_out":false,"confidence":{"not_out":0.6113103628158569,"full":0.34383320808410645,"partial":0.04485638812184334},"weather":{"station":"KSEA","visibility_sm":10.0,"ceiling_ft":null,"raw":"KSEA 022353Z 34012KT 10SM FEW100 FEW250 23/10 A2993 RMK AO2 SLP140 T02330100 10233 20156 58019 $"},"webcam_url":"https://atmos.uw.edu/data/images/webcam2_latest.jpg","model_version":"latest"}}
{"started_at":"2026-05-03T00:48:09Z","finished_at":"2026-05-03T00:48:11Z","duration_seconds":2.000,"status":"ok","state":{"timestamp_utc":"2026-05-03T00:48:11Z","class_index":0,"class_name":"not_out","is_out":false,"confidence":{"not_out":0.744394838809967,"full":0.06785965710878372,"partial":0.18774548172950745},"weather":{"station":"KSEA","visibility_sm":10.0,"ceiling_ft":null,"raw":"KSEA 022353Z 34012KT 10SM FEW100 FEW250 23/10 A2993 RMK AO2 SLP140 T02330100 10233 20156 58019 $"},"webcam_url":"https://atmos.uw.edu/data/images/webcam2_latest.jpg","model_version":"latest"}}
{"started_at":"2026-05-03T01:03:14Z","finished_at":"2026-05-03T01:03:16Z","duration_seconds":2.000,"status":"ok","state":{"timestamp_utc":"2026-05-03T01:03:16Z","class_index":0,"class_name":"not_out","is_out":false,"confidence":{"not_out":0.6260622143745422,"full":0.11123603582382202,"partial":0.26270171999931335},"weather":{"station":"KSEA","visibility_sm":10.0,"ceiling_ft":null,"raw":"KSEA 030053Z 35009KT 10SM FEW100 FEW250 23/10 A2992 RMK AO2 SLP137 T02280100 $"},"webcam_url":"https://atmos.uw.edu/data/images/webcam2_latest.jpg","model_version":"latest"}}
{"started_at":"2026-05-03T01:18:19Z","finished_at":"2026-05-03T01:18:21Z","duration_seconds":2.000,"status":"ok","state":{"timestamp_utc":"2026-05-03T01:18:21Z","class_index":0,"class_name":"not_out","is_out":false,"confidence":{"not_out":0.8184351325035095,"full":0.07080893218517303,"partial":0.11075596511363983},"weather":{"station":"KSEA","visibility_sm":10.0,"ceiling_ft":null,"raw":"KSEA 030053Z 35009KT 10SM FEW100 FEW250 23/10 A2992 RMK AO2 SLP137 T02280100 $"},"webcam_url":"https://atmos.uw.edu/data/images/webcam2_latest.jpg","model_version":"latest"}}
{"started_at":"2026-05-03T01:33:25Z","finished_at":"2026-05-03T01:33:26Z","duration_seconds":1.000,"status":"ok","state":{"timestamp_utc":"2026-05-03T01:33:26Z","class_index":0,"class_name":"not_out","is_out":false,"confidence":{"not_out":0.5221899151802063,"full":0.23596589267253876,"partial":0.24184416234493256},"weather":{"station":"KSEA","visibility_sm":10.0,"ceiling_ft":null,"raw":"KSEA 030053Z 35009KT 10SM FEW100 FEW250 23/10 A2992 RMK AO2 SLP137 T02280100 $"},"webcam_url":"https://atmos.uw.edu/data/images/webcam2_latest.jpg","model_version":"latest"}}
{"started_at":"2026-05-03T01:48:30Z","finished_at":"2026-05-03T01:48:31Z","duration_seconds":1.000,"status":"ok","state":{"timestamp_utc":"2026-05-03T01:48:31Z","class_index":0,"class_name":"not_out","is_out":false,"confidence":{"not_out":0.3927476704120636,"full":0.33240586519241333,"partial":0.27484652400016785},"weather":{"station":"KSEA","visibility_sm":10.0,"ceiling_ft":null,"raw":"KSEA 030053Z 35009KT 10SM FEW100 FEW250 23/10 A2992 RMK AO2 SLP137 T02280100 $"},"webcam_url":"https://atmos.uw.edu/data/images/webcam2_latest.jpg","model_version":"latest"}}
{"started_at":"2026-05-03T01:55:01Z","finished_at":"2026-05-03T01:55:03Z","duration_seconds":2.000,"status":"ok","state":{"timestamp_utc":"2026-05-03T01:55:03Z","class_index":0,"class_name":"not_out","is_out":false,"confidence":{"not_out":0.6468266844749451,"full":0.1876472532749176,"partial":0.16552604734897614},"weather":{"station":"KSEA","visibility_sm":10.0,"ceiling_ft":null,"raw":"KSEA 030053Z 35009KT 10SM FEW100 FEW250 23/10 A2992 RMK AO2 SLP137 T02280100 $"},"webcam_url":"https://atmos.uw.edu/data/images/webcam2_latest.jpg","model_version":"latest"}}
{"started_at":"2026-05-03T02:03:35Z","finished_at":"2026-05-03T02:03:37Z","duration_seconds":2.000,"status":"ok","state":{"timestamp_utc":"2026-05-03T02:03:37Z","class_index":2,"class_name":"partial","is_out":true,"confidence":{"not_out":0.3035816550254822,"full":0.1319180279970169,"partial":0.5645003318786621},"weather":{"station":"KSEA","visibility_sm":10.0,"ceiling_ft":null,"raw":"KSEA 030153Z 35011KT 10SM FEW100 FEW250 22/10 A2991 RMK AO2 SLP135 T02170100 $"},"webcam_url":"https://atmos.uw.edu/data/images/webcam2_latest.jpg","model_version":"latest"}}
{"started_at":"2026-05-03T02:18:40Z","finished_at":"2026-05-03T02:18:42Z","duration_seconds":2.000,"status":"ok","state":{"timestamp_utc":"2026-05-03T02:18:42Z","class_index":2,"class_name":"partial","is_out":true,"confidence":{"not_out":0.06515161693096161,"full":0.22667226195335388,"partial":0.7081760764122009},"weather":{"station":"KSEA","visibility_sm":10.0,"ceiling_ft":null,"raw":"KSEA 030153Z 35011KT 10SM FEW100 FEW250 22/10 A2991 RMK AO2 SLP135 T02170100 $"},"webcam_url":"https://atmos.uw.edu/data/images/webcam2_latest.jpg","model_version":"latest"}}
{"started_at":"2026-05-03T02:33:46Z","finished_at":"2026-05-03T02:33:47Z","duration_seconds":1.000,"status":"ok","state":{"timestamp_utc":"2026-05-03T02:33:47Z","class_index":1,"class_name":"full","is_out":true,"confidence":{"not_out":0.03992745280265808,"full":0.507073163986206,"partial":0.45299941301345825},"weather":{"station":"KSEA","visibility_sm":10.0,"ceiling_ft":null,"raw":"KSEA 030153Z 35011KT 10SM FEW100 FEW250 22/10 A2991 RMK AO2 SLP135 T02170100 $"},"webcam_url":"https://atmos.uw.edu/data/images/webcam2_latest.jpg","model_version":"latest"}}
{"started_at":"2026-05-03T02:48:50Z","finished_at":"2026-05-03T02:48:53Z","duration_seconds":3.000,"status":"ok","state":{"timestamp_utc":"2026-05-03T02:48:53Z","class_index":2,"class_name":"partial","is_out":true,"confidence":{"not_out":0.017763346433639526,"full":0.16226686537265778,"partial":0.8199698328971863},"weather":{"station":"KSEA","visibility_sm":10.0,"ceiling_ft":null,"raw":"KSEA 030153Z 35011KT 10SM FEW100 FEW250 22/10 A2991 RMK AO2 SLP135 T02170100 $"},"webcam_url":"https://atmos.uw.edu/data/images/webcam2_latest.jpg","model_version":"latest"}}
{"started_at":"2026-05-03T03:03:56Z","finished_at":"2026-05-03T03:03:59Z","duration_seconds":3.000,"status":"ok","state":{"timestamp_utc":"2026-05-03T03:03:59Z","class_index":2,"class_name":"partial","is_out":true,"confidence":{"not_out":0.005656381603330374,"full":0.07222475856542587,"partial":0.9221188426017761},"weather":{"station":"KSEA","visibility_sm":10.0,"ceiling_ft":null,"raw":"KSEA 030253Z 34007KT 10SM FEW200 20/09 A2992 RMK AO2 SLP136 T02000094 55004 $"},"webcam_url":"https://atmos.uw.edu/data/images/webcam2_latest.jpg","model_version":"latest"}}
{"started_at":"2026-05-03T03:19:02Z","finished_at":"2026-05-03T03:19:04Z","duration_seconds":2.000,"status":"ok","state":{"timestamp_utc":"2026-05-03T03:19:04Z","class_index":2,"class_name":"partial","is_out":true,"confidence":{"not_out":0.020318590104579926,"full":0.0114678256213665,"partial":0.9682135581970215},"weather":{"station":"KSEA","visibility_sm":10.0,"ceiling_ft":null,"raw":"KSEA 030253Z 34007KT 10SM FEW200 20/09 A2992 RMK AO2 SLP136 T02000094 55004 $"},"webcam_url":"https://atmos.uw.edu/data/images/webcam2_latest.jpg","model_version":"latest"}}
{"started_at":"2026-05-03T03:34:07Z","finished_at":"2026-05-03T03:34:10Z","duration_seconds":3.000,"status":"ok","state":{"timestamp_utc":"2026-05-03T03:34:10Z","class_index":2,"class_name":"partial","is_out":true,"confidence":{"not_out":0.14426536858081818,"full":0.15478317439556122,"partial":0.7009514570236206},"weather":{"station":"KSEA","visibility_sm":10.0,"ceiling_ft":null,"raw":"KSEA 030253Z 34007KT 10SM FEW200 20/09 A2992 RMK AO2 SLP136 T02000094 55004 $"},"webcam_url":"https://atmos.uw.edu/data/images/webcam2_latest.jpg","model_version":"latest"}}
{"started_at":"2026-05-03T03:49:13Z","finished_at":"2026-05-03T03:49:15Z","duration_seconds":2.000,"status":"ok","state":{"timestamp_utc":"2026-05-03T03:49:15Z","class_index":2,"class_name":"partial","is_out":true,"confidence":{"not_out":0.06916351616382599,"full":0.007620574440807104,"partial":0.9232159852981567},"weather":{"station":"KSEA","visibility_sm":10.0,"ceiling_ft":null,"raw":"KSEA 030253Z 34007KT 10SM FEW200 20/09 A2992 RMK AO2 SLP136 T02000094 55004 $"},"webcam_url":"https://atmos.uw.edu/data/images/webcam2_latest.jpg","model_version":"latest"}}
{"started_at":"2026-05-03T04:04:19Z","finished_at":"2026-05-03T04:04:22Z","duration_seconds":3.000,"status":"ok","state":{"timestamp_utc":"2026-05-03T04:04:22Z","class_index":0,"class_name":"not_out","is_out":false,"confidence":{"not_out":0.5074595212936401,"full":0.0010476433672010899,"partial":0.4914928674697876},"weather":{"station":"KSEA","visibility_sm":10.0,"ceiling_ft":null,"raw":"KSEA 030353Z 35006KT 10SM CLR 19/09 A2994 RMK AO2 SLP142 T01890089 $"},"webcam_url":"https://atmos.uw.edu/data/images/webcam2_latest.jpg","model_version":"latest"}}
{"started_at":"2026-05-03T04:19:26Z","finished_at":"2026-05-03T04:19:29Z","duration_seconds":3.000,"status":"ok","state":{"timestamp_utc":"2026-05-03T04:19:29Z","class_index":0,"class_name":"not_out","is_out":false,"confidence":{"not_out":0.9996525049209595,"full":0.00016167803551070392,"partial":0.00018582993652671576},"weather":{"station":"KSEA","visibility_sm":10.0,"ceiling_ft":null,"raw":"KSEA 030353Z 35006KT 10SM CLR 19/09 A2994 RMK AO2 SLP142 T01890089 $"},"webcam_url":"https://atmos.uw.edu/data/images/webcam2_latest.jpg","model_version":"latest"}}
{"started_at":"2026-05-03T04:34:33Z","finished_at":"2026-05-03T04:34:35Z","duration_seconds":2.000,"status":"ok","state":{"timestamp_utc":"2026-05-03T04:34:35Z","class_index":0,"class_name":"not_out","is_out":false,"confidence":{"not_out":0.9992302656173706,"full":0.0004047967086080462,"partial":0.0003649396530818194},"weather":{"station":"KSEA","visibility_sm":10.0,"ceiling_ft":null,"raw":"KSEA 030353Z 35006KT 10SM CLR 19/09 A2994 RMK AO2 SLP142 T01890089 $"},"webcam_url":"https://atmos.uw.edu/data/images/webcam2_latest.jpg","model_version":"latest"}}
{"started_at":"2026-05-03T04:49:39Z","finished_at":"2026-05-03T04:49:42Z","duration_seconds":3.000,"status":"ok","state":{"timestamp_utc":"2026-05-03T04:49:42Z","class_index":0,"class_name":"not_out","is_out":false,"confidence":{"not_out":0.9983345866203308,"full":0.000875714176800102,"partial":0.0007897806935943663},"weather":{"station":"KSEA","visibility_sm":10.0,"ceiling_ft":null,"raw":"KSEA 030353Z 35006KT 10SM CLR 19/09 A2994 RMK AO2 SLP142 T01890089 $"},"webcam_url":"https://atmos.uw.edu/data/images/webcam2_latest.jpg","model_version":"latest"}}
{"started_at":"2026-05-03T05:04:45Z","finished_at":"2026-05-03T05:04:47Z","duration_seconds":2.000,"status":"ok","state":{"timestamp_utc":"2026-05-03T05:04:47Z","class_index":0,"class_name":"not_out","is_out":false,"confidence":{"not_out":0.9986306428909302,"full":0.0006736977375112474,"partial":0.000695746042765677},"weather":{"station":"KSEA","visibility_sm":10.0,"ceiling_ft":null,"raw":"KSEA 030453Z 01006KT 10SM CLR 18/08 A2995 RMK AO2 SLP147 T01780078 $"},"webcam_url":"https://atmos.uw.edu/data/images/webcam2_latest.jpg","model_version":"latest"}}
{"started_at":"2026-05-03T05:19:51Z","finished_at":"2026-05-03T05:19:53Z","duration_seconds":2.000,"status":"ok","state":{"timestamp_utc":"2026-05-03T05:19:53Z","class_index":0,"class_name":"not_out","is_out":false,"confidence":{"not_out":0.9987943172454834,"full":0.0006320766406133771,"partial":0.0005735349259339273},"weather":{"station":"KSEA","visibility_sm":10.0,"ceiling_ft":null,"raw":"KSEA 030453Z 01006KT 10SM CLR 18/08 A2995 RMK AO2 SLP147 T01780078 $"},"webcam_url":"https://atmos.uw.edu/data/images/webcam2_latest.jpg","model_version":"latest"}}
{"started_at":"2026-05-03T05:34:56Z","finished_at":"2026-05-03T05:34:58Z","duration_seconds":2.000,"status":"ok","state":{"timestamp_utc":"2026-05-03T05:34:58Z","class_index":0,"class_name":"not_out","is_out":false,"confidence":{"not_out":0.9987884163856506,"full":0.0006376049714162946,"partial":0.000573970377445221},"weather":{"station":"KSEA","visibility_sm":10.0,"ceiling_ft":null,"raw":"KSEA 030453Z 01006KT 10SM CLR 18/08 A2995 RMK AO2 SLP147 T01780078 $"},"webcam_url":"https://atmos.uw.edu/data/images/webcam2_latest.jpg","model_version":"latest"}}
{"started_at":"2026-05-03T05:50:02Z","finished_at":"2026-05-03T05:50:04Z","duration_seconds":2.000,"status":"ok","state":{"timestamp_utc":"2026-05-03T05:50:04Z","class_index":0,"class_name":"not_out","is_out":false,"confidence":{"not_out":0.9992133378982544,"full":0.0003626756661105901,"partial":0.0004238962137605995},"weather":{"station":"KSEA","visibility_sm":10.0,"ceiling_ft":null,"raw":"KSEA 030453Z 01006KT 10SM CLR 18/08 A2995 RMK AO2 SLP147 T01780078 $"},"webcam_url":"https://atmos.uw.edu/data/images/webcam2_latest.jpg","model_version":"latest"}}
{"started_at":"2026-05-03T06:05:08Z","finished_at":"2026-05-03T06:05:10Z","duration_seconds":2.000,"status":"ok","state":{"timestamp_utc":"2026-05-03T06:05:10Z","class_index":0,"class_name":"not_out","is_out":false,"confidence":{"not_out":0.9991974234580994,"full":0.0003924945485778153,"partial":0.00041013743611983955},"weather":{"station":"KSEA","visibility_sm":10.0,"ceiling_ft":null,"raw":"KSEA 030553Z 02009KT 10SM CLR 18/06 A2995 RMK AO2 SLP148 T01830061 10233 20172 51011 $"},"webcam_url":"https://atmos.uw.edu/data/images/webcam2_latest.jpg","model_version":"latest"}}
{"started_at":"2026-05-03T06:20:14Z","finished_at":"2026-05-03T06:20:16Z","duration_seconds":2.000,"status":"ok","state":{"timestamp_utc":"2026-05-03T06:20:16Z","class_index":0,"class_name":"not_out","is_out":false,"confidence":{"not_out":0.9990449547767639,"full":0.0004933361778967083,"partial":0.0004617316590156406},"weather":{"station":"KSEA","visibility_sm":10.0,"ceiling_ft":null,"raw":"KSEA 030553Z 02009KT 10SM CLR 18/06 A2995 RMK AO2 SLP148 T01830061 10233 20172 51011 $"},"webcam_url":"https://atmos.uw.edu/data/images/webcam2_latest.jpg","model_version":"latest"}}
{"started_at":"2026-05-03T06:35:19Z","finished_at":"2026-05-03T06:35:21Z","duration_seconds":2.000,"status":"ok","state":{"timestamp_utc":"2026-05-03T06:35:21Z","class_index":0,"class_name":"not_out","is_out":false,"confidence":{"not_out":0.9987848401069641,"full":0.000678751734085381,"partial":0.0005363454110920429},"weather":{"station":"KSEA","visibility_sm":10.0,"ceiling_ft":null,"raw":"KSEA 030553Z 02009KT 10SM CLR 18/06 A2995 RMK AO2 SLP148 T01830061 10233 20172 51011 $"},"webcam_url":"https://atmos.uw.edu/data/images/webcam2_latest.jpg","model_version":"latest"}}
{"started_at":"2026-05-03T06:50:25Z","finished_at":"2026-05-03T06:50:27Z","duration_seconds":2.000,"status":"ok","state":{"timestamp_utc":"2026-05-03T06:50:27Z","class_index":0,"class_name":"not_out","is_out":false,"confidence":{"not_out":0.9983349442481995,"full":0.0009029888897202909,"partial":0.0007621708209626377},"weather":{"station":"KSEA","visibility_sm":10.0,"ceiling_ft":null,"raw":"KSEA 030553Z 02009KT 10SM CLR 18/06 A2995 RMK AO2 SLP148 T01830061 10233 20172 51011 $"},"webcam_url":"https://atmos.uw.edu/data/images/webcam2_latest.jpg","model_version":"latest"}}
{"started_at":"2026-05-03T07:05:31Z","finished_at":"2026-05-03T07:05:33Z","duration_seconds":2.000,"status":"ok","state":{"timestamp_utc":"2026-05-03T07:05:33Z","class_index":0,"class_name":"not_out","is_out":false,"confidence":{"not_out":0.998390793800354,"full":0.0009146248339675367,"partial":0.0006945528439246118},"weather":{"station":"KSEA","visibility_sm":10.0,"ceiling_ft":null,"raw":"KSEA 030653Z 02008KT 10SM CLR 18/06 A2996 RMK AO2 SLP148 T01830056 $"},"webcam_url":"https://atmos.uw.edu/data/images/webcam2_latest.jpg","model_version":"latest"}}
{"started_at":"2026-05-03T07:20:36Z","finished_at":"2026-05-03T07:20:39Z","duration_seconds":3.000,"status":"ok","state":{"timestamp_utc":"2026-05-03T07:20:39Z","class_index":0,"class_name":"not_out","is_out":false,"confidence":{"not_out":0.9983768463134766,"full":0.0009720769594423473,"partial":0.0006509870872832835},"weather":{"station":"KSEA","visibility_sm":10.0,"ceiling_ft":null,"raw":"KSEA 030653Z 02008KT 10SM CLR 18/06 A2996 RMK AO2 SLP148 T01830056 $"},"webcam_url":"https://atmos.uw.edu/data/images/webcam2_latest.jpg","model_version":"latest"}}
{"started_at":"2026-05-03T07:35:42Z","finished_at":"2026-05-03T07:35:44Z","duration_seconds":2.000,"status":"ok","state":{"timestamp_utc":"2026-05-03T07:35:44Z","class_index":0,"class_name":"not_out","is_out":false,"confidence":{"not_out":0.9985998272895813,"full":0.0007300970028154552,"partial":0.0006701062666252255},"weather":{"station":"KSEA","visibility_sm":10.0,"ceiling_ft":null,"raw":"KSEA 030653Z 02008KT 10SM CLR 18/06 A2996 RMK AO2 SLP148 T01830056 $"},"webcam_url":"https://atmos.uw.edu/data/images/webcam2_latest.jpg","model_version":"latest"}}
{"started_at":"2026-05-03T07:50:48Z","finished_at":"2026-05-03T07:50:50Z","duration_seconds":2.000,"status":"ok","state":{"timestamp_utc":"2026-05-03T07:50:50Z","class_index":0,"class_name":"not_out","is_out":false,"confidence":{"not_out":0.9985349178314209,"full":0.0008049621828831732,"partial":0.0006601325003430247},"weather":{"station":"KSEA","visibility_sm":10.0,"ceiling_ft":null,"raw":"KSEA 030653Z 02008KT 10SM CLR 18/06 A2996 RMK AO2 SLP148 T01830056 $"},"webcam_url":"https://atmos.uw.edu/data/images/webcam2_latest.jpg","model_version":"latest"}}
{"started_at":"2026-05-03T08:05:53Z","finished_at":"2026-05-03T08:05:55Z","duration_seconds":2.000,"status":"ok","state":{"timestamp_utc":"2026-05-03T08:05:55Z","class_index":0,"class_name":"not_out","is_out":false,"confidence":{"not_out":0.9986666440963745,"full":0.0007091324077919126,"partial":0.0006242377567104995},"weather":{"station":"KSEA","visibility_sm":10.0,"ceiling_ft":null,"raw":"KSEA 030753Z 02004KT 10SM CLR 17/06 A2996 RMK AO2 SLP149 T01720061 402330094 $"},"webcam_url":"https://atmos.uw.edu/data/images/webcam2_latest.jpg","model_version":"latest"}}
{"started_at":"2026-05-03T08:20:59Z","finished_at":"2026-05-03T08:21:01Z","duration_seconds":2.000,"status":"ok","state":{"timestamp_utc":"2026-05-03T08:21:01Z","class_index":0,"class_name":"not_out","is_out":false,"confidence":{"not_out":0.998721182346344,"full":0.0006732433685101569,"partial":0.0006054883706383407},"weather":{"station":"KSEA","visibility_sm":10.0,"ceiling_ft":null,"raw":"KSEA 030753Z 02004KT 10SM CLR 17/06 A2996 RMK AO2 SLP149 T01720061 402330094 $"},"webcam_url":"https://atmos.uw.edu/data/images/webcam2_latest.jpg","model_version":"latest"}}
{"started_at":"2026-05-03T08:36:04Z","finished_at":"2026-05-03T08:36:06Z","duration_seconds":2.000,"status":"ok","state":{"timestamp_utc":"2026-05-03T08:36:06Z","class_index":0,"class_name":"not_out","is_out":false,"confidence":{"not_out":0.9983034133911133,"full":0.0007989134173840284,"partial":0.0008977064280770719},"weather":{"station":"KSEA","visibility_sm":10.0,"ceiling_ft":null,"raw":"KSEA 030753Z 02004KT 10SM CLR 17/06 A2996 RMK AO2 SLP149 T01720061 402330094 $"},"webcam_url":"https://atmos.uw.edu/data/images/webcam2_latest.jpg","model_version":"latest"}}
{"started_at":"2026-05-03T08:51:10Z","finished_at":"2026-05-03T08:51:12Z","duration_seconds":2.000,"status":"ok","state":{"timestamp_utc":"2026-05-03T08:51:12Z","class_index":0,"class_name":"not_out","is_out":false,"confidence":{"not_out":0.9993647933006287,"full":0.0003330913605168462,"partial":0.0003021318989340216},"weather":{"station":"KSEA","visibility_sm":10.0,"ceiling_ft":null,"raw":"KSEA 030753Z 02004KT 10SM CLR 17/06 A2996 RMK AO2 SLP149 T01720061 402330094 $"},"webcam_url":"https://atmos.uw.edu/data/images/webcam2_latest.jpg","model_version":"latest"}}
{"started_at":"2026-05-03T09:06:16Z","finished_at":"2026-05-03T09:06:18Z","duration_seconds":2.000,"status":"ok","state":{"timestamp_utc":"2026-05-03T09:06:18Z","class_index":0,"class_name":"not_out","is_out":false,"confidence":{"not_out":0.9992170333862305,"full":0.00042987283086404204,"partial":0.0003530388348735869},"weather":{"station":"KSEA","visibility_sm":10.0,"ceiling_ft":null,"raw":"KSEA 030853Z 02005KT 10SM CLR 17/07 A2997 RMK AO2 SLP151 T01720067 53005 $"},"webcam_url":"https://atmos.uw.edu/data/images/webcam2_latest.jpg","model_version":"latest"}}
{"started_at":"2026-05-03T09:21:22Z","finished_at":"2026-05-03T09:21:24Z","duration_seconds":2.000,"status":"ok","state":{"timestamp_utc":"2026-05-03T09:21:24Z","class_index":0,"class_name":"not_out","is_out":false,"confidence":{"not_out":0.9993674159049988,"full":0.0003574309521354735,"partial":0.00027520983712747693},"weather":{"station":"KSEA","visibility_sm":10.0,"ceiling_ft":null,"raw":"KSEA 030853Z 02005KT 10SM CLR 17/07 A2997 RMK AO2 SLP151 T01720067 53005 $"},"webcam_url":"https://atmos.uw.edu/data/images/webcam2_latest.jpg","model_version":"latest"}}
{"started_at":"2026-05-03T09:36:27Z","finished_at":"2026-05-03T09:36:30Z","duration_seconds":3.000,"status":"ok","state":{"timestamp_utc":"2026-05-03T09:36:29Z","class_index":0,"class_name":"not_out","is_out":false,"confidence":{"not_out":0.9992278814315796,"full":0.0004505176329985261,"partial":0.00032159604597836733},"weather":{"station":"KSEA","visibility_sm":10.0,"ceiling_ft":null,"raw":"KSEA 030853Z 02005KT 10SM CLR 17/07 A2997 RMK AO2 SLP151 T01720067 53005 $"},"webcam_url":"https://atmos.uw.edu/data/images/webcam2_latest.jpg","model_version":"latest"}}
{"started_at":"2026-05-03T09:51:33Z","finished_at":"2026-05-03T09:51:35Z","duration_seconds":2.000,"status":"ok","state":{"timestamp_utc":"2026-05-03T09:51:35Z","class_index":0,"class_name":"not_out","is_out":false,"confidence":{"not_out":0.9994402527809143,"full":0.0003168245602864772,"partial":0.0002428863081149757},"weather":{"station":"KSEA","visibility_sm":10.0,"ceiling_ft":null,"raw":"KSEA 030853Z 02005KT 10SM CLR 17/07 A2997 RMK AO2 SLP151 T01720067 53005 $"},"webcam_url":"https://atmos.uw.edu/data/images/webcam2_latest.jpg","model_version":"latest"}}
{"started_at":"2026-05-03T10:06:39Z","finished_at":"2026-05-03T10:06:41Z","duration_seconds":2.000,"status":"ok","state":{"timestamp_utc":"2026-05-03T10:06:41Z","class_index":0,"class_name":"not_out","is_out":false,"confidence":{"not_out":0.9994698166847229,"full":0.0002932804054580629,"partial":0.00023684478946961462},"weather":{"station":"KSEA","visibility_sm":10.0,"ceiling_ft":null,"raw":"KSEA 030953Z 04004KT 10SM CLR 16/07 A2996 RMK AO2 SLP148 T01560072 $"},"webcam_url":"https://atmos.uw.edu/data/images/webcam2_latest.jpg","model_version":"latest"}}
{"started_at":"2026-05-03T10:21:44Z","finished_at":"2026-05-03T10:21:46Z","duration_seconds":2.000,"status":"ok","state":{"timestamp_utc":"2026-05-03T10:21:46Z","class_index":0,"class_name":"not_out","is_out":false,"confidence":{"not_out":0.9995865225791931,"full":0.0002161783049814403,"partial":0.0001973479666048661},"weather":{"station":"KSEA","visibility_sm":10.0,"ceiling_ft":null,"raw":"KSEA 030953Z 04004KT 10SM CLR 16/07 A2996 RMK AO2 SLP148 T01560072 $"},"webcam_url":"https://atmos.uw.edu/data/images/webcam2_latest.jpg","model_version":"latest"}}
{"started_at":"2026-05-03T10:36:50Z","finished_at":"2026-05-03T10:36:52Z","duration_seconds":2.000,"status":"ok","state":{"timestamp_utc":"2026-05-03T10:36:52Z","class_index":0,"class_name":"not_out","is_out":false,"confidence":{"not_out":0.9990555644035339,"full":0.0004729104111902416,"partial":0.00047144872951321304},"weather":{"station":"KSEA","visibility_sm":10.0,"ceiling_ft":null,"raw":"KSEA 030953Z 04004KT 10SM CLR 16/07 A2996 RMK AO2 SLP148 T01560072 $"},"webcam_url":"https://atmos.uw.edu/data/images/webcam2_latest.jpg","model_version":"latest"}}
{"started_at":"2026-05-03T10:51:56Z","finished_at":"2026-05-03T10:51:58Z","duration_seconds":2.000,"status":"ok","state":{"timestamp_utc":"2026-05-03T10:51:58Z","class_index":0,"class_name":"not_out","is_out":false,"confidence":{"not_out":0.9991806149482727,"full":0.0004432976129464805,"partial":0.0003759967512451112},"weather":{"station":"KSEA","visibility_sm":10.0,"ceiling_ft":null,"raw":"KSEA 030953Z 04004KT 10SM CLR 16/07 A2996 RMK AO2 SLP148 T01560072 $"},"webcam_url":"https://atmos.uw.edu/data/images/webcam2_latest.jpg","model_version":"latest"}}
{"started_at":"2026-05-03T11:07:01Z","finished_at":"2026-05-03T11:07:04Z","duration_seconds":3.000,"status":"ok","state":{"timestamp_utc":"2026-05-03T11:07:04Z","class_index":0,"class_name":"not_out","is_out":false,"confidence":{"not_out":0.9995063543319702,"full":0.00024360156385228038,"partial":0.0002501186972949654},"weather":{"station":"KSEA","visibility_sm":10.0,"ceiling_ft":null,"raw":"KSEA 031053Z 03007KT 10SM CLR 14/07 A2996 RMK AO2 SLP148 T01440072 $"},"webcam_url":"https://atmos.uw.edu/data/images/webcam2_latest.jpg","model_version":"latest"}}
{"started_at":"2026-05-03T11:22:07Z","finished_at":"2026-05-03T11:22:09Z","duration_seconds":2.000,"status":"ok","state":{"timestamp_utc":"2026-05-03T11:22:09Z","class_index":0,"class_name":"not_out","is_out":false,"confidence":{"not_out":0.9995032548904419,"full":0.00023720671015325934,"partial":0.0002595121040940285},"weather":{"station":"KSEA","visibility_sm":10.0,"ceiling_ft":null,"raw":"KSEA 031053Z 03007KT 10SM CLR 14/07 A2996 RMK AO2 SLP148 T01440072 $"},"webcam_url":"https://atmos.uw.edu/data/images/webcam2_latest.jpg","model_version":"latest"}}
{"started_at":"2026-05-03T11:37:13Z","finished_at":"2026-05-03T11:37:15Z","duration_seconds":2.000,"status":"ok","state":{"timestamp_utc":"2026-05-03T11:37:15Z","class_index":0,"class_name":"not_out","is_out":false,"confidence":{"not_out":0.9991928935050964,"full":0.000393563270336017,"partial":0.00041353070992045105},"weather":{"station":"KSEA","visibility_sm":10.0,"ceiling_ft":null,"raw":"KSEA 031053Z 03007KT 10SM CLR 14/07 A2996 RMK AO2 SLP148 T01440072 $"},"webcam_url":"https://atmos.uw.edu/data/images/webcam2_latest.jpg","model_version":"latest"}}
{"started_at":"2026-05-03T11:52:19Z","finished_at":"2026-05-03T11:52:21Z","duration_seconds":2.000,"status":"ok","state":{"timestamp_utc":"2026-05-03T11:52:21Z","class_index":0,"class_name":"not_out","is_out":false,"confidence":{"not_out":0.9994901418685913,"full":0.0002578315034043044,"partial":0.00025194481713697314},"weather":{"station":"KSEA","visibility_sm":10.0,"ceiling_ft":null,"raw":"KSEA 031053Z 03007KT 10SM CLR 14/07 A2996 RMK AO2 SLP148 T01440072 $"},"webcam_url":"https://atmos.uw.edu/data/images/webcam2_latest.jpg","model_version":"latest"}}
{"started_at":"2026-05-03T12:07:25Z","finished_at":"2026-05-03T12:07:27Z","duration_seconds":2.000,"status":"ok","state":{"timestamp_utc":"2026-05-03T12:07:27Z","class_index":0,"class_name":"not_out","is_out":false,"confidence":{"not_out":0.9965484738349915,"full":0.0003977928136009723,"partial":0.0030538251157850027},"weather":{"station":"KSEA","visibility_sm":10.0,"ceiling_ft":null,"raw":"KSEA 031153Z 02007KT 10SM CLR 14/08 A2995 RMK AO2 SLP146 T01390078 10189 20139 56005 $"},"webcam_url":"https://atmos.uw.edu/data/images/webcam2_latest.jpg","model_version":"latest"}}
{"started_at":"2026-05-03T12:22:30Z","finished_at":"2026-05-03T12:22:32Z","duration_seconds":2.000,"status":"ok","state":{"timestamp_utc":"2026-05-03T12:22:32Z","class_index":2,"class_name":"partial","is_out":true,"confidence":{"not_out":0.021934635937213898,"full":0.017372090369462967,"partial":0.9606932401657104},"weather":{"station":"KSEA","visibility_sm":10.0,"ceiling_ft":null,"raw":"KSEA 031153Z 02007KT 10SM CLR 14/08 A2995 RMK AO2 SLP146 T01390078 10189 20139 56005 $"},"webcam_url":"https://atmos.uw.edu/data/images/webcam2_latest.jpg","model_version":"latest"}}
{"started_at":"2026-05-03T12:37:36Z","finished_at":"2026-05-03T12:37:38Z","duration_seconds":2.000,"status":"ok","state":{"timestamp_utc":"2026-05-03T12:37:38Z","class_index":2,"class_name":"partial","is_out":true,"confidence":{"not_out":0.023407751694321632,"full":0.3469085097312927,"partial":0.6296837329864502},"weather":{"station":"KSEA","visibility_sm":10.0,"ceiling_ft":null,"raw":"KSEA 031153Z 02007KT 10SM CLR 14/08 A2995 RMK AO2 SLP146 T01390078 10189 20139 56005 $"},"webcam_url":"https://atmos.uw.edu/data/images/webcam2_latest.jpg","model_version":"latest"}}
{"started_at":"2026-05-03T12:52:41Z","finished_at":"2026-05-03T12:52:44Z","duration_seconds":3.000,"status":"ok","state":{"timestamp_utc":"2026-05-03T12:52:44Z","class_index":1,"class_name":"full","is_out":true,"confidence":{"not_out":0.01451841089874506,"full":0.5457146763801575,"partial":0.43976691365242004},"weather":{"station":"KSEA","visibility_sm":10.0,"ceiling_ft":null,"raw":"KSEA 031153Z 02007KT 10SM CLR 14/08 A2995 RMK AO2 SLP146 T01390078 10189 20139 56005 $"},"webcam_url":"https://atmos.uw.edu/data/images/webcam2_latest.jpg","model_version":"latest"}}
{"started_at":"2026-05-03T13:07:47Z","finished_at":"2026-05-03T13:07:49Z","duration_seconds":2.000,"status":"ok","state":{"timestamp_utc":"2026-05-03T13:07:49Z","class_index":2,"class_name":"partial","is_out":true,"confidence":{"not_out":0.055563509464263916,"full":0.015291896648705006,"partial":0.929144561290741},"weather":{"station":"KSEA","visibility_sm":10.0,"ceiling_ft":null,"raw":"KSEA 031253Z 04005KT 10SM CLR 13/08 A2995 RMK AO2 SLP145 T01330083 $"},"webcam_url":"https://atmos.uw.edu/data/images/webcam2_latest.jpg","model_version":"latest"}}
{"started_at":"2026-05-03T13:22:53Z","finished_at":"2026-05-03T13:22:55Z","duration_seconds":2.000,"status":"ok","state":{"timestamp_utc":"2026-05-03T13:22:55Z","class_index":2,"class_name":"partial","is_out":true,"confidence":{"not_out":0.005784230772405863,"full":0.37616169452667236,"partial":0.6180540919303894},"weather":{"station":"KSEA","visibility_sm":10.0,"ceiling_ft":null,"raw":"KSEA 031253Z 04005KT 10SM CLR 13/08 A2995 RMK AO2 SLP145 T01330083 $"},"webcam_url":"https://atmos.uw.edu/data/images/webcam2_latest.jpg","model_version":"latest"}}
{"started_at":"2026-05-03T13:37:59Z","finished_at":"2026-05-03T13:38:01Z","duration_seconds":2.000,"status":"ok","state":{"timestamp_utc":"2026-05-03T13:38:01Z","class_index":2,"class_name":"partial","is_out":true,"confidence":{"not_out":0.004687947686761618,"full":0.36924946308135986,"partial":0.6260625720024109},"weather":{"station":"KSEA","visibility_sm":10.0,"ceiling_ft":null,"raw":"KSEA 031253Z 04005KT 10SM CLR 13/08 A2995 RMK AO2 SLP145 T01330083 $"},"webcam_url":"https://atmos.uw.edu/data/images/webcam2_latest.jpg","model_version":"latest"}}
{"started_at":"2026-05-03T13:53:04Z","finished_at":"2026-05-03T13:53:06Z","duration_seconds":2.000,"status":"ok","state":{"timestamp_utc":"2026-05-03T13:53:06Z","class_index":2,"class_name":"partial","is_out":true,"confidence":{"not_out":0.0029302139300853014,"full":0.3984738290309906,"partial":0.598595917224884},"weather":{"station":"KSEA","visibility_sm":10.0,"ceiling_ft":null,"raw":"KSEA 031253Z 04005KT 10SM CLR 13/08 A2995 RMK AO2 SLP145 T01330083 $"},"webcam_url":"https://atmos.uw.edu/data/images/webcam2_latest.jpg","model_version":"latest"}}
{"started_at":"2026-05-03T14:08:10Z","finished_at":"2026-05-03T14:08:12Z","duration_seconds":2.000,"status":"ok","state":{"timestamp_utc":"2026-05-03T14:08:12Z","class_index":2,"class_name":"partial","is_out":true,"confidence":{"not_out":0.0019576677586883307,"full":0.16412031650543213,"partial":0.8339220881462097},"weather":{"station":"KSEA","visibility_sm":10.0,"ceiling_ft":null,"raw":"KSEA 031353Z 01005KT 10SM FEW100 14/09 A2995 RMK AO2 SLP145 T01390094 $"},"webcam_url":"https://atmos.uw.edu/data/images/webcam2_latest.jpg","model_version":"latest"}}
{"started_at":"2026-05-03T14:23:16Z","finished_at":"2026-05-03T14:23:18Z","duration_seconds":2.000,"status":"ok","state":{"timestamp_utc":"2026-05-03T14:23:18Z","class_index":2,"class_name":"partial","is_out":true,"confidence":{"not_out":0.002769910031929612,"full":0.3243694305419922,"partial":0.6728606820106506},"weather":{"station":"KSEA","visibility_sm":10.0,"ceiling_ft":null,"raw":"KSEA 031353Z 01005KT 10SM FEW100 14/09 A2995 RMK AO2 SLP145 T01390094 $"},"webcam_url":"https://atmos.uw.edu/data/images/webcam2_latest.jpg","model_version":"latest"}}
{"started_at":"2026-05-03T14:38:22Z","finished_at":"2026-05-03T14:38:24Z","duration_seconds":2.000,"status":"ok","state":{"timestamp_utc":"2026-05-03T14:38:24Z","class_index":2,"class_name":"partial","is_out":true,"confidence":{"not_out":0.001341487979516387,"full":0.24329344928264618,"partial":0.7553650736808777},"weather":{"station":"KSEA","visibility_sm":10.0,"ceiling_ft":null,"raw":"KSEA 031353Z 01005KT 10SM FEW100 14/09 A2995 RMK AO2 SLP145 T01390094 $"},"webcam_url":"https://atmos.uw.edu/data/images/webcam2_latest.jpg","model_version":"latest"}}
{"started_at":"2026-05-03T14:53:27Z","finished_at":"2026-05-03T14:53:30Z","duration_seconds":3.000,"status":"ok","state":{"timestamp_utc":"2026-05-03T14:53:30Z","class_index":2,"class_name":"partial","is_out":true,"confidence":{"not_out":0.0026176106184720993,"full":0.1383499652147293,"partial":0.8590324521064758},"weather":{"station":"KSEA","visibility_sm":10.0,"ceiling_ft":null,"raw":"KSEA 031353Z 01005KT 10SM FEW100 14/09 A2995 RMK AO2 SLP145 T01390094 $"},"webcam_url":"https://atmos.uw.edu/data/images/webcam2_latest.jpg","model_version":"latest"}}
{"started_at":"2026-05-03T15:08:33Z","finished_at":"2026-05-03T15:08:35Z","duration_seconds":2.000,"status":"ok","state":{"timestamp_utc":"2026-05-03T15:08:35Z","class_index":2,"class_name":"partial","is_out":true,"confidence":{"not_out":0.010614530183374882,"full":0.13267208635807037,"partial":0.8567134141921997},"weather":{"station":"KSEA","visibility_sm":10.0,"ceiling_ft":null,"raw":"KSEA 031453Z 35007KT 10SM FEW110 17/09 A2996 RMK AO2 SLP148 T01720089 53002 $"},"webcam_url":"https://atmos.uw.edu/data/images/webcam2_latest.jpg","model_version":"latest"}}
{"started_at":"2026-05-03T15:23:38Z","finished_at":"2026-05-03T15:23:41Z","duration_seconds":3.000,"status":"ok","state":{"timestamp_utc":"2026-05-03T15:23:41Z","class_index":2,"class_name":"partial","is_out":true,"confidence":{"not_out":0.006084589287638664,"full":0.18545623123645782,"partial":0.8084591627120972},"weather":{"station":"KSEA","visibility_sm":10.0,"ceiling_ft":null,"raw":"KSEA 031453Z 35007KT 10SM FEW110 17/09 A2996 RMK AO2 SLP148 T01720089 53002 $"},"webcam_url":"https://atmos.uw.edu/data/images/webcam2_latest.jpg","model_version":"latest"}}
{"started_at":"2026-05-03T15:38:44Z","finished_at":"2026-05-03T15:38:46Z","duration_seconds":3.000,"status":"ok","state":{"timestamp_utc":"2026-05-03T15:38:46Z","class_index":2,"class_name":"partial","is_out":true,"confidence":{"not_out":0.005212970077991486,"full":0.10342863202095032,"partial":0.8913584351539612},"weather":{"station":"KSEA","visibility_sm":10.0,"ceiling_ft":null,"raw":"KSEA 031453Z 35007KT 10SM FEW110 17/09 A2996 RMK AO2 SLP148 T01720089 53002 $"},"webcam_url":"https://atmos.uw.edu/data/images/webcam2_latest.jpg","model_version":"latest"}}
{"started_at":"2026-05-03T15:53:50Z","finished_at":"2026-05-03T15:53:53Z","duration_seconds":3.000,"status":"ok","state":{"timestamp_utc":"2026-05-03T15:53:53Z","class_index":2,"class_name":"partial","is_out":true,"confidence":{"not_out":0.006272497121244669,"full":0.06646930426359177,"partial":0.9272581934928894},"weather":{"station":"KSEA","visibility_sm":10.0,"ceiling_ft":null,"raw":"KSEA 031453Z 35007KT 10SM FEW110 17/09 A2996 RMK AO2 SLP148 T01720089 53002 $"},"webcam_url":"https://atmos.uw.edu/data/images/webcam2_latest.jpg","model_version":"latest"}}
{"started_at":"2026-05-03T16:08:56Z","finished_at":"2026-05-03T16:08:58Z","duration_seconds":2.000,"status":"ok","state":{"timestamp_utc":"2026-05-03T16:08:58Z","class_index":2,"class_name":"partial","is_out":true,"confidence":{"not_out":0.0066237919963896275,"full":0.03891042247414589,"partial":0.9544658064842224},"weather":{"station":"KSEA","visibility_sm":10.0,"ceiling_ft":null,"raw":"KSEA 031553Z 02011KT 10SM FEW120 18/09 A2996 RMK AO2 SLP149 T01780094 $"},"webcam_url":"https://atmos.uw.edu/data/images/webcam2_latest.jpg","model_version":"latest"}}
{"started_at":"2026-05-03T16:24:02Z","finished_at":"2026-05-03T16:24:04Z","duration_seconds":2.000,"status":"ok","state":{"timestamp_utc":"2026-05-03T16:24:04Z","class_index":2,"class_name":"partial","is_out":true,"confidence":{"not_out":0.004470172803848982,"full":0.01030388567596674,"partial":0.9852259755134583},"weather":{"station":"KSEA","visibility_sm":10.0,"ceiling_ft":null,"raw":"KSEA 031553Z 02011KT 10SM FEW120 18/09 A2996 RMK AO2 SLP149 T01780094 $"},"webcam_url":"https://atmos.uw.edu/data/images/webcam2_latest.jpg","model_version":"latest"}}
{"started_at":"2026-05-03T16:39:08Z","finished_at":"2026-05-03T16:39:10Z","duration_seconds":2.000,"status":"ok","state":{"timestamp_utc":"2026-05-03T16:39:10Z","class_index":2,"class_name":"partial","is_out":true,"confidence":{"not_out":0.0074211726896464825,"full":0.01879284903407097,"partial":0.973785936832428},"weather":{"station":"KSEA","visibility_sm":10.0,"ceiling_ft":null,"raw":"KSEA 031553Z 02011KT 10SM FEW120 18/09 A2996 RMK AO2 SLP149 T01780094 $"},"webcam_url":"https://atmos.uw.edu/data/images/webcam2_latest.jpg","model_version":"latest"}}
{"started_at":"2026-05-03T16:54:13Z","finished_at":"2026-05-03T16:54:15Z","duration_seconds":2.000,"status":"ok","state":{"timestamp_utc":"2026-05-03T16:54:15Z","class_index":2,"class_name":"partial","is_out":true,"confidence":{"not_out":0.004553391598165035,"full":0.02001827396452427,"partial":0.9754284024238586},"weather":{"station":"KSEA","visibility_sm":10.0,"ceiling_ft":null,"raw":"KSEA 031553Z 02011KT 10SM FEW120 18/09 A2996 RMK AO2 SLP149 T01780094 $"},"webcam_url":"https://atmos.uw.edu/data/images/webcam2_latest.jpg","model_version":"latest"}}
{"started_at":"2026-05-03T17:09:19Z","finished_at":"2026-05-03T17:09:21Z","duration_seconds":2.000,"status":"ok","state":{"timestamp_utc":"2026-05-03T17:09:21Z","class_index":2,"class_name":"partial","is_out":true,"confidence":{"not_out":0.009115094318985939,"full":0.05503608286380768,"partial":0.9358487725257874},"weather":{"station":"KSEA","visibility_sm":10.0,"ceiling_ft":null,"raw":"KSEA 031653Z 02009KT 10SM FEW120 20/10 A2995 RMK AO2 SLP146 T02000100 $"},"webcam_url":"https://atmos.uw.edu/data/images/webcam2_latest.jpg","model_version":"latest"}}
{"started_at":"2026-05-03T17:24:25Z","finished_at":"2026-05-03T17:24:27Z","duration_seconds":2.000,"status":"ok","state":{"timestamp_utc":"2026-05-03T17:24:27Z","class_index":2,"class_name":"partial","is_out":true,"confidence":{"not_out":0.008445408195257187,"full":0.048467088490724564,"partial":0.9430875182151794},"weather":{"station":"KSEA","visibility_sm":10.0,"ceiling_ft":null,"raw":"KSEA 031653Z 02009KT 10SM FEW120 20/10 A2995 RMK AO2 SLP146 T02000100 $"},"webcam_url":"https://atmos.uw.edu/data/images/webcam2_latest.jpg","model_version":"latest"}}
{"started_at":"2026-05-03T17:39:30Z","finished_at":"2026-05-03T17:39:32Z","duration_seconds":2.000,"status":"ok","state":{"timestamp_utc":"2026-05-03T17:39:32Z","class_index":2,"class_name":"partial","is_out":true,"confidence":{"not_out":0.01740267314016819,"full":0.12843887507915497,"partial":0.8541584610939026},"weather":{"station":"KSEA","visibility_sm":10.0,"ceiling_ft":null,"raw":"KSEA 031653Z 02009KT 10SM FEW120 20/10 A2995 RMK AO2 SLP146 T02000100 $"},"webcam_url":"https://atmos.uw.edu/data/images/webcam2_latest.jpg","model_version":"latest"}}
{"started_at":"2026-05-03T17:54:36Z","finished_at":"2026-05-03T17:54:38Z","duration_seconds":2.000,"status":"ok","state":{"timestamp_utc":"2026-05-03T17:54:38Z","class_index":2,"class_name":"partial","is_out":true,"confidence":{"not_out":0.020488154143095016,"full":0.062316641211509705,"partial":0.9171952605247498},"weather":{"station":"KSEA","visibility_sm":10.0,"ceiling_ft":null,"raw":"KSEA 031653Z 02009KT 10SM FEW120 20/10 A2995 RMK AO2 SLP146 T02000100 $"},"webcam_url":"https://atmos.uw.edu/data/images/webcam2_latest.jpg","model_version":"latest"}}
{"started_at":"2026-05-03T18:09:42Z","finished_at":"2026-05-03T18:09:44Z","duration_seconds":2.000,"status":"ok","state":{"timestamp_utc":"2026-05-03T18:09:44Z","class_index":2,"class_name":"partial","is_out":true,"confidence":{"not_out":0.029800692573189735,"full":0.16067464649677277,"partial":0.809524655342102},"weather":{"station":"KSEA","visibility_sm":10.0,"ceiling_ft":null,"raw":"KSEA 031753Z 36008KT 10SM FEW070 SCT180 22/11 A2994 RMK AO2 SLP144 T02170106 10217 20133 58004 $"},"webcam_url":"https://atmos.uw.edu/data/images/webcam2_latest.jpg","model_version":"latest"}}
{"started_at":"2026-05-03T18:24:47Z","finished_at":"2026-05-03T18:24:50Z","duration_seconds":3.000,"status":"ok","state":{"timestamp_utc":"2026-05-03T18:24:50Z","class_index":2,"class_name":"partial","is_out":true,"confidence":{"not_out":0.036326903849840164,"full":0.20185621082782745,"partial":0.7618168592453003},"weather":{"station":"KSEA","visibility_sm":10.0,"ceiling_ft":null,"raw":"KSEA 031753Z 36008KT 10SM FEW070 SCT180 22/11 A2994 RMK AO2 SLP144 T02170106 10217 20133 58004 $"},"webcam_url":"https://atmos.uw.edu/data/images/webcam2_latest.jpg","model_version":"latest"}}
{"started_at":"2026-05-03T18:39:54Z","finished_at":"2026-05-03T18:39:56Z","duration_seconds":2.000,"status":"ok","state":{"timestamp_utc":"2026-05-03T18:39:56Z","class_index":2,"class_name":"partial","is_out":true,"confidence":{"not_out":0.02939276397228241,"full":0.08049075305461884,"partial":0.8901164531707764},"weather":{"station":"KSEA","visibility_sm":10.0,"ceiling_ft":null,"raw":"KSEA 031753Z 36008KT 10SM FEW070 SCT180 22/11 A2994 RMK AO2 SLP144 T02170106 10217 20133 58004 $"},"webcam_url":"https://atmos.uw.edu/data/images/webcam2_latest.jpg","model_version":"latest"}}
{"started_at":"2026-05-03T18:55:00Z","finished_at":"2026-05-03T18:55:02Z","duration_seconds":2.000,"status":"ok","state":{"timestamp_utc":"2026-05-03T18:55:02Z","class_index":1,"class_name":"full","is_out":true,"confidence":{"not_out":0.02092699147760868,"full":0.7445902228355408,"partial":0.23448273539543152},"weather":{"station":"KSEA","visibility_sm":10.0,"ceiling_ft":null,"raw":"KSEA 031753Z 36008KT 10SM FEW070 SCT180 22/11 A2994 RMK AO2 SLP144 T02170106 10217 20133 58004 $"},"webcam_url":"https://atmos.uw.edu/data/images/webcam2_latest.jpg","model_version":"latest"}}
{"started_at":"2026-05-03T19:10:05Z","finished_at":"2026-05-03T19:10:08Z","duration_seconds":3.000,"status":"ok","state":{"timestamp_utc":"2026-05-03T19:10:08Z","class_index":2,"class_name":"partial","is_out":true,"confidence":{"not_out":0.02801513671875,"full":0.3065662384033203,"partial":0.6654186248779297},"weather":{"station":"KSEA","visibility_sm":10.0,"ceiling_ft":null,"raw":"KSEA 031853Z 34008KT 10SM FEW080 SCT190 23/11 A2993 RMK AO2 SLP140 T02330106 $"},"webcam_url":"https://atmos.uw.edu/data/images/webcam2_latest.jpg","model_version":"latest"}}
{"started_at":"2026-05-03T19:25:12Z","finished_at":"2026-05-03T19:25:14Z","duration_seconds":2.000,"status":"ok","state":{"timestamp_utc":"2026-05-03T19:25:14Z","class_index":1,"class_name":"full","is_out":true,"confidence":{"not_out":0.06033114343881607,"full":0.5366991758346558,"partial":0.402969628572464},"weather":{"station":"KSEA","visibility_sm":10.0,"ceiling_ft":null,"raw":"KSEA 031853Z 34008KT 10SM FEW080 SCT190 23/11 A2993 RMK AO2 SLP140 T02330106 $"},"webcam_url":"https://atmos.uw.edu/data/images/webcam2_latest.jpg","model_version":"latest"}}
{"started_at":"2026-05-03T19:40:17Z","finished_at":"2026-05-03T19:40:20Z","duration_seconds":3.000,"status":"ok","state":{"timestamp_utc":"2026-05-03T19:40:20Z","class_index":2,"class_name":"partial","is_out":true,"confidence":{"not_out":0.02885991334915161,"full":0.3942219913005829,"partial":0.5769180655479431},"weather":{"station":"KSEA","visibility_sm":10.0,"ceiling_ft":null,"raw":"KSEA 031853Z 34008KT 10SM FEW080 SCT190 23/11 A2993 RMK AO2 SLP140 T02330106 $"},"webcam_url":"https://atmos.uw.edu/data/images/webcam2_latest.jpg","model_version":"latest"}}
{"started_at":"2026-05-03T19:55:23Z","finished_at":"2026-05-03T19:55:26Z","duration_seconds":3.000,"status":"ok","state":{"timestamp_utc":"2026-05-03T19:55:26Z","class_index":2,"class_name":"partial","is_out":true,"confidence":{"not_out":0.03272408992052078,"full":0.23378275334835052,"partial":0.7334932088851929},"weather":{"station":"KSEA","visibility_sm":10.0,"ceiling_ft":null,"raw":"KSEA 031853Z 34008KT 10SM FEW080 SCT190 23/11 A2993 RMK AO2 SLP140 T02330106 $"},"webcam_url":"https://atmos.uw.edu/data/images/webcam2_latest.jpg","model_version":"latest"}}
{"started_at":"2026-05-03T20:10:29Z","finished_at":"2026-05-03T20:10:32Z","duration_seconds":3.000,"status":"ok","state":{"timestamp_utc":"2026-05-03T20:10:32Z","class_index":2,"class_name":"partial","is_out":true,"confidence":{"not_out":0.033387139439582825,"full":0.3839964270591736,"partial":0.5826164484024048},"weather":{"station":"KSEA","visibility_sm":10.0,"ceiling_ft":null,"raw":"KSEA 031953Z 34006KT 10SM FEW110 SCT230 24/11 A2991 RMK AO2 SLP133 T02390106 $"},"webcam_url":"https://atmos.uw.edu/data/images/webcam2_latest.jpg","model_version":"latest"}}
{"started_at":"2026-05-03T20:25:35Z","finished_at":"2026-05-03T20:25:38Z","duration_seconds":3.000,"status":"ok","state":{"timestamp_utc":"2026-05-03T20:25:38Z","class_index":1,"class_name":"full","is_out":true,"confidence":{"not_out":0.06341055780649185,"full":0.5042220950126648,"partial":0.43236735463142395},"weather":{"station":"KSEA","visibility_sm":10.0,"ceiling_ft":null,"raw":"KSEA 031953Z 34006KT 10SM FEW110 SCT230 24/11 A2991 RMK AO2 SLP133 T02390106 $"},"webcam_url":"https://atmos.uw.edu/data/images/webcam2_latest.jpg","model_version":"latest"}}
{"started_at":"2026-05-03T20:40:42Z","finished_at":"2026-05-03T20:40:46Z","duration_seconds":4.000,"status":"ok","state":{"timestamp_utc":"2026-05-03T20:40:46Z","class_index":1,"class_name":"full","is_out":true,"confidence":{"not_out":0.18822644650936127,"full":0.48811349272727966,"partial":0.32366007566452026},"weather":{"station":"KSEA","visibility_sm":10.0,"ceiling_ft":null,"raw":"KSEA 031953Z 34006KT 10SM FEW110 SCT230 24/11 A2991 RMK AO2 SLP133 T02390106 $"},"webcam_url":"https://atmos.uw.edu/data/images/webcam2_latest.jpg","model_version":"latest"}}
{"started_at":"2026-05-03T20:55:50Z","finished_at":"2026-05-03T20:55:52Z","duration_seconds":2.000,"status":"ok","state":{"timestamp_utc":"2026-05-03T20:55:52Z","class_index":2,"class_name":"partial","is_out":true,"confidence":{"not_out":0.03307364135980606,"full":0.3896709978580475,"partial":0.577255368232727},"weather":{"station":"KSEA","visibility_sm":10.0,"ceiling_ft":null,"raw":"KSEA 031953Z 34006KT 10SM FEW110 SCT230 24/11 A2991 RMK AO2 SLP133 T02390106 $"},"webcam_url":"https://atmos.uw.edu/data/images/webcam2_latest.jpg","model_version":"latest"}}
{"started_at":"2026-05-03T21:10:56Z","finished_at":"2026-05-03T21:10:58Z","duration_seconds":2.000,"status":"ok","state":{"timestamp_utc":"2026-05-03T21:10:58Z","class_index":2,"class_name":"partial","is_out":true,"confidence":{"not_out":0.05225528031587601,"full":0.16136467456817627,"partial":0.7863799929618835},"weather":{"station":"KSEA","visibility_sm":10.0,"ceiling_ft":null,"raw":"KSEA 032053Z 34010KT 10SM FEW080 SCT230 25/10 A2989 RMK AO2 SLP127 T02500100 58017 $"},"webcam_url":"https://atmos.uw.edu/data/images/webcam2_latest.jpg","model_version":"latest"}}
{"started_at":"2026-05-03T21:26:01Z","finished_at":"2026-05-03T21:26:03Z","duration_seconds":2.000,"status":"ok","state":{"timestamp_utc":"2026-05-03T21:26:03Z","class_index":1,"class_name":"full","is_out":true,"confidence":{"not_out":0.20576822757720947,"full":0.757010817527771,"partial":0.03722096607089043},"weather":{"station":"KSEA","visibility_sm":10.0,"ceiling_ft":null,"raw":"KSEA 032053Z 34010KT 10SM FEW080 SCT230 25/10 A2989 RMK AO2 SLP127 T02500100 58017 $"},"webcam_url":"https://atmos.uw.edu/data/images/webcam2_latest.jpg","model_version":"latest"}}
{"started_at":"2026-05-03T21:41:07Z","finished_at":"2026-05-03T21:41:09Z","duration_seconds":2.000,"status":"ok","state":{"timestamp_utc":"2026-05-03T21:41:09Z","class_index":1,"class_name":"full","is_out":true,"confidence":{"not_out":0.10805943608283997,"full":0.6226673126220703,"partial":0.26927316188812256},"weather":{"station":"KSEA","visibility_sm":10.0,"ceiling_ft":null,"raw":"KSEA 032053Z 34010KT 10SM FEW080 SCT230 25/10 A2989 RMK AO2 SLP127 T02500100 58017 $"},"webcam_url":"https://atmos.uw.edu/data/images/webcam2_latest.jpg","model_version":"latest"}}
{"started_at":"2026-05-03T21:56:12Z","finished_at":"2026-05-03T21:56:15Z","duration_seconds":3.000,"status":"ok","state":{"timestamp_utc":"2026-05-03T21:56:14Z","class_index":1,"class_name":"full","is_out":true,"confidence":{"not_out":0.21746033430099487,"full":0.43631237745285034,"partial":0.3462273180484772},"weather":{"station":"KSEA","visibility_sm":10.0,"ceiling_ft":null,"raw":"KSEA 032153Z 36009KT 10SM FEW070 SCT240 26/09 A2988 RMK AO2 SLP121 T02610089 $"},"webcam_url":"https://atmos.uw.edu/data/images/webcam2_latest.jpg","model_version":"latest"}}
{"started_at":"2026-05-03T22:11:18Z","finished_at":"2026-05-03T22:11:21Z","duration_seconds":3.000,"status":"ok","state":{"timestamp_utc":"2026-05-03T22:11:21Z","class_index":2,"class_name":"partial","is_out":true,"confidence":{"not_out":0.2747937738895416,"full":0.35579878091812134,"partial":0.3694075047969818},"weather":{"station":"KSEA","visibility_sm":10.0,"ceiling_ft":null,"raw":"KSEA 032153Z 36009KT 10SM FEW070 SCT240 26/09 A2988 RMK AO2 SLP121 T02610089 $"},"webcam_url":"https://atmos.uw.edu/data/images/webcam2_latest.jpg","model_version":"latest"}}
{"started_at":"2026-05-03T22:26:24Z","finished_at":"2026-05-03T22:26:26Z","duration_seconds":2.000,"status":"ok","state":{"timestamp_utc":"2026-05-03T22:26:26Z","class_index":1,"class_name":"full","is_out":true,"confidence":{"not_out":0.21545006334781647,"full":0.6838394403457642,"partial":0.10071048885583878},"weather":{"station":"KSEA","visibility_sm":10.0,"ceiling_ft":null,"raw":"KSEA 032153Z 36009KT 10SM FEW070 SCT240 26/09 A2988 RMK AO2 SLP121 T02610089 $"},"webcam_url":"https://atmos.uw.edu/data/images/webcam2_latest.jpg","model_version":"latest"}}
{"started_at":"2026-05-03T22:41:30Z","finished_at":"2026-05-03T22:41:32Z","duration_seconds":2.000,"status":"ok","state":{"timestamp_utc":"2026-05-03T22:41:32Z","class_index":1,"class_name":"full","is_out":true,"confidence":{"not_out":0.03805096074938774,"full":0.9420003294944763,"partial":0.019948728382587433},"weather":{"station":"KSEA","visibility_sm":10.0,"ceiling_ft":null,"raw":"KSEA 032153Z 36009KT 10SM FEW070 SCT240 26/09 A2988 RMK AO2 SLP121 T02610089 $"},"webcam_url":"https://atmos.uw.edu/data/images/webcam2_latest.jpg","model_version":"latest"}}
{"started_at":"2026-05-03T22:56:36Z","finished_at":"2026-05-03T22:56:38Z","duration_seconds":2.000,"status":"ok","state":{"timestamp_utc":"2026-05-03T22:56:38Z","class_index":1,"class_name":"full","is_out":true,"confidence":{"not_out":0.02197052352130413,"full":0.9656364917755127,"partial":0.01239298190921545},"weather":{"station":"KSEA","visibility_sm":10.0,"ceiling_ft":null,"raw":"KSEA 032253Z 35008KT 10SM FEW070 SCT250 27/10 A2986 RMK AO2 SLP116 T02670100 $"},"webcam_url":"https://atmos.uw.edu/data/images/webcam2_latest.jpg","model_version":"latest"}}
{"started_at":"2026-05-03T23:11:41Z","finished_at":"2026-05-03T23:11:43Z","duration_seconds":2.000,"status":"ok","state":{"timestamp_utc":"2026-05-03T23:11:43Z","class_index":1,"class_name":"full","is_out":true,"confidence":{"not_out":0.09276391565799713,"full":0.858679473400116,"partial":0.04855665564537048},"weather":{"station":"KSEA","visibility_sm":10.0,"ceiling_ft":null,"raw":"KSEA 032253Z 35008KT 10SM FEW070 SCT250 27/10 A2986 RMK AO2 SLP116 T02670100 $"},"webcam_url":"https://atmos.uw.edu/data/images/webcam2_latest.jpg","model_version":"latest"}}
{"started_at":"2026-05-03T23:26:47Z","finished_at":"2026-05-03T23:26:49Z","duration_seconds":2.000,"status":"ok","state":{"timestamp_utc":"2026-05-03T23:26:49Z","class_index":1,"class_name":"full","is_out":true,"confidence":{"not_out":0.14763446152210236,"full":0.8301845192909241,"partial":0.02218097262084484},"weather":{"station":"KSEA","visibility_sm":10.0,"ceiling_ft":null,"raw":"KSEA 032253Z 35008KT 10SM FEW070 SCT250 27/10 A2986 RMK AO2 SLP116 T02670100 $"},"webcam_url":"https://atmos.uw.edu/data/images/webcam2_latest.jpg","model_version":"latest"}}
{"started_at":"2026-05-03T23:41:53Z","finished_at":"2026-05-03T23:41:55Z","duration_seconds":2.000,"status":"ok","state":{"timestamp_utc":"2026-05-03T23:41:55Z","class_index":1,"class_name":"full","is_out":true,"confidence":{"not_out":0.08179432898759842,"full":0.887027382850647,"partial":0.031178267672657967},"weather":{"station":"KSEA","visibility_sm":10.0,"ceiling_ft":null,"raw":"KSEA 032253Z 35008KT 10SM FEW070 SCT250 27/10 A2986 RMK AO2 SLP116 T02670100 $"},"webcam_url":"https://atmos.uw.edu/data/images/webcam2_latest.jpg","model_version":"latest"}}
{"started_at":"2026-05-03T23:56:58Z","finished_at":"2026-05-03T23:57:01Z","duration_seconds":3.000,"status":"ok","state":{"timestamp_utc":"2026-05-03T23:57:00Z","class_index":1,"class_name":"full","is_out":true,"confidence":{"not_out":0.028814509510993958,"full":0.935421347618103,"partial":0.03576408699154854},"weather":{"station":"KSEA","visibility_sm":10.0,"ceiling_ft":null,"raw":"KSEA 032353Z 36010KT 10SM FEW050 SCT140 SCT250 27/08 A2984 RMK AO2 SLP108 T02670083 10272 20217 58018 $"},"webcam_url":"https://atmos.uw.edu/data/images/webcam2_latest.jpg","model_version":"latest"}}
{"started_at":"2026-05-04T00:12:04Z","finished_at":"2026-05-04T00:12:07Z","duration_seconds":3.000,"status":"ok","state":{"timestamp_utc":"2026-05-04T00:12:07Z","class_index":1,"class_name":"full","is_out":true,"confidence":{"not_out":0.02257389947772026,"full":0.9625210762023926,"partial":0.014905058778822422},"weather":{"station":"KSEA","visibility_sm":10.0,"ceiling_ft":null,"raw":"KSEA 032353Z 36010KT 10SM FEW050 SCT140 SCT250 27/08 A2984 RMK AO2 SLP108 T02670083 10272 20217 58018 $"},"webcam_url":"https://atmos.uw.edu/data/images/webcam2_latest.jpg","model_version":"latest"}}
{"started_at":"2026-05-04T00:27:11Z","finished_at":"2026-05-04T00:27:13Z","duration_seconds":2.000,"status":"ok","state":{"timestamp_utc":"2026-05-04T00:27:13Z","class_index":1,"class_name":"full","is_out":true,"confidence":{"not_out":0.008667873218655586,"full":0.982964813709259,"partial":0.00836724042892456},"weather":{"station":"KSEA","visibility_sm":10.0,"ceiling_ft":null,"raw":"KSEA 032353Z 36010KT 10SM FEW050 SCT140 SCT250 27/08 A2984 RMK AO2 SLP108 T02670083 10272 20217 58018 $"},"webcam_url":"https://atmos.uw.edu/data/images/webcam2_latest.jpg","model_version":"latest"}}
{"started_at":"2026-05-04T00:42:17Z","finished_at":"2026-05-04T00:42:22Z","duration_seconds":5.000,"status":"ok","state":{"timestamp_utc":"2026-05-04T00:42:22Z","class_index":1,"class_name":"full","is_out":true,"confidence":{"not_out":0.015516637824475765,"full":0.9615151286125183,"partial":0.02296820655465126},"weather":{"station":"KSEA","visibility_sm":10.0,"ceiling_ft":null,"raw":"KSEA 032353Z 36010KT 10SM FEW050 SCT140 SCT250 27/08 A2984 RMK AO2 SLP108 T02670083 10272 20217 58018 $"},"webcam_url":"https://atmos.uw.edu/data/images/webcam2_latest.jpg","model_version":"latest"}}
{"started_at":"2026-05-04T00:57:26Z","finished_at":"2026-05-04T00:57:28Z","duration_seconds":2.000,"status":"ok","state":{"timestamp_utc":"2026-05-04T00:57:28Z","class_index":1,"class_name":"full","is_out":true,"confidence":{"not_out":0.007083566393703222,"full":0.9893970489501953,"partial":0.0035193338990211487},"weather":{"station":"KSEA","visibility_sm":10.0,"ceiling_ft":null,"raw":"KSEA 040053Z 35008KT 10SM FEW050 27/09 A2982 RMK AO2 SLP102 T02670094 $"},"webcam_url":"https://atmos.uw.edu/data/images/webcam2_latest.jpg","model_version":"latest"}}
{"started_at":"2026-05-04T01:12:32Z","finished_at":"2026-05-04T01:12:34Z","duration_seconds":2.000,"status":"ok","state":{"timestamp_utc":"2026-05-04T01:12:34Z","class_index":1,"class_name":"full","is_out":true,"confidence":{"not_out":0.011467358097434044,"full":0.9855734705924988,"partial":0.0029591969214379787},"weather":{"station":"KSEA","visibility_sm":10.0,"ceiling_ft":null,"raw":"KSEA 040053Z 35008KT 10SM FEW050 27/09 A2982 RMK AO2 SLP102 T02670094 $"},"webcam_url":"https://atmos.uw.edu/data/images/webcam2_latest.jpg","model_version":"latest"}}
{"started_at":"2026-05-04T01:27:37Z","finished_at":"2026-05-04T01:27:39Z","duration_seconds":2.000,"status":"ok","state":{"timestamp_utc":"2026-05-04T01:27:39Z","class_index":1,"class_name":"full","is_out":true,"confidence":{"not_out":0.026401229202747345,"full":0.9355916976928711,"partial":0.038007065653800964},"weather":{"station":"KSEA","visibility_sm":10.0,"ceiling_ft":null,"raw":"KSEA 040053Z 35008KT 10SM FEW050 27/09 A2982 RMK AO2 SLP102 T02670094 $"},"webcam_url":"https://atmos.uw.edu/data/images/webcam2_latest.jpg","model_version":"latest"}}
{"started_at":"2026-05-04T01:42:43Z","finished_at":"2026-05-04T01:42:45Z","duration_seconds":2.000,"status":"ok","state":{"timestamp_utc":"2026-05-04T01:42:45Z","class_index":1,"class_name":"full","is_out":true,"confidence":{"not_out":0.029607510194182396,"full":0.9306511282920837,"partial":0.03974136337637901},"weather":{"station":"KSEA","visibility_sm":10.0,"ceiling_ft":null,"raw":"KSEA 040053Z 35008KT 10SM FEW050 27/09 A2982 RMK AO2 SLP102 T02670094 $"},"webcam_url":"https://atmos.uw.edu/data/images/webcam2_latest.jpg","model_version":"latest"}}
{"started_at":"2026-05-04T01:57:48Z","finished_at":"2026-05-04T01:57:51Z","duration_seconds":3.000,"status":"ok","state":{"timestamp_utc":"2026-05-04T01:57:51Z","class_index":1,"class_name":"full","is_out":true,"confidence":{"not_out":0.022884391248226166,"full":0.891933262348175,"partial":0.08518239110708237},"weather":{"station":"KSEA","visibility_sm":10.0,"ceiling_ft":null,"raw":"KSEA 040153Z 35011KT 10SM FEW030 24/09 A2981 RMK AO2 SLP099 T02440089 $"},"webcam_url":"https://atmos.uw.edu/data/images/webcam2_latest.jpg","model_version":"latest"}}
{"started_at":"2026-05-04T02:12:54Z","finished_at":"2026-05-04T02:12:56Z","duration_seconds":2.000,"status":"ok","state":{"timestamp_utc":"2026-05-04T02:12:56Z","class_index":1,"class_name":"full","is_out":true,"confidence":{"not_out":0.01142155285924673,"full":0.7604376077651978,"partial":0.2281409054994583},"weather":{"station":"KSEA","visibility_sm":10.0,"ceiling_ft":null,"raw":"KSEA 040153Z 35011KT 10SM FEW030 24/09 A2981 RMK AO2 SLP099 T02440089 $"},"webcam_url":"https://atmos.uw.edu/data/images/webcam2_latest.jpg","model_version":"latest"}}
{"started_at":"2026-05-04T02:27:59Z","finished_at":"2026-05-04T02:28:02Z","duration_seconds":3.000,"status":"ok","state":{"timestamp_utc":"2026-05-04T02:28:02Z","class_index":1,"class_name":"full","is_out":true,"confidence":{"not_out":0.004456705413758755,"full":0.9005197286605835,"partial":0.09502343833446503},"weather":{"station":"KSEA","visibility_sm":10.0,"ceiling_ft":null,"raw":"KSEA 040153Z 35011KT 10SM FEW030 24/09 A2981 RMK AO2 SLP099 T02440089 $"},"webcam_url":"https://atmos.uw.edu/data/images/webcam2_latest.jpg","model_version":"latest"}}
{"started_at":"2026-05-04T02:43:05Z","finished_at":"2026-05-04T02:43:09Z","duration_seconds":4.000,"status":"ok","state":{"timestamp_utc":"2026-05-04T02:43:09Z","class_index":1,"class_name":"full","is_out":true,"confidence":{"not_out":0.007791587151587009,"full":0.7399611473083496,"partial":0.25224727392196655},"weather":{"station":"KSEA","visibility_sm":10.0,"ceiling_ft":null,"raw":"KSEA 040153Z 35011KT 10SM FEW030 24/09 A2981 RMK AO2 SLP099 T02440089 $"},"webcam_url":"https://atmos.uw.edu/data/images/webcam2_latest.jpg","model_version":"latest"}}
{"started_at":"2026-05-04T02:58:13Z","finished_at":"2026-05-04T02:58:15Z","duration_seconds":2.000,"status":"ok","state":{"timestamp_utc":"2026-05-04T02:58:15Z","class_index":1,"class_name":"full","is_out":true,"confidence":{"not_out":0.005312924273312092,"full":0.7390171885490417,"partial":0.25566983222961426},"weather":{"station":"KSEA","visibility_sm":10.0,"ceiling_ft":null,"raw":"KSEA 040253Z 34008KT 10SM FEW250 22/08 A2981 RMK AO2 SLP097 T02220083 56010 $"},"webcam_url":"https://atmos.uw.edu/data/images/webcam2_latest.jpg","model_version":"latest"}}
{"started_at":"2026-05-04T03:13:18Z","finished_at":"2026-05-04T03:13:20Z","duration_seconds":2.000,"status":"ok","state":{"timestamp_utc":"2026-05-04T03:13:20Z","class_index":1,"class_name":"full","is_out":true,"confidence":{"not_out":0.008342920802533627,"full":0.7996389865875244,"partial":0.19201810657978058},"weather":{"station":"KSEA","visibility_sm":10.0,"ceiling_ft":null,"raw":"KSEA 040253Z 34008KT 10SM FEW250 22/08 A2981 RMK AO2 SLP097 T02220083 56010 $"},"webcam_url":"https://atmos.uw.edu/data/images/webcam2_latest.jpg","model_version":"latest"}}
{"started_at":"2026-05-04T03:28:24Z","finished_at":"2026-05-04T03:28:26Z","duration_seconds":2.000,"status":"ok","state":{"timestamp_utc":"2026-05-04T03:28:26Z","class_index":2,"class_name":"partial","is_out":true,"confidence":{"not_out":0.09571776539087296,"full":0.1825983077287674,"partial":0.7216838598251343},"weather":{"station":"KSEA","visibility_sm":10.0,"ceiling_ft":null,"raw":"KSEA 040253Z 34008KT 10SM FEW250 22/08 A2981 RMK AO2 SLP097 T02220083 56010 $"},"webcam_url":"https://atmos.uw.edu/data/images/webcam2_latest.jpg","model_version":"latest"}}
{"started_at":"2026-05-04T03:43:30Z","finished_at":"2026-05-04T03:43:32Z","duration_seconds":2.000,"status":"ok","state":{"timestamp_utc":"2026-05-04T03:43:32Z","class_index":2,"class_name":"partial","is_out":true,"confidence":{"not_out":0.018745778128504753,"full":0.0029302227776497602,"partial":0.9783239960670471},"weather":{"station":"KSEA","visibility_sm":10.0,"ceiling_ft":null,"raw":"KSEA 040253Z 34008KT 10SM FEW250 22/08 A2981 RMK AO2 SLP097 T02220083 56010 $"},"webcam_url":"https://atmos.uw.edu/data/images/webcam2_latest.jpg","model_version":"latest"}}
{"started_at":"2026-05-04T03:58:36Z","finished_at":"2026-05-04T03:58:38Z","duration_seconds":2.000,"status":"ok","state":{"timestamp_utc":"2026-05-04T03:58:38Z","class_index":2,"class_name":"partial","is_out":true,"confidence":{"not_out":0.45121780037879944,"full":0.016929322853684425,"partial":0.5318527817726135},"weather":{"station":"KSEA","visibility_sm":10.0,"ceiling_ft":null,"raw":"KSEA 040353Z 01008KT 10SM CLR 21/07 A2981 RMK AO2 SLP098 T02060072 $"},"webcam_url":"https://atmos.uw.edu/data/images/webcam2_latest.jpg","model_version":"latest"}}
{"started_at":"2026-05-04T04:13:42Z","finished_at":"2026-05-04T04:13:44Z","duration_seconds":2.000,"status":"ok","state":{"timestamp_utc":"2026-05-04T04:13:44Z","class_index":0,"class_name":"not_out","is_out":false,"confidence":{"not_out":0.9995336532592773,"full":0.00017903473053593189,"partial":0.0002872443583328277},"weather":{"station":"KSEA","visibility_sm":10.0,"ceiling_ft":null,"raw":"KSEA 040353Z 01008KT 10SM CLR 21/07 A2981 RMK AO2 SLP098 T02060072 $"},"webcam_url":"https://atmos.uw.edu/data/images/webcam2_latest.jpg","model_version":"latest"}}
{"started_at":"2026-05-04T04:28:47Z","finished_at":"2026-05-04T04:28:50Z","duration_seconds":3.000,"status":"ok","state":{"timestamp_utc":"2026-05-04T04:28:50Z","class_index":0,"class_name":"not_out","is_out":false,"confidence":{"not_out":0.9984731078147888,"full":0.0008233664557337761,"partial":0.0007036007009446621},"weather":{"station":"KSEA","visibility_sm":10.0,"ceiling_ft":null,"raw":"KSEA 040353Z 01008KT 10SM CLR 21/07 A2981 RMK AO2 SLP098 T02060072 $"},"webcam_url":"https://atmos.uw.edu/data/images/webcam2_latest.jpg","model_version":"latest"}}
{"started_at":"2026-05-04T04:43:53Z","finished_at":"2026-05-04T04:43:55Z","duration_seconds":2.000,"status":"ok","state":{"timestamp_utc":"2026-05-04T04:43:55Z","class_index":0,"class_name":"not_out","is_out":false,"confidence":{"not_out":0.9983617663383484,"full":0.0008299472974613309,"partial":0.0008082650601863861},"weather":{"station":"KSEA","visibility_sm":10.0,"ceiling_ft":null,"raw":"KSEA 040353Z 01008KT 10SM CLR 21/07 A2981 RMK AO2 SLP098 T02060072 $"},"webcam_url":"https://atmos.uw.edu/data/images/webcam2_latest.jpg","model_version":"latest"}}
{"started_at":"2026-05-04T04:58:59Z","finished_at":"2026-05-04T04:59:01Z","duration_seconds":2.000,"status":"ok","state":{"timestamp_utc":"2026-05-04T04:59:01Z","class_index":0,"class_name":"not_out","is_out":false,"confidence":{"not_out":0.9981732368469238,"full":0.0009502895409241319,"partial":0.0008765241946093738},"weather":{"station":"KSEA","visibility_sm":10.0,"ceiling_ft":null,"raw":"KSEA 040453Z 03008KT 10SM CLR 22/07 A2982 RMK AO2 SLP100 T02170067 $"},"webcam_url":"https://atmos.uw.edu/data/images/webcam2_latest.jpg","model_version":"latest"}}
{"started_at":"2026-05-04T05:14:04Z","finished_at":"2026-05-04T05:14:06Z","duration_seconds":2.000,"status":"ok","state":{"timestamp_utc":"2026-05-04T05:14:06Z","class_index":0,"class_name":"not_out","is_out":false,"confidence":{"not_out":0.9987605810165405,"full":0.0006132671260274947,"partial":0.0006261797971092165},"weather":{"station":"KSEA","visibility_sm":10.0,"ceiling_ft":null,"raw":"KSEA 040453Z 03008KT 10SM CLR 22/07 A2982 RMK AO2 SLP100 T02170067 $"},"webcam_url":"https://atmos.uw.edu/data/images/webcam2_latest.jpg","model_version":"latest"}}
{"started_at":"2026-05-04T05:29:10Z","finished_at":"2026-05-04T05:29:12Z","duration_seconds":2.000,"status":"ok","state":{"timestamp_utc":"2026-05-04T05:29:12Z","class_index":0,"class_name":"not_out","is_out":false,"confidence":{"not_out":0.9981397390365601,"full":0.001041941810399294,"partial":0.0008182695601135492},"weather":{"station":"KSEA","visibility_sm":10.0,"ceiling_ft":null,"raw":"KSEA 040453Z 03008KT 10SM CLR 22/07 A2982 RMK AO2 SLP100 T02170067 $"},"webcam_url":"https://atmos.uw.edu/data/images/webcam2_latest.jpg","model_version":"latest"}}
{"started_at":"2026-05-04T05:44:15Z","finished_at":"2026-05-04T05:44:18Z","duration_seconds":3.000,"status":"ok","state":{"timestamp_utc":"2026-05-04T05:44:18Z","class_index":0,"class_name":"not_out","is_out":false,"confidence":{"not_out":0.9980106949806213,"full":0.0011224269401282072,"partial":0.0008670060196891427},"weather":{"station":"KSEA","visibility_sm":10.0,"ceiling_ft":null,"raw":"KSEA 040453Z 03008KT 10SM CLR 22/07 A2982 RMK AO2 SLP100 T02170067 $"},"webcam_url":"https://atmos.uw.edu/data/images/webcam2_latest.jpg","model_version":"latest"}}
{"started_at":"2026-05-04T05:59:21Z","finished_at":"2026-05-04T05:59:23Z","duration_seconds":2.000,"status":"ok","state":{"timestamp_utc":"2026-05-04T05:59:23Z","class_index":0,"class_name":"not_out","is_out":false,"confidence":{"not_out":0.9990403056144714,"full":0.0005384375108405948,"partial":0.0004212097264826298},"weather":{"station":"KSEA","visibility_sm":10.0,"ceiling_ft":null,"raw":"KSEA 040553Z 04008KT 10SM CLR 21/07 A2981 RMK AO2 SLP100 T02060072 10267 20206 50002 $"},"webcam_url":"https://atmos.uw.edu/data/images/webcam2_latest.jpg","model_version":"latest"}}
{"started_at":"2026-05-04T06:14:28Z","finished_at":"2026-05-04T06:14:30Z","duration_seconds":2.000,"status":"ok","state":{"timestamp_utc":"2026-05-04T06:14:30Z","class_index":0,"class_name":"not_out","is_out":false,"confidence":{"not_out":0.9983149766921997,"full":0.0009355556685477495,"partial":0.000749540573451668},"weather":{"station":"KSEA","visibility_sm":10.0,"ceiling_ft":null,"raw":"KSEA 040553Z 04008KT 10SM CLR 21/07 A2981 RMK AO2 SLP100 T02060072 10267 20206 50002 $"},"webcam_url":"https://atmos.uw.edu/data/images/webcam2_latest.jpg","model_version":"latest"}}
{"started_at":"2026-05-04T06:29:33Z","finished_at":"2026-05-04T06:29:35Z","duration_seconds":2.000,"status":"ok","state":{"timestamp_utc":"2026-05-04T06:29:35Z","class_index":0,"class_name":"not_out","is_out":false,"confidence":{"not_out":0.9992138147354126,"full":0.0004133940674364567,"partial":0.00037269387394189835},"weather":{"station":"KSEA","visibility_sm":10.0,"ceiling_ft":null,"raw":"KSEA 040553Z 04008KT 10SM CLR 21/07 A2981 RMK AO2 SLP100 T02060072 10267 20206 50002 $"},"webcam_url":"https://atmos.uw.edu/data/images/webcam2_latest.jpg","model_version":"latest"}}
{"started_at":"2026-05-04T06:44:39Z","finished_at":"2026-05-04T06:44:41Z","duration_seconds":2.000,"status":"ok","state":{"timestamp_utc":"2026-05-04T06:44:41Z","class_index":0,"class_name":"not_out","is_out":false,"confidence":{"not_out":0.9989417195320129,"full":0.0006195880123414099,"partial":0.00043864865438081324},"weather":{"station":"KSEA","visibility_sm":10.0,"ceiling_ft":null,"raw":"KSEA 040553Z 04008KT 10SM CLR 21/07 A2981 RMK AO2 SLP100 T02060072 10267 20206 50002 $"},"webcam_url":"https://atmos.uw.edu/data/images/webcam2_latest.jpg","model_version":"latest"}}
{"started_at":"2026-05-04T06:59:44Z","finished_at":"2026-05-04T06:59:47Z","duration_seconds":3.000,"status":"ok","state":{"timestamp_utc":"2026-05-04T06:59:47Z","class_index":0,"class_name":"not_out","is_out":false,"confidence":{"not_out":0.9993647933006287,"full":0.00036450926563702524,"partial":0.0002706751402001828},"weather":{"station":"KSEA","visibility_sm":10.0,"ceiling_ft":null,"raw":"KSEA 040653Z 04004KT 10SM CLR 21/06 A2981 RMK AO2 SLP099 T02060061 $"},"webcam_url":"https://atmos.uw.edu/data/images/webcam2_latest.jpg","model_version":"latest"}}
{"started_at":"2026-05-04T07:14:50Z","finished_at":"2026-05-04T07:14:52Z","duration_seconds":2.000,"status":"ok","state":{"timestamp_utc":"2026-05-04T07:14:52Z","class_index":0,"class_name":"not_out","is_out":false,"confidence":{"not_out":0.9993714690208435,"full":0.0003131853591185063,"partial":0.00031536127789877355},"weather":{"station":"KSEA","visibility_sm":10.0,"ceiling_ft":null,"raw":"KSEA 040653Z 04004KT 10SM CLR 21/06 A2981 RMK AO2 SLP099 T02060061 $"},"webcam_url":"https://atmos.uw.edu/data/images/webcam2_latest.jpg","model_version":"latest"}}
{"started_at":"2026-05-04T07:29:56Z","finished_at":"2026-05-04T07:29:58Z","duration_seconds":2.000,"status":"ok","state":{"timestamp_utc":"2026-05-04T07:29:58Z","class_index":0,"class_name":"not_out","is_out":false,"confidence":{"not_out":0.9988935589790344,"full":0.0006738086231052876,"partial":0.000432579661719501},"weather":{"station":"KSEA","visibility_sm":10.0,"ceiling_ft":null,"raw":"KSEA 040653Z 04004KT 10SM CLR 21/06 A2981 RMK AO2 SLP099 T02060061 $"},"webcam_url":"https://atmos.uw.edu/data/images/webcam2_latest.jpg","model_version":"latest"}}
{"started_at":"2026-05-04T07:45:02Z","finished_at":"2026-05-04T07:45:03Z","duration_seconds":2.000,"status":"ok","state":{"timestamp_utc":"2026-05-04T07:45:03Z","class_index":0,"class_name":"not_out","is_out":false,"confidence":{"not_out":0.9981004595756531,"full":0.0012144342763349414,"partial":0.0006851102225482464},"weather":{"station":"KSEA","visibility_sm":10.0,"ceiling_ft":null,"raw":"KSEA 040653Z 04004KT 10SM CLR 21/06 A2981 RMK AO2 SLP099 T02060061 $"},"webcam_url":"https://atmos.uw.edu/data/images/webcam2_latest.jpg","model_version":"latest"}}
{"started_at":"2026-05-04T08:00:07Z","finished_at":"2026-05-04T08:00:09Z","duration_seconds":2.000,"status":"ok","state":{"timestamp_utc":"2026-05-04T08:00:09Z","class_index":0,"class_name":"not_out","is_out":false,"confidence":{"not_out":0.9979825019836426,"full":0.0013502424117177725,"partial":0.000667224929202348},"weather":{"station":"KSEA","visibility_sm":10.0,"ceiling_ft":null,"raw":"KSEA 040753Z 00000KT 10SM FEW250 19/06 A2982 RMK AO2 SLP100 T01890061 402720133 $"},"webcam_url":"https://atmos.uw.edu/data/images/webcam2_latest.jpg","model_version":"latest"}}
{"started_at":"2026-05-04T08:15:13Z","finished_at":"2026-05-04T08:15:15Z","duration_seconds":2.000,"status":"ok","state":{"timestamp_utc":"2026-05-04T08:15:15Z","class_index":0,"class_name":"not_out","is_out":false,"confidence":{"not_out":0.9983025789260864,"full":0.0010597852524369955,"partial":0.0006376179517246783},"weather":{"station":"KSEA","visibility_sm":10.0,"ceiling_ft":null,"raw":"KSEA 040753Z 00000KT 10SM FEW250 19/06 A2982 RMK AO2 SLP100 T01890061 402720133 $"},"webcam_url":"https://atmos.uw.edu/data/images/webcam2_latest.jpg","model_version":"latest"}}
{"started_at":"2026-05-04T08:30:19Z","finished_at":"2026-05-04T08:30:20Z","duration_seconds":1.000,"status":"ok","state":{"timestamp_utc":"2026-05-04T08:30:20Z","class_index":0,"class_name":"not_out","is_out":false,"confidence":{"not_out":0.998688280582428,"full":0.000866435409989208,"partial":0.0004452611319720745},"weather":{"station":"KSEA","visibility_sm":10.0,"ceiling_ft":null,"raw":"KSEA 040753Z 00000KT 10SM FEW250 19/06 A2982 RMK AO2 SLP100 T01890061 402720133 $"},"webcam_url":"https://atmos.uw.edu/data/images/webcam2_latest.jpg","model_version":"latest"}}
{"started_at":"2026-05-04T08:45:24Z","finished_at":"2026-05-04T08:45:26Z","duration_seconds":2.000,"status":"ok","state":{"timestamp_utc":"2026-05-04T08:45:25Z","class_index":0,"class_name":"not_out","is_out":false,"confidence":{"not_out":0.9983773231506348,"full":0.0009378398535773158,"partial":0.0006848752382211387},"weather":{"station":"KSEA","visibility_sm":10.0,"ceiling_ft":null,"raw":"KSEA 040753Z 00000KT 10SM FEW250 19/06 A2982 RMK AO2 SLP100 T01890061 402720133 $"},"webcam_url":"https://atmos.uw.edu/data/images/webcam2_latest.jpg","model_version":"latest"}}
{"started_at":"2026-05-04T09:00:29Z","finished_at":"2026-05-04T09:00:31Z","duration_seconds":2.000,"status":"ok","state":{"timestamp_utc":"2026-05-04T09:00:31Z","class_index":0,"class_name":"not_out","is_out":false,"confidence":{"not_out":0.9983237385749817,"full":0.0009842863073572516,"partial":0.0006919374573044479},"weather":{"station":"KSEA","visibility_sm":10.0,"ceiling_ft":null,"raw":"KSEA 040853Z 15005KT 10SM FEW250 16/09 A2981 RMK AO2 SLP099 T01610089 58001 $"},"webcam_url":"https://atmos.uw.edu/data/images/webcam2_latest.jpg","model_version":"latest"}}
{"started_at":"2026-05-04T09:15:34Z","finished_at":"2026-05-04T09:15:36Z","duration_seconds":2.000,"status":"ok","state":{"timestamp_utc":"2026-05-04T09:15:36Z","class_index":0,"class_name":"not_out","is_out":false,"confidence":{"not_out":0.998593270778656,"full":0.0008108210167847574,"partial":0.0005959086120128632},"weather":{"station":"KSEA","visibility_sm":10.0,"ceiling_ft":null,"raw":"KSEA 040853Z 15005KT 10SM FEW250 16/09 A2981 RMK AO2 SLP099 T01610089 58001 $"},"webcam_url":"https://atmos.uw.edu/data/images/webcam2_latest.jpg","model_version":"latest"}}
{"started_at":"2026-05-04T09:30:40Z","finished_at":"2026-05-04T09:30:41Z","duration_seconds":1.000,"status":"ok","state":{"timestamp_utc":"2026-05-04T09:30:41Z","class_index":0,"class_name":"not_out","is_out":false,"confidence":{"not_out":0.9984936714172363,"full":0.0007062767981551588,"partial":0.0008000241359695792},"weather":{"station":"KSEA","visibility_sm":10.0,"ceiling_ft":null,"raw":"KSEA 040853Z 15005KT 10SM FEW250 16/09 A2981 RMK AO2 SLP099 T01610089 58001 $"},"webcam_url":"https://atmos.uw.edu/data/images/webcam2_latest.jpg","model_version":"latest"}}
{"started_at":"2026-05-04T09:45:45Z","finished_at":"2026-05-04T09:45:47Z","duration_seconds":2.000,"status":"ok","state":{"timestamp_utc":"2026-05-04T09:45:47Z","class_index":0,"class_name":"not_out","is_out":false,"confidence":{"not_out":0.9993570446968079,"full":0.00036133849062025547,"partial":0.0002816003980115056},"weather":{"station":"KSEA","visibility_sm":10.0,"ceiling_ft":null,"raw":"KSEA 040853Z 15005KT 10SM FEW250 16/09 A2981 RMK AO2 SLP099 T01610089 58001 $"},"webcam_url":"https://atmos.uw.edu/data/images/webcam2_latest.jpg","model_version":"latest"}}
{"started_at":"2026-05-04T10:00:51Z","finished_at":"2026-05-04T10:00:53Z","duration_seconds":2.000,"status":"ok","state":{"timestamp_utc":"2026-05-04T10:00:53Z","class_index":0,"class_name":"not_out","is_out":false,"confidence":{"not_out":0.9992637038230896,"full":0.000432331784395501,"partial":0.0003040044684894383},"weather":{"station":"KSEA","visibility_sm":10.0,"ceiling_ft":null,"raw":"KSEA 040953Z 12005KT 10SM FEW250 16/08 A2981 RMK AO2 SLP100 T01610083 $"},"webcam_url":"https://atmos.uw.edu/data/images/webcam2_latest.jpg","model_version":"latest"}}
{"started_at":"2026-05-04T10:15:56Z","finished_at":"2026-05-04T10:15:59Z","duration_seconds":3.000,"status":"ok","state":{"timestamp_utc":"2026-05-04T10:15:59Z","class_index":0,"class_name":"not_out","is_out":false,"confidence":{"not_out":0.9989270567893982,"full":0.0005519005935639143,"partial":0.0005209360388107598},"weather":{"station":"KSEA","visibility_sm":10.0,"ceiling_ft":null,"raw":"KSEA 040953Z 12005KT 10SM FEW250 16/08 A2981 RMK AO2 SLP100 T01610083 $"},"webcam_url":"https://atmos.uw.edu/data/images/webcam2_latest.jpg","model_version":"latest"}}
{"started_at":"2026-05-04T10:31:02Z","finished_at":"2026-05-04T10:31:04Z","duration_seconds":2.000,"status":"ok","state":{"timestamp_utc":"2026-05-04T10:31:04Z","class_index":0,"class_name":"not_out","is_out":false,"confidence":{"not_out":0.9991831183433533,"full":0.0004099532379768789,"partial":0.00040689893648959696},"weather":{"station":"KSEA","visibility_sm":10.0,"ceiling_ft":null,"raw":"KSEA 040953Z 12005KT 10SM FEW250 16/08 A2981 RMK AO2 SLP100 T01610083 $"},"webcam_url":"https://atmos.uw.edu/data/images/webcam2_latest.jpg","model_version":"latest"}}
{"started_at":"2026-05-04T10:46:08Z","finished_at":"2026-05-04T10:46:10Z","duration_seconds":2.000,"status":"ok","state":{"timestamp_utc":"2026-05-04T10:46:10Z","class_index":0,"class_name":"not_out","is_out":false,"confidence":{"not_out":0.9993446469306946,"full":0.0002752340224105865,"partial":0.00038019477506168187},"weather":{"station":"KSEA","visibility_sm":10.0,"ceiling_ft":null,"raw":"KSEA 040953Z 12005KT 10SM FEW250 16/08 A2981 RMK AO2 SLP100 T01610083 $"},"webcam_url":"https://atmos.uw.edu/data/images/webcam2_latest.jpg","model_version":"latest"}}
{"started_at":"2026-05-04T11:01:13Z","finished_at":"2026-05-04T11:01:15Z","duration_seconds":2.000,"status":"ok","state":{"timestamp_utc":"2026-05-04T11:01:15Z","class_index":0,"class_name":"not_out","is_out":false,"confidence":{"not_out":0.9989632368087769,"full":0.0004962793900631368,"partial":0.0005405588890425861},"weather":{"station":"KSEA","visibility_sm":10.0,"ceiling_ft":null,"raw":"KSEA 041053Z 00000KT 10SM FEW250 15/08 A2982 RMK AO2 SLP102 T01500083 $"},"webcam_url":"https://atmos.uw.edu/data/images/webcam2_latest.jpg","model_version":"latest"}}
{"started_at":"2026-05-04T11:16:19Z","finished_at":"2026-05-04T11:16:21Z","duration_seconds":2.000,"status":"ok","state":{"timestamp_utc":"2026-05-04T11:16:21Z","class_index":0,"class_name":"not_out","is_out":false,"confidence":{"not_out":0.9993078708648682,"full":0.0003588013642001897,"partial":0.0003333250351715833},"weather":{"station":"KSEA","visibility_sm":10.0,"ceiling_ft":null,"raw":"KSEA 041053Z 00000KT 10SM FEW250 15/08 A2982 RMK AO2 SLP102 T01500083 $"},"webcam_url":"https://atmos.uw.edu/data/images/webcam2_latest.jpg","model_version":"latest"}}
{"started_at":"2026-05-04T11:31:24Z","finished_at":"2026-05-04T11:31:26Z","duration_seconds":2.000,"status":"ok","state":{"timestamp_utc":"2026-05-04T11:31:26Z","class_index":0,"class_name":"not_out","is_out":false,"confidence":{"not_out":0.9993546605110168,"full":0.00032376337912864983,"partial":0.0003215580072719604},"weather":{"station":"KSEA","visibility_sm":10.0,"ceiling_ft":null,"raw":"KSEA 041053Z 00000KT 10SM FEW250 15/08 A2982 RMK AO2 SLP102 T01500083 $"},"webcam_url":"https://atmos.uw.edu/data/images/webcam2_latest.jpg","model_version":"latest"}}
{"started_at":"2026-05-04T11:46:30Z","finished_at":"2026-05-04T11:46:36Z","duration_seconds":6.000,"status":"ok","state":{"timestamp_utc":"2026-05-04T11:46:36Z","class_index":0,"class_name":"not_out","is_out":false,"confidence":{"not_out":0.9989196062088013,"full":0.0005299608455970883,"partial":0.0005504966247826815},"weather":{"station":"KSEA","visibility_sm":10.0,"ceiling_ft":null,"raw":"KSEA 041053Z 00000KT 10SM FEW250 15/08 A2982 RMK AO2 SLP102 T01500083 $"},"webcam_url":"https://atmos.uw.edu/data/images/webcam2_latest.jpg","model_version":"latest"}}
{"started_at":"2026-05-04T12:01:40Z","finished_at":"2026-05-04T12:01:41Z","duration_seconds":1.000,"status":"ok","state":{"timestamp_utc":"2026-05-04T12:01:41Z","class_index":0,"class_name":"not_out","is_out":false,"confidence":{"not_out":0.9996508359909058,"full":0.00014378422929439694,"partial":0.0002053267671726644},"weather":{"station":"KSEA","visibility_sm":10.0,"ceiling_ft":null,"raw":"KSEA 041153Z 13005KT 10SM SCT250 15/09 A2982 RMK AO2 SLP101 T01500089 10211 20144 50002 $"},"webcam_url":"https://atmos.uw.edu/data/images/webcam2_latest.jpg","model_version":"latest"}}
{"started_at":"2026-05-04T12:16:45Z","finished_at":"2026-05-04T12:16:47Z","duration_seconds":2.000,"status":"ok","state":{"timestamp_utc":"2026-05-04T12:16:47Z","class_index":1,"class_name":"full","is_out":true,"confidence":{"not_out":0.37225428223609924,"full":0.5783346891403198,"partial":0.04941102862358093},"weather":{"station":"KSEA","visibility_sm":10.0,"ceiling_ft":null,"raw":"KSEA 041153Z 13005KT 10SM SCT250 15/09 A2982 RMK AO2 SLP101 T01500089 10211 20144 50002 $"},"webcam_url":"https://atmos.uw.edu/data/images/webcam2_latest.jpg","model_version":"latest"}}
{"started_at":"2026-05-04T12:31:50Z","finished_at":"2026-05-04T12:31:52Z","duration_seconds":2.000,"status":"ok","state":{"timestamp_utc":"2026-05-04T12:31:52Z","class_index":1,"class_name":"full","is_out":true,"confidence":{"not_out":0.018829723820090294,"full":0.9700894355773926,"partial":0.011080866679549217},"weather":{"station":"KSEA","visibility_sm":10.0,"ceiling_ft":null,"raw":"KSEA 041153Z 13005KT 10SM SCT250 15/09 A2982 RMK AO2 SLP101 T01500089 10211 20144 50002 $"},"webcam_url":"https://atmos.uw.edu/data/images/webcam2_latest.jpg","model_version":"latest"}}
{"started_at":"2026-05-04T12:46:56Z","finished_at":"2026-05-04T12:46:58Z","duration_seconds":2.000,"status":"ok","state":{"timestamp_utc":"2026-05-04T12:46:58Z","class_index":1,"class_name":"full","is_out":true,"confidence":{"not_out":0.011673033237457275,"full":0.7942523956298828,"partial":0.19407464563846588},"weather":{"station":"KSEA","visibility_sm":10.0,"ceiling_ft":null,"raw":"KSEA 041153Z 13005KT 10SM SCT250 15/09 A2982 RMK AO2 SLP101 T01500089 10211 20144 50002 $"},"webcam_url":"https://atmos.uw.edu/data/images/webcam2_latest.jpg","model_version":"latest"}}
{"started_at":"2026-05-04T13:02:02Z","finished_at":"2026-05-04T13:02:04Z","duration_seconds":2.000,"status":"ok","state":{"timestamp_utc":"2026-05-04T13:02:04Z","class_index":1,"class_name":"full","is_out":true,"confidence":{"not_out":0.008862790651619434,"full":0.9843649864196777,"partial":0.00677223177626729},"weather":{"station":"KSEA","visibility_sm":10.0,"ceiling_ft":null,"raw":"KSEA 041253Z 14004KT 10SM SCT250 14/09 A2982 RMK AO2 SLP102 T01390089 $"},"webcam_url":"https://atmos.uw.edu/data/images/webcam2_latest.jpg","model_version":"latest"}}
{"started_at":"2026-05-04T13:17:08Z","finished_at":"2026-05-04T13:17:10Z","duration_seconds":2.000,"status":"ok","state":{"timestamp_utc":"2026-05-04T13:17:10Z","class_index":1,"class_name":"full","is_out":true,"confidence":{"not_out":0.02424345538020134,"full":0.9208933115005493,"partial":0.054863203316926956},"weather":{"station":"KSEA","visibility_sm":10.0,"ceiling_ft":null,"raw":"KSEA 041253Z 14004KT 10SM SCT250 14/09 A2982 RMK AO2 SLP102 T01390089 $"},"webcam_url":"https://atmos.uw.edu/data/images/webcam2_latest.jpg","model_version":"latest"}}
{"started_at":"2026-05-04T13:32:14Z","finished_at":"2026-05-04T13:32:15Z","duration_seconds":1.000,"status":"ok","state":{"timestamp_utc":"2026-05-04T13:32:15Z","class_index":1,"class_name":"full","is_out":true,"confidence":{"not_out":0.02327398769557476,"full":0.7719366550445557,"partial":0.20478928089141846},"weather":{"station":"KSEA","visibility_sm":10.0,"ceiling_ft":null,"raw":"KSEA 041253Z 14004KT 10SM SCT250 14/09 A2982 RMK AO2 SLP102 T01390089 $"},"webcam_url":"https://atmos.uw.edu/data/images/webcam2_latest.jpg","model_version":"latest"}}
{"started_at":"2026-05-04T13:47:19Z","finished_at":"2026-05-04T13:47:21Z","duration_seconds":2.000,"status":"ok","state":{"timestamp_utc":"2026-05-04T13:47:21Z","class_index":1,"class_name":"full","is_out":true,"confidence":{"not_out":0.004274045117199421,"full":0.9652049541473389,"partial":0.030520988628268242},"weather":{"station":"KSEA","visibility_sm":10.0,"ceiling_ft":null,"raw":"KSEA 041253Z 14004KT 10SM SCT250 14/09 A2982 RMK AO2 SLP102 T01390089 $"},"webcam_url":"https://atmos.uw.edu/data/images/webcam2_latest.jpg","model_version":"latest"}}
{"started_at":"2026-05-04T14:02:25Z","finished_at":"2026-05-04T14:02:26Z","duration_seconds":1.000,"status":"ok","state":{"timestamp_utc":"2026-05-04T14:02:26Z","class_index":1,"class_name":"full","is_out":true,"confidence":{"not_out":0.003287447150796652,"full":0.9434980154037476,"partial":0.0532144159078598},"weather":{"station":"KSEA","visibility_sm":10.0,"ceiling_ft":25000.0,"raw":"KSEA 041353Z 22003KT 10SM BKN250 14/09 A2984 RMK AO2 SLP108 T01390089 $"},"webcam_url":"https://atmos.uw.edu/data/images/webcam2_latest.jpg","model_version":"latest"}}
{"started_at":"2026-05-04T14:17:30Z","finished_at":"2026-05-04T14:17:32Z","duration_seconds":2.000,"status":"ok","state":{"timestamp_utc":"2026-05-04T14:17:32Z","class_index":1,"class_name":"full","is_out":true,"confidence":{"not_out":0.005118379835039377,"full":0.6393930912017822,"partial":0.35548853874206543},"weather":{"station":"KSEA","visibility_sm":10.0,"ceiling_ft":25000.0,"raw":"KSEA 041353Z 22003KT 10SM BKN250 14/09 A2984 RMK AO2 SLP108 T01390089 $"},"webcam_url":"https://atmos.uw.edu/data/images/webcam2_latest.jpg","model_version":"latest"}}
{"started_at":"2026-05-04T14:32:36Z","finished_at":"2026-05-04T14:32:38Z","duration_seconds":2.000,"status":"ok","state":{"timestamp_utc":"2026-05-04T14:32:38Z","class_index":2,"class_name":"partial","is_out":true,"confidence":{"not_out":0.012606387957930565,"full":0.33838939666748047,"partial":0.6490042209625244},"weather":{"station":"KSEA","visibility_sm":10.0,"ceiling_ft":25000.0,"raw":"KSEA 041353Z 22003KT 10SM BKN250 14/09 A2984 RMK AO2 SLP108 T01390089 $"},"webcam_url":"https://atmos.uw.edu/data/images/webcam2_latest.jpg","model_version":"latest"}}
{"started_at":"2026-05-04T14:47:41Z","finished_at":"2026-05-04T14:47:44Z","duration_seconds":3.000,"status":"ok","state":{"timestamp_utc":"2026-05-04T14:47:44Z","class_index":2,"class_name":"partial","is_out":true,"confidence":{"not_out":0.009057652205228806,"full":0.3723951578140259,"partial":0.6185471415519714},"weather":{"station":"KSEA","visibility_sm":10.0,"ceiling_ft":25000.0,"raw":"KSEA 041353Z 22003KT 10SM BKN250 14/09 A2984 RMK AO2 SLP108 T01390089 $"},"webcam_url":"https://atmos.uw.edu/data/images/webcam2_latest.jpg","model_version":"latest"}}
{"started_at":"2026-05-04T15:02:47Z","finished_at":"2026-05-04T15:02:49Z","duration_seconds":2.000,"status":"ok","state":{"timestamp_utc":"2026-05-04T15:02:49Z","class_index":1,"class_name":"full","is_out":true,"confidence":{"not_out":0.00834353081882,"full":0.6118698120117188,"partial":0.3797866404056549},"weather":{"station":"KSEA","visibility_sm":10.0,"ceiling_ft":25000.0,"raw":"KSEA 041453Z 19005KT 10SM BKN250 16/09 A2985 RMK AO2 SLP111 T01560094 53010"},"webcam_url":"https://atmos.uw.edu/data/images/webcam2_latest.jpg","model_version":"latest"}}
{"started_at":"2026-05-04T15:17:53Z","finished_at":"2026-05-04T15:17:56Z","duration_seconds":3.000,"status":"ok","state":{"timestamp_utc":"2026-05-04T15:17:56Z","class_index":1,"class_name":"full","is_out":true,"confidence":{"not_out":0.009339805692434311,"full":0.5146021246910095,"partial":0.47605812549591064},"weather":{"station":"KSEA","visibility_sm":10.0,"ceiling_ft":25000.0,"raw":"KSEA 041453Z 19005KT 10SM BKN250 16/09 A2985 RMK AO2 SLP111 T01560094 53010"},"webcam_url":"https://atmos.uw.edu/data/images/webcam2_latest.jpg","model_version":"latest"}}
{"started_at":"2026-05-04T15:32:59Z","finished_at":"2026-05-04T15:33:01Z","duration_seconds":2.000,"status":"ok","state":{"timestamp_utc":"2026-05-04T15:33:01Z","class_index":2,"class_name":"partial","is_out":true,"confidence":{"not_out":0.009433179162442684,"full":0.22432002425193787,"partial":0.7662467956542969},"weather":{"station":"KSEA","visibility_sm":10.0,"ceiling_ft":25000.0,"raw":"KSEA 041453Z 19005KT 10SM BKN250 16/09 A2985 RMK AO2 SLP111 T01560094 53010"},"webcam_url":"https://atmos.uw.edu/data/images/webcam2_latest.jpg","model_version":"latest"}}
{"started_at":"2026-05-04T15:48:05Z","finished_at":"2026-05-04T15:48:07Z","duration_seconds":2.000,"status":"ok","state":{"timestamp_utc":"2026-05-04T15:48:07Z","class_index":2,"class_name":"partial","is_out":true,"confidence":{"not_out":0.0070677814073860645,"full":0.10936766117811203,"partial":0.8835645914077759},"weather":{"station":"KSEA","visibility_sm":10.0,"ceiling_ft":25000.0,"raw":"KSEA 041453Z 19005KT 10SM BKN250 16/09 A2985 RMK AO2 SLP111 T01560094 53010"},"webcam_url":"https://atmos.uw.edu/data/images/webcam2_latest.jpg","model_version":"latest"}}
{"started_at":"2026-05-04T16:03:13Z","finished_at":"2026-05-04T16:03:15Z","duration_seconds":2.000,"status":"ok","state":{"timestamp_utc":"2026-05-04T16:03:15Z","class_index":1,"class_name":"full","is_out":true,"confidence":{"not_out":0.006471856962889433,"full":0.7683212161064148,"partial":0.2252068966627121},"weather":{"station":"KSEA","visibility_sm":10.0,"ceiling_ft":null,"raw":"KSEA 041553Z 16004KT 10SM SCT250 18/09 A2986 RMK AO2 SLP115 T01780094"},"webcam_url":"https://atmos.uw.edu/data/images/webcam2_latest.jpg","model_version":"latest"}}
{"started_at":"2026-05-04T16:18:21Z","finished_at":"2026-05-04T16:18:23Z","duration_seconds":2.000,"status":"ok","state":{"timestamp_utc":"2026-05-04T16:18:23Z","class_index":1,"class_name":"full","is_out":true,"confidence":{"not_out":0.008402453735470772,"full":0.8323683142662048,"partial":0.15922923386096954},"weather":{"station":"KSEA","visibility_sm":10.0,"ceiling_ft":null,"raw":"KSEA 041553Z 16004KT 10SM SCT250 18/09 A2986 RMK AO2 SLP115 T01780094"},"webcam_url":"https://atmos.uw.edu/data/images/webcam2_latest.jpg","model_version":"latest"}}
{"started_at":"2026-05-04T16:33:27Z","finished_at":"2026-05-04T16:33:29Z","duration_seconds":2.000,"status":"ok","state":{"timestamp_utc":"2026-05-04T16:33:29Z","class_index":1,"class_name":"full","is_out":true,"confidence":{"not_out":0.0030966473277658224,"full":0.6577455401420593,"partial":0.33915776014328003},"weather":{"station":"KSEA","visibility_sm":10.0,"ceiling_ft":null,"raw":"KSEA 041553Z 16004KT 10SM SCT250 18/09 A2986 RMK AO2 SLP115 T01780094"},"webcam_url":"https://atmos.uw.edu/data/images/webcam2_latest.jpg","model_version":"latest"}}
{"started_at":"2026-05-04T16:48:32Z","finished_at":"2026-05-04T16:48:35Z","duration_seconds":3.000,"status":"ok","state":{"timestamp_utc":"2026-05-04T16:48:35Z","class_index":1,"class_name":"full","is_out":true,"confidence":{"not_out":0.008277148939669132,"full":0.7889028787612915,"partial":0.20281991362571716},"weather":{"station":"KSEA","visibility_sm":10.0,"ceiling_ft":null,"raw":"KSEA 041553Z 16004KT 10SM SCT250 18/09 A2986 RMK AO2 SLP115 T01780094"},"webcam_url":"https://atmos.uw.edu/data/images/webcam2_latest.jpg","model_version":"latest"}}
{"started_at":"2026-05-04T17:03:38Z","finished_at":"2026-05-04T17:03:40Z","duration_seconds":2.000,"status":"ok","state":{"timestamp_utc":"2026-05-04T17:03:40Z","class_index":1,"class_name":"full","is_out":true,"confidence":{"not_out":0.0365898422896862,"full":0.8249000906944275,"partial":0.13851001858711243},"weather":{"station":"KSEA","visibility_sm":10.0,"ceiling_ft":25000.0,"raw":"KSEA 041653Z 18005KT 10SM BKN250 18/09 A2987 RMK AO2 SLP118 T01830094"},"webcam_url":"https://atmos.uw.edu/data/images/webcam2_latest.jpg","model_version":"latest"}}
{"started_at":"2026-05-04T17:18:44Z","finished_at":"2026-05-04T17:18:46Z","duration_seconds":2.000,"status":"ok","state":{"timestamp_utc":"2026-05-04T17:18:46Z","class_index":1,"class_name":"full","is_out":true,"confidence":{"not_out":0.011409305036067963,"full":0.6660386323928833,"partial":0.32255205512046814},"weather":{"station":"KSEA","visibility_sm":10.0,"ceiling_ft":25000.0,"raw":"KSEA 041653Z 18005KT 10SM BKN250 18/09 A2987 RMK AO2 SLP118 T01830094"},"webcam_url":"https://atmos.uw.edu/data/images/webcam2_latest.jpg","model_version":"latest"}}
{"started_at":"2026-05-04T17:33:50Z","finished_at":"2026-05-04T17:33:52Z","duration_seconds":2.000,"status":"ok","state":{"timestamp_utc":"2026-05-04T17:33:52Z","class_index":1,"class_name":"full","is_out":true,"confidence":{"not_out":0.009677485562860966,"full":0.5705188512802124,"partial":0.4198036193847656},"weather":{"station":"KSEA","visibility_sm":10.0,"ceiling_ft":25000.0,"raw":"KSEA 041653Z 18005KT 10SM BKN250 18/09 A2987 RMK AO2 SLP118 T01830094"},"webcam_url":"https://atmos.uw.edu/data/images/webcam2_latest.jpg","model_version":"latest"}}
{"started_at":"2026-05-04T17:48:55Z","finished_at":"2026-05-04T17:48:57Z","duration_seconds":2.000,"status":"ok","state":{"timestamp_utc":"2026-05-04T17:48:57Z","class_index":1,"class_name":"full","is_out":true,"confidence":{"not_out":0.009605318307876587,"full":0.9137095808982849,"partial":0.07668504863977432},"weather":{"station":"KSEA","visibility_sm":10.0,"ceiling_ft":25000.0,"raw":"KSEA 041653Z 18005KT 10SM BKN250 18/09 A2987 RMK AO2 SLP118 T01830094"},"webcam_url":"https://atmos.uw.edu/data/images/webcam2_latest.jpg","model_version":"latest"}}
{"started_at":"2026-05-04T18:04:01Z","finished_at":"2026-05-04T18:04:04Z","duration_seconds":3.000,"status":"ok","state":{"timestamp_utc":"2026-05-04T18:04:04Z","class_index":2,"class_name":"partial","is_out":true,"confidence":{"not_out":0.023475397378206253,"full":0.09626895934343338,"partial":0.8802556991577148},"weather":{"station":"KSEA","visibility_sm":10.0,"ceiling_ft":25000.0,"raw":"KSEA 041753Z 20007KT 10SM BKN250 19/10 A2988 RMK AO2 SLP121 T01890100 10189 20133 51010"},"webcam_url":"https://atmos.uw.edu/data/images/webcam2_latest.jpg","model_version":"latest"}}
{"started_at":"2026-05-04T18:19:07Z","finished_at":"2026-05-04T18:19:09Z","duration_seconds":2.000,"status":"ok","state":{"timestamp_utc":"2026-05-04T18:19:09Z","class_index":2,"class_name":"partial","is_out":true,"confidence":{"not_out":0.05736114829778671,"full":0.28155970573425293,"partial":0.6610791683197021},"weather":{"station":"KSEA","visibility_sm":10.0,"ceiling_ft":25000.0,"raw":"KSEA 041753Z 20007KT 10SM BKN250 19/10 A2988 RMK AO2 SLP121 T01890100 10189 20133 51010"},"webcam_url":"https://atmos.uw.edu/data/images/webcam2_latest.jpg","model_version":"latest"}}
{"started_at":"2026-05-04T18:34:20Z","finished_at":"2026-05-04T18:34:22Z","duration_seconds":2.000,"status":"ok","state":{"timestamp_utc":"2026-05-04T18:34:22Z","class_index":1,"class_name":"full","is_out":true,"confidence":{"not_out":0.09442656487226486,"full":0.5616821050643921,"partial":0.3438912332057953},"weather":{"station":"KSEA","visibility_sm":10.0,"ceiling_ft":25000.0,"raw":"KSEA 041753Z 20007KT 10SM BKN250 19/10 A2988 RMK AO2 SLP121 T01890100 10189 20133 51010"},"webcam_url":"https://atmos.uw.edu/data/images/webcam2_latest.jpg","model_version":"latest"}}
{"started_at":"2026-05-04T18:49:26Z","finished_at":"2026-05-04T18:49:29Z","duration_seconds":3.000,"status":"ok","state":{"timestamp_utc":"2026-05-04T18:49:29Z","class_index":1,"class_name":"full","is_out":true,"confidence":{"not_out":0.01136637944728136,"full":0.9773719906806946,"partial":0.01126153115183115},"weather":{"station":"KSEA","visibility_sm":10.0,"ceiling_ft":25000.0,"raw":"KSEA 041753Z 20007KT 10SM BKN250 19/10 A2988 RMK AO2 SLP121 T01890100 10189 20133 51010"},"webcam_url":"https://atmos.uw.edu/data/images/webcam2_latest.jpg","model_version":"latest"}}
{"started_at":"2026-05-04T19:04:32Z","finished_at":"2026-05-04T19:04:35Z","duration_seconds":3.000,"status":"ok","state":{"timestamp_utc":"2026-05-04T19:04:35Z","class_index":1,"class_name":"full","is_out":true,"confidence":{"not_out":0.032441627234220505,"full":0.9389718174934387,"partial":0.02858654223382473},"weather":{"station":"KSEA","visibility_sm":10.0,"ceiling_ft":25000.0,"raw":"KSEA 041853Z 19009KT 10SM BKN250 21/11 A2987 RMK AO2 SLP119 T02060106"},"webcam_url":"https://atmos.uw.edu/data/images/webcam2_latest.jpg","model_version":"latest"}}
{"started_at":"2026-05-04T19:19:39Z","finished_at":"2026-05-04T19:19:41Z","duration_seconds":2.000,"status":"ok","state":{"timestamp_utc":"2026-05-04T19:19:41Z","class_index":2,"class_name":"partial","is_out":true,"confidence":{"not_out":0.05599784851074219,"full":0.4462859332561493,"partial":0.49771618843078613},"weather":{"station":"KSEA","visibility_sm":10.0,"ceiling_ft":25000.0,"raw":"KSEA 041853Z 19009KT 10SM BKN250 21/11 A2987 RMK AO2 SLP119 T02060106"},"webcam_url":"https://atmos.uw.edu/data/images/webcam2_latest.jpg","model_version":"latest"}}
{"started_at":"2026-05-04T19:34:45Z","finished_at":"2026-05-04T19:34:47Z","duration_seconds":2.000,"status":"ok","state":{"timestamp_utc":"2026-05-04T19:34:47Z","class_index":1,"class_name":"full","is_out":true,"confidence":{"not_out":0.020932618528604507,"full":0.9134202599525452,"partial":0.06564708799123764},"weather":{"station":"KSEA","visibility_sm":10.0,"ceiling_ft":25000.0,"raw":"KSEA 041853Z 19009KT 10SM BKN250 21/11 A2987 RMK AO2 SLP119 T02060106"},"webcam_url":"https://atmos.uw.edu/data/images/webcam2_latest.jpg","model_version":"latest"}}
{"started_at":"2026-05-04T19:49:51Z","finished_at":"2026-05-04T19:49:53Z","duration_seconds":2.000,"status":"ok","state":{"timestamp_utc":"2026-05-04T19:49:53Z","class_index":1,"class_name":"full","is_out":true,"confidence":{"not_out":0.05419981852173805,"full":0.8037644028663635,"partial":0.14203573763370514},"weather":{"station":"KSEA","visibility_sm":10.0,"ceiling_ft":25000.0,"raw":"KSEA 041853Z 19009KT 10SM BKN250 21/11 A2987 RMK AO2 SLP119 T02060106"},"webcam_url":"https://atmos.uw.edu/data/images/webcam2_latest.jpg","model_version":"latest"}}
{"started_at":"2026-05-04T20:04:56Z","finished_at":"2026-05-04T20:04:58Z","duration_seconds":2.000,"status":"ok","state":{"timestamp_utc":"2026-05-04T20:04:58Z","class_index":1,"class_name":"full","is_out":true,"confidence":{"not_out":0.031513627618551254,"full":0.8133736848831177,"partial":0.15511275827884674},"weather":{"station":"KSEA","visibility_sm":10.0,"ceiling_ft":25000.0,"raw":"KSEA 041953Z 19007KT 10SM BKN250 21/11 A2987 RMK AO2 SLP117 T02110111"},"webcam_url":"https://atmos.uw.edu/data/images/webcam2_latest.jpg","model_version":"latest"}}
{"started_at":"2026-05-04T20:20:02Z","finished_at":"2026-05-04T20:20:05Z","duration_seconds":3.000,"status":"ok","state":{"timestamp_utc":"2026-05-04T20:20:05Z","class_index":2,"class_name":"partial","is_out":true,"confidence":{"not_out":0.012935678474605083,"full":0.18373791873455048,"partial":0.8033263683319092},"weather":{"station":"KSEA","visibility_sm":10.0,"ceiling_ft":25000.0,"raw":"KSEA 041953Z 19007KT 10SM BKN250 21/11 A2987 RMK AO2 SLP117 T02110111"},"webcam_url":"https://atmos.uw.edu/data/images/webcam2_latest.jpg","model_version":"latest"}}
{"started_at":"2026-05-04T20:35:10Z","finished_at":"2026-05-04T20:35:12Z","duration_seconds":2.000,"status":"ok","state":{"timestamp_utc":"2026-05-04T20:35:12Z","class_index":2,"class_name":"partial","is_out":true,"confidence":{"not_out":0.04219258576631546,"full":0.13332179188728333,"partial":0.8244855403900146},"weather":{"station":"KSEA","visibility_sm":10.0,"ceiling_ft":25000.0,"raw":"KSEA 041953Z 19007KT 10SM BKN250 21/11 A2987 RMK AO2 SLP117 T02110111"},"webcam_url":"https://atmos.uw.edu/data/images/webcam2_latest.jpg","model_version":"latest"}}
{"started_at":"2026-05-04T20:50:16Z","finished_at":"2026-05-04T20:50:18Z","duration_seconds":2.000,"status":"ok","state":{"timestamp_utc":"2026-05-04T20:50:18Z","class_index":2,"class_name":"partial","is_out":true,"confidence":{"not_out":0.046597275882959366,"full":0.2632872760295868,"partial":0.6901153922080994},"weather":{"station":"KSEA","visibility_sm":10.0,"ceiling_ft":25000.0,"raw":"KSEA 041953Z 19007KT 10SM BKN250 21/11 A2987 RMK AO2 SLP117 T02110111"},"webcam_url":"https://atmos.uw.edu/data/images/webcam2_latest.jpg","model_version":"latest"}}
{"started_at":"2026-05-04T21:05:22Z","finished_at":"2026-05-04T21:05:24Z","duration_seconds":2.000,"status":"ok","state":{"timestamp_utc":"2026-05-04T21:05:24Z","class_index":1,"class_name":"full","is_out":true,"confidence":{"not_out":0.0036960437428206205,"full":0.9766814708709717,"partial":0.01962246559560299},"weather":{"station":"KSEA","visibility_sm":10.0,"ceiling_ft":25000.0,"raw":"KSEA 042053Z 20005KT 10SM BKN250 23/11 A2986 RMK AO2 SLP115 T02280111 56006"},"webcam_url":"https://atmos.uw.edu/data/images/webcam2_latest.jpg","model_version":"latest"}}
{"started_at":"2026-05-04T21:20:27Z","finished_at":"2026-05-04T21:20:30Z","duration_seconds":3.000,"status":"ok","state":{"timestamp_utc":"2026-05-04T21:20:30Z","class_index":1,"class_name":"full","is_out":true,"confidence":{"not_out":0.020753635093569756,"full":0.8044917583465576,"partial":0.1747545599937439},"weather":{"station":"KSEA","visibility_sm":10.0,"ceiling_ft":25000.0,"raw":"KSEA 042053Z 20005KT 10SM BKN250 23/11 A2986 RMK AO2 SLP115 T02280111 56006"},"webcam_url":"https://atmos.uw.edu/data/images/webcam2_latest.jpg","model_version":"latest"}}
{"started_at":"2026-05-04T21:35:34Z","finished_at":"2026-05-04T21:35:36Z","duration_seconds":2.000,"status":"ok","state":{"timestamp_utc":"2026-05-04T21:35:36Z","class_index":1,"class_name":"full","is_out":true,"confidence":{"not_out":0.05109242722392082,"full":0.7192606329917908,"partial":0.22964690625667572},"weather":{"station":"KSEA","visibility_sm":10.0,"ceiling_ft":25000.0,"raw":"KSEA 042053Z 20005KT 10SM BKN250 23/11 A2986 RMK AO2 SLP115 T02280111 56006"},"webcam_url":"https://atmos.uw.edu/data/images/webcam2_latest.jpg","model_version":"latest"}}
{"started_at":"2026-05-04T21:50:39Z","finished_at":"2026-05-04T21:50:42Z","duration_seconds":3.000,"status":"ok","state":{"timestamp_utc":"2026-05-04T21:50:42Z","class_index":2,"class_name":"partial","is_out":true,"confidence":{"not_out":0.06459154933691025,"full":0.3556893765926361,"partial":0.5797191262245178},"weather":{"station":"KSEA","visibility_sm":10.0,"ceiling_ft":25000.0,"raw":"KSEA 042053Z 20005KT 10SM BKN250 23/11 A2986 RMK AO2 SLP115 T02280111 56006"},"webcam_url":"https://atmos.uw.edu/data/images/webcam2_latest.jpg","model_version":"latest"}}
{"started_at":"2026-05-04T22:05:45Z","finished_at":"2026-05-04T22:05:47Z","duration_seconds":2.000,"status":"ok","state":{"timestamp_utc":"2026-05-04T22:05:47Z","class_index":1,"class_name":"full","is_out":true,"confidence":{"not_out":0.12817345559597015,"full":0.46348705887794495,"partial":0.4083394408226013},"weather":{"station":"KSEA","visibility_sm":10.0,"ceiling_ft":null,"raw":"KSEA 042153Z 25007KT 10SM FEW040 SCT250 24/09 A2985 RMK AO2 SLP113 T02390089"},"webcam_url":"https://atmos.uw.edu/data/images/webcam2_latest.jpg","model_version":"latest"}}
{"started_at":"2026-05-04T22:20:51Z","finished_at":"2026-05-04T22:20:53Z","duration_seconds":2.000,"status":"ok","state":{"timestamp_utc":"2026-05-04T22:20:53Z","class_index":1,"class_name":"full","is_out":true,"confidence":{"not_out":0.08814582973718643,"full":0.723813533782959,"partial":0.1880406141281128},"weather":{"station":"KSEA","visibility_sm":10.0,"ceiling_ft":null,"raw":"KSEA 042153Z 25007KT 10SM FEW040 SCT250 24/09 A2985 RMK AO2 SLP113 T02390089"},"webcam_url":"https://atmos.uw.edu/data/images/webcam2_latest.jpg","model_version":"latest"}}
{"started_at":"2026-05-04T22:35:57Z","finished_at":"2026-05-04T22:35:59Z","duration_seconds":2.000,"status":"ok","state":{"timestamp_utc":"2026-05-04T22:35:59Z","class_index":1,"class_name":"full","is_out":true,"confidence":{"not_out":0.06550075858831406,"full":0.823723554611206,"partial":0.11077573895454407},"weather":{"station":"KSEA","visibility_sm":10.0,"ceiling_ft":null,"raw":"KSEA 042153Z 25007KT 10SM FEW040 SCT250 24/09 A2985 RMK AO2 SLP113 T02390089"},"webcam_url":"https://atmos.uw.edu/data/images/webcam2_latest.jpg","model_version":"latest"}}
{"started_at":"2026-05-04T22:51:03Z","finished_at":"2026-05-04T22:51:04Z","duration_seconds":1.000,"status":"ok","state":{"timestamp_utc":"2026-05-04T22:51:04Z","class_index":1,"class_name":"full","is_out":true,"confidence":{"not_out":0.12342268973588943,"full":0.7618666291236877,"partial":0.11471062153577805},"weather":{"station":"KSEA","visibility_sm":10.0,"ceiling_ft":null,"raw":"KSEA 042153Z 25007KT 10SM FEW040 SCT250 24/09 A2985 RMK AO2 SLP113 T02390089"},"webcam_url":"https://atmos.uw.edu/data/images/webcam2_latest.jpg","model_version":"latest"}}
{"started_at":"2026-05-04T23:06:08Z","finished_at":"2026-05-04T23:06:09Z","duration_seconds":1.000,"status":"ok","state":{"timestamp_utc":"2026-05-04T23:06:09Z","class_index":1,"class_name":"full","is_out":true,"confidence":{"not_out":0.08088988810777664,"full":0.8362355828285217,"partial":0.08287457376718521},"weather":{"station":"KSEA","visibility_sm":10.0,"ceiling_ft":null,"raw":"KSEA 042253Z VRB06KT 10SM FEW040 FEW250 25/10 A2984 RMK AO2 SLP107 T02500100"},"webcam_url":"https://atmos.uw.edu/data/images/webcam2_latest.jpg","model_version":"latest"}}
{"started_at":"2026-05-04T23:21:13Z","finished_at":"2026-05-04T23:21:15Z","duration_seconds":2.000,"status":"ok","state":{"timestamp_utc":"2026-05-04T23:21:15Z","class_index":1,"class_name":"full","is_out":true,"confidence":{"not_out":0.06284632533788681,"full":0.8666372895240784,"partial":0.07051637023687363},"weather":{"station":"KSEA","visibility_sm":10.0,"ceiling_ft":null,"raw":"KSEA 042253Z VRB06KT 10SM FEW040 FEW250 25/10 A2984 RMK AO2 SLP107 T02500100"},"webcam_url":"https://atmos.uw.edu/data/images/webcam2_latest.jpg","model_version":"latest"}}
{"started_at":"2026-05-04T23:36:19Z","finished_at":"2026-05-04T23:36:22Z","duration_seconds":3.000,"status":"ok","state":{"timestamp_utc":"2026-05-04T23:36:21Z","class_index":1,"class_name":"full","is_out":true,"confidence":{"not_out":0.08344589173793793,"full":0.8520493507385254,"partial":0.0645046979188919},"weather":{"station":"KSEA","visibility_sm":10.0,"ceiling_ft":null,"raw":"KSEA 042253Z VRB06KT 10SM FEW040 FEW250 25/10 A2984 RMK AO2 SLP107 T02500100"},"webcam_url":"https://atmos.uw.edu/data/images/webcam2_latest.jpg","model_version":"latest"}}
{"started_at":"2026-05-04T23:51:25Z","finished_at":"2026-05-04T23:51:27Z","duration_seconds":2.000,"status":"ok","state":{"timestamp_utc":"2026-05-04T23:51:27Z","class_index":1,"class_name":"full","is_out":true,"confidence":{"not_out":0.07052621990442276,"full":0.8817054033279419,"partial":0.04776827245950699},"weather":{"station":"KSEA","visibility_sm":10.0,"ceiling_ft":null,"raw":"KSEA 042253Z VRB06KT 10SM FEW040 FEW250 25/10 A2984 RMK AO2 SLP107 T02500100"},"webcam_url":"https://atmos.uw.edu/data/images/webcam2_latest.jpg","model_version":"latest"}}
{"started_at":"2026-05-05T00:06:31Z","finished_at":"2026-05-05T00:06:33Z","duration_seconds":2.000,"status":"ok","state":{"timestamp_utc":"2026-05-05T00:06:33Z","class_index":1,"class_name":"full","is_out":true,"confidence":{"not_out":0.08754982799291611,"full":0.8753868341445923,"partial":0.03706324100494385},"weather":{"station":"KSEA","visibility_sm":10.0,"ceiling_ft":null,"raw":"KSEA 042353Z 23004KT 10SM FEW040 FEW250 24/11 A2983 RMK AO2 SLP104 T02440111 10250 20189 58011"},"webcam_url":"https://atmos.uw.edu/data/images/webcam2_latest.jpg","model_version":"latest"}}
{"started_at":"2026-05-05T00:21:36Z","finished_at":"2026-05-05T00:21:39Z","duration_seconds":3.000,"status":"ok","state":{"timestamp_utc":"2026-05-05T00:21:38Z","class_index":1,"class_name":"full","is_out":true,"confidence":{"not_out":0.049081142991781235,"full":0.9069761633872986,"partial":0.04394269362092018},"weather":{"station":"KSEA","visibility_sm":10.0,"ceiling_ft":null,"raw":"KSEA 042353Z 23004KT 10SM FEW040 FEW250 24/11 A2983 RMK AO2 SLP104 T02440111 10250 20189 58011"},"webcam_url":"https://atmos.uw.edu/data/images/webcam2_latest.jpg","model_version":"latest"}}
{"started_at":"2026-05-05T00:36:42Z","finished_at":"2026-05-05T00:36:44Z","duration_seconds":2.000,"status":"ok","state":{"timestamp_utc":"2026-05-05T00:36:44Z","class_index":1,"class_name":"full","is_out":true,"confidence":{"not_out":0.0557030625641346,"full":0.7922435998916626,"partial":0.1520533263683319},"weather":{"station":"KSEA","visibility_sm":10.0,"ceiling_ft":null,"raw":"KSEA 042353Z 23004KT 10SM FEW040 FEW250 24/11 A2983 RMK AO2 SLP104 T02440111 10250 20189 58011"},"webcam_url":"https://atmos.uw.edu/data/images/webcam2_latest.jpg","model_version":"latest"}}
{"started_at":"2026-05-05T00:51:48Z","finished_at":"2026-05-05T00:51:50Z","duration_seconds":2.000,"status":"ok","state":{"timestamp_utc":"2026-05-05T00:51:50Z","class_index":1,"class_name":"full","is_out":true,"confidence":{"not_out":0.026943007484078407,"full":0.9262260794639587,"partial":0.04683093726634979},"weather":{"station":"KSEA","visibility_sm":10.0,"ceiling_ft":null,"raw":"KSEA 042353Z 23004KT 10SM FEW040 FEW250 24/11 A2983 RMK AO2 SLP104 T02440111 10250 20189 58011"},"webcam_url":"https://atmos.uw.edu/data/images/webcam2_latest.jpg","model_version":"latest"}}
{"started_at":"2026-05-05T01:06:54Z","finished_at":"2026-05-05T01:06:57Z","duration_seconds":3.000,"status":"ok","state":{"timestamp_utc":"2026-05-05T01:06:57Z","class_index":1,"class_name":"full","is_out":true,"confidence":{"not_out":0.017596499994397163,"full":0.9241403937339783,"partial":0.058263085782527924},"weather":{"station":"KSEA","visibility_sm":10.0,"ceiling_ft":null,"raw":"KSEA 050053Z 24008KT 10SM FEW040 SCT250 24/12 A2982 RMK AO2 SLP103 T02390117"},"webcam_url":"https://atmos.uw.edu/data/images/webcam2_latest.jpg","model_version":"latest"}}
{"started_at":"2026-05-05T01:22:00Z","finished_at":"2026-05-05T01:22:02Z","duration_seconds":2.000,"status":"ok","state":{"timestamp_utc":"2026-05-05T01:22:02Z","class_index":1,"class_name":"full","is_out":true,"confidence":{"not_out":0.012233217246830463,"full":0.9330794215202332,"partial":0.0546872615814209},"weather":{"station":"KSEA","visibility_sm":10.0,"ceiling_ft":null,"raw":"KSEA 050053Z 24008KT 10SM FEW040 SCT250 24/12 A2982 RMK AO2 SLP103 T02390117"},"webcam_url":"https://atmos.uw.edu/data/images/webcam2_latest.jpg","model_version":"latest"}}
{"started_at":"2026-05-05T01:37:06Z","finished_at":"2026-05-05T01:37:08Z","duration_seconds":2.000,"status":"ok","state":{"timestamp_utc":"2026-05-05T01:37:08Z","class_index":1,"class_name":"full","is_out":true,"confidence":{"not_out":0.021275630220770836,"full":0.8230001330375671,"partial":0.15572427213191986},"weather":{"station":"KSEA","visibility_sm":10.0,"ceiling_ft":null,"raw":"KSEA 050053Z 24008KT 10SM FEW040 SCT250 24/12 A2982 RMK AO2 SLP103 T02390117"},"webcam_url":"https://atmos.uw.edu/data/images/webcam2_latest.jpg","model_version":"latest"}}
{"started_at":"2026-05-05T01:52:11Z","finished_at":"2026-05-05T01:52:14Z","duration_seconds":3.000,"status":"ok","state":{"timestamp_utc":"2026-05-05T01:52:14Z","class_index":1,"class_name":"full","is_out":true,"confidence":{"not_out":0.030868014320731163,"full":0.7492938041687012,"partial":0.2198382318019867},"weather":{"station":"KSEA","visibility_sm":10.0,"ceiling_ft":null,"raw":"KSEA 050053Z 24008KT 10SM FEW040 SCT250 24/12 A2982 RMK AO2 SLP103 T02390117"},"webcam_url":"https://atmos.uw.edu/data/images/webcam2_latest.jpg","model_version":"latest"}}
{"started_at":"2026-05-05T02:07:17Z","finished_at":"2026-05-05T02:07:20Z","duration_seconds":3.000,"status":"ok","state":{"timestamp_utc":"2026-05-05T02:07:20Z","class_index":1,"class_name":"full","is_out":true,"confidence":{"not_out":0.019076749682426453,"full":0.6831102967262268,"partial":0.29781296849250793},"weather":{"station":"KSEA","visibility_sm":10.0,"ceiling_ft":null,"raw":"KSEA 050153Z 23009KT 10SM FEW040 SCT250 22/11 A2982 RMK AO2 SLP101 T02220111"},"webcam_url":"https://atmos.uw.edu/data/images/webcam2_latest.jpg","model_version":"latest"}}
{"started_at":"2026-05-05T02:22:24Z","finished_at":"2026-05-05T02:22:26Z","duration_seconds":2.000,"status":"ok","state":{"timestamp_utc":"2026-05-05T02:22:26Z","class_index":1,"class_name":"full","is_out":true,"confidence":{"not_out":0.010944242589175701,"full":0.5726855993270874,"partial":0.416370153427124},"weather":{"station":"KSEA","visibility_sm":10.0,"ceiling_ft":null,"raw":"KSEA 050153Z 23009KT 10SM FEW040 SCT250 22/11 A2982 RMK AO2 SLP101 T02220111"},"webcam_url":"https://atmos.uw.edu/data/images/webcam2_latest.jpg","model_version":"latest"}}
{"started_at":"2026-05-05T02:37:29Z","finished_at":"2026-05-05T02:37:31Z","duration_seconds":2.000,"status":"ok","state":{"timestamp_utc":"2026-05-05T02:37:31Z","class_index":1,"class_name":"full","is_out":true,"confidence":{"not_out":0.005641351919621229,"full":0.8494378328323364,"partial":0.14492078125476837},"weather":{"station":"KSEA","visibility_sm":10.0,"ceiling_ft":null,"raw":"KSEA 050153Z 23009KT 10SM FEW040 SCT250 22/11 A2982 RMK AO2 SLP101 T02220111"},"webcam_url":"https://atmos.uw.edu/data/images/webcam2_latest.jpg","model_version":"latest"}}
{"started_at":"2026-05-05T02:52:35Z","finished_at":"2026-05-05T02:52:37Z","duration_seconds":2.000,"status":"ok","state":{"timestamp_utc":"2026-05-05T02:52:37Z","class_index":1,"class_name":"full","is_out":true,"confidence":{"not_out":0.007024126127362251,"full":0.6657720804214478,"partial":0.32720375061035156},"weather":{"station":"KSEA","visibility_sm":10.0,"ceiling_ft":null,"raw":"KSEA 050153Z 23009KT 10SM FEW040 SCT250 22/11 A2982 RMK AO2 SLP101 T02220111"},"webcam_url":"https://atmos.uw.edu/data/images/webcam2_latest.jpg","model_version":"latest"}}
{"started_at":"2026-05-05T03:07:41Z","finished_at":"2026-05-05T03:07:43Z","duration_seconds":2.000,"status":"ok","state":{"timestamp_utc":"2026-05-05T03:07:43Z","class_index":1,"class_name":"full","is_out":true,"confidence":{"not_out":0.01519742701202631,"full":0.6348391175270081,"partial":0.3499634563922882},"weather":{"station":"KSEA","visibility_sm":10.0,"ceiling_ft":null,"raw":"KSEA 050253Z 23007KT 10SM FEW040 SCT250 19/11 A2983 RMK AO2 SLP104 T01940111 55000"},"webcam_url":"https://atmos.uw.edu/data/images/webcam2_latest.jpg","model_version":"latest"}}
{"started_at":"2026-05-05T03:22:46Z","finished_at":"2026-05-05T03:22:49Z","duration_seconds":3.000,"status":"ok","state":{"timestamp_utc":"2026-05-05T03:22:49Z","class_index":2,"class_name":"partial","is_out":true,"confidence":{"not_out":0.05823199078440666,"full":0.18848967552185059,"partial":0.753278374671936},"weather":{"station":"KSEA","visibility_sm":10.0,"ceiling_ft":null,"raw":"KSEA 050253Z 23007KT 10SM FEW040 SCT250 19/11 A2983 RMK AO2 SLP104 T01940111 55000"},"webcam_url":"https://atmos.uw.edu/data/images/webcam2_latest.jpg","model_version":"latest"}}
{"started_at":"2026-05-05T03:37:52Z","finished_at":"2026-05-05T03:37:54Z","duration_seconds":2.000,"status":"ok","state":{"timestamp_utc":"2026-05-05T03:37:54Z","class_index":1,"class_name":"full","is_out":true,"confidence":{"not_out":0.35359957814216614,"full":0.5829537510871887,"partial":0.06344665586948395},"weather":{"station":"KSEA","visibility_sm":10.0,"ceiling_ft":null,"raw":"KSEA 050253Z 23007KT 10SM FEW040 SCT250 19/11 A2983 RMK AO2 SLP104 T01940111 55000"},"webcam_url":"https://atmos.uw.edu/data/images/webcam2_latest.jpg","model_version":"latest"}}
{"started_at":"2026-05-05T03:52:58Z","finished_at":"2026-05-05T03:53:24Z","duration_seconds":26.000,"status":"ok","state":{"timestamp_utc":"2026-05-05T03:53:24Z","class_index":2,"class_name":"partial","is_out":true,"confidence":{"not_out":0.020581534132361412,"full":0.0015352098271250725,"partial":0.9778832197189331},"weather":{"station":"KSEA","visibility_sm":10.0,"ceiling_ft":null,"raw":"KSEA 050253Z 23007KT 10SM FEW040 SCT250 19/11 A2983 RMK AO2 SLP104 T01940111 55000"},"webcam_url":"https://atmos.uw.edu/data/images/webcam2_latest.jpg","model_version":"latest"}}
{"started_at":"2026-05-05T04:08:28Z","finished_at":"2026-05-05T04:08:30Z","duration_seconds":2.000,"status":"ok","state":{"timestamp_utc":"2026-05-05T04:08:30Z","class_index":0,"class_name":"not_out","is_out":false,"confidence":{"not_out":0.9793210029602051,"full":0.0005395717453211546,"partial":0.02013946883380413},"weather":{"station":"KSEA","visibility_sm":10.0,"ceiling_ft":null,"raw":"KSEA 050353Z 23008KT 10SM SCT250 17/11 A2984 RMK AO2 SLP110 T01670106"},"webcam_url":"https://atmos.uw.edu/data/images/webcam2_latest.jpg","model_version":"latest"}}
{"started_at":"2026-05-05T04:23:33Z","finished_at":"2026-05-05T04:23:35Z","duration_seconds":2.000,"status":"ok","state":{"timestamp_utc":"2026-05-05T04:23:35Z","class_index":0,"class_name":"not_out","is_out":false,"confidence":{"not_out":0.9990463852882385,"full":0.0005398197681643069,"partial":0.0004137094656471163},"weather":{"station":"KSEA","visibility_sm":10.0,"ceiling_ft":null,"raw":"KSEA 050353Z 23008KT 10SM SCT250 17/11 A2984 RMK AO2 SLP110 T01670106"},"webcam_url":"https://atmos.uw.edu/data/images/webcam2_latest.jpg","model_version":"latest"}}
{"started_at":"2026-05-05T04:38:38Z","finished_at":"2026-05-05T04:38:41Z","duration_seconds":3.000,"status":"ok","state":{"timestamp_utc":"2026-05-05T04:38:41Z","class_index":0,"class_name":"not_out","is_out":false,"confidence":{"not_out":0.9991525411605835,"full":0.00041406648233532906,"partial":0.0004334835975896567},"weather":{"station":"KSEA","visibility_sm":10.0,"ceiling_ft":null,"raw":"KSEA 050353Z 23008KT 10SM SCT250 17/11 A2984 RMK AO2 SLP110 T01670106"},"webcam_url":"https://atmos.uw.edu/data/images/webcam2_latest.jpg","model_version":"latest"}}
{"started_at":"2026-05-05T04:53:44Z","finished_at":"2026-05-05T04:53:46Z","duration_seconds":2.000,"status":"ok","state":{"timestamp_utc":"2026-05-05T04:53:46Z","class_index":0,"class_name":"not_out","is_out":false,"confidence":{"not_out":0.9991400241851807,"full":0.00045229808893054724,"partial":0.00040767143946141005},"weather":{"station":"KSEA","visibility_sm":10.0,"ceiling_ft":null,"raw":"KSEA 050353Z 23008KT 10SM SCT250 17/11 A2984 RMK AO2 SLP110 T01670106"},"webcam_url":"https://atmos.uw.edu/data/images/webcam2_latest.jpg","model_version":"latest"}}
{"started_at":"2026-05-05T05:08:50Z","finished_at":"2026-05-05T05:08:53Z","duration_seconds":3.000,"status":"ok","state":{"timestamp_utc":"2026-05-05T05:08:53Z","class_index":0,"class_name":"not_out","is_out":false,"confidence":{"not_out":0.9989771842956543,"full":0.000567447452340275,"partial":0.000455331988632679},"weather":{"station":"KSEA","visibility_sm":10.0,"ceiling_ft":null,"raw":"KSEA 050453Z 19008KT 10SM FEW250 14/11 A2987 RMK AO2 SLP120 T01390106"},"webcam_url":"https://atmos.uw.edu/data/images/webcam2_latest.jpg","model_version":"latest"}}
{"started_at":"2026-05-05T05:23:57Z","finished_at":"2026-05-05T05:23:59Z","duration_seconds":2.000,"status":"ok","state":{"timestamp_utc":"2026-05-05T05:23:59Z","class_index":0,"class_name":"not_out","is_out":false,"confidence":{"not_out":0.9993072748184204,"full":0.0002781688526738435,"partial":0.0004145099373999983},"weather":{"station":"KSEA","visibility_sm":10.0,"ceiling_ft":null,"raw":"KSEA 050453Z 19008KT 10SM FEW250 14/11 A2987 RMK AO2 SLP120 T01390106"},"webcam_url":"https://atmos.uw.edu/data/images/webcam2_latest.jpg","model_version":"latest"}}
{"started_at":"2026-05-05T05:39:02Z","finished_at":"2026-05-05T05:39:04Z","duration_seconds":2.000,"status":"ok","state":{"timestamp_utc":"2026-05-05T05:39:04Z","class_index":0,"class_name":"not_out","is_out":false,"confidence":{"not_out":0.9992221593856812,"full":0.0003567863313946873,"partial":0.000421074713813141},"weather":{"station":"KSEA","visibility_sm":10.0,"ceiling_ft":null,"raw":"KSEA 050453Z 19008KT 10SM FEW250 14/11 A2987 RMK AO2 SLP120 T01390106"},"webcam_url":"https://atmos.uw.edu/data/images/webcam2_latest.jpg","model_version":"latest"}}
{"started_at":"2026-05-05T05:54:08Z","finished_at":"2026-05-05T05:54:10Z","duration_seconds":2.000,"status":"ok","state":{"timestamp_utc":"2026-05-05T05:54:10Z","class_index":0,"class_name":"not_out","is_out":false,"confidence":{"not_out":0.999244213104248,"full":0.00037288208841346204,"partial":0.0003829917113762349},"weather":{"station":"KSEA","visibility_sm":10.0,"ceiling_ft":null,"raw":"KSEA 050453Z 19008KT 10SM FEW250 14/11 A2987 RMK AO2 SLP120 T01390106"},"webcam_url":"https://atmos.uw.edu/data/images/webcam2_latest.jpg","model_version":"latest"}}
{"started_at":"2026-05-05T06:09:14Z","finished_at":"2026-05-05T06:09:16Z","duration_seconds":2.000,"status":"ok","state":{"timestamp_utc":"2026-05-05T06:09:16Z","class_index":0,"class_name":"not_out","is_out":false,"confidence":{"not_out":0.9992788434028625,"full":0.0003318648668937385,"partial":0.0003893079119734466},"weather":{"station":"KSEA","visibility_sm":10.0,"ceiling_ft":null,"raw":"KSEA 050553Z 20008KT 10SM CLR 13/10 A2988 RMK AO2 SLP124 T01280100 10244 20128 51019"},"webcam_url":"https://atmos.uw.edu/data/images/webcam2_latest.jpg","model_version":"latest"}}
{"started_at":"2026-05-05T06:24:20Z","finished_at":"2026-05-05T06:24:21Z","duration_seconds":1.000,"status":"ok","state":{"timestamp_utc":"2026-05-05T06:24:21Z","class_index":0,"class_name":"not_out","is_out":false,"confidence":{"not_out":0.9990424513816833,"full":0.0004932728479616344,"partial":0.0004642778367269784},"weather":{"station":"KSEA","visibility_sm":10.0,"ceiling_ft":null,"raw":"KSEA 050553Z 20008KT 10SM CLR 13/10 A2988 RMK AO2 SLP124 T01280100 10244 20128 51019"},"webcam_url":"https://atmos.uw.edu/data/images/webcam2_latest.jpg","model_version":"latest"}}
{"started_at":"2026-05-05T06:39:25Z","finished_at":"2026-05-05T06:39:27Z","duration_seconds":2.000,"status":"ok","state":{"timestamp_utc":"2026-05-05T06:39:27Z","class_index":0,"class_name":"not_out","is_out":false,"confidence":{"not_out":0.999524712562561,"full":0.00018939860456157476,"partial":0.00028588928398676217},"weather":{"station":"KSEA","visibility_sm":10.0,"ceiling_ft":null,"raw":"KSEA 050553Z 20008KT 10SM CLR 13/10 A2988 RMK AO2 SLP124 T01280100 10244 20128 51019"},"webcam_url":"https://atmos.uw.edu/data/images/webcam2_latest.jpg","model_version":"latest"}}
{"started_at":"2026-05-05T06:54:30Z","finished_at":"2026-05-05T06:54:32Z","duration_seconds":2.000,"status":"ok","state":{"timestamp_utc":"2026-05-05T06:54:32Z","class_index":0,"class_name":"not_out","is_out":false,"confidence":{"not_out":0.9991052746772766,"full":0.00044942370732314885,"partial":0.0004453654692042619},"weather":{"station":"KSEA","visibility_sm":10.0,"ceiling_ft":null,"raw":"KSEA 050553Z 20008KT 10SM CLR 13/10 A2988 RMK AO2 SLP124 T01280100 10244 20128 51019"},"webcam_url":"https://atmos.uw.edu/data/images/webcam2_latest.jpg","model_version":"latest"}}
{"started_at":"2026-05-05T07:09:36Z","finished_at":"2026-05-05T07:09:38Z","duration_seconds":2.000,"status":"ok","state":{"timestamp_utc":"2026-05-05T07:09:38Z","class_index":0,"class_name":"not_out","is_out":false,"confidence":{"not_out":0.9992735981941223,"full":0.0004165510181337595,"partial":0.00030988999060355127},"weather":{"station":"KSEA","visibility_sm":10.0,"ceiling_ft":null,"raw":"KSEA 050653Z 20007KT 10SM CLR 12/10 A2990 RMK AO2 SLP129 T01220100"},"webcam_url":"https://atmos.uw.edu/data/images/webcam2_latest.jpg","model_version":"latest"}}
{"started_at":"2026-05-05T07:24:42Z","finished_at":"2026-05-05T07:24:44Z","duration_seconds":2.000,"status":"ok","state":{"timestamp_utc":"2026-05-05T07:24:44Z","class_index":0,"class_name":"not_out","is_out":false,"confidence":{"not_out":0.999288022518158,"full":0.0003869239299092442,"partial":0.0003250677837058902},"weather":{"station":"KSEA","visibility_sm":10.0,"ceiling_ft":null,"raw":"KSEA 050653Z 20007KT 10SM CLR 12/10 A2990 RMK AO2 SLP129 T01220100"},"webcam_url":"https://atmos.uw.edu/data/images/webcam2_latest.jpg","model_version":"latest"}}
{"started_at":"2026-05-05T07:39:48Z","finished_at":"2026-05-05T07:39:50Z","duration_seconds":2.000,"status":"ok","state":{"timestamp_utc":"2026-05-05T07:39:50Z","class_index":0,"class_name":"not_out","is_out":false,"confidence":{"not_out":0.9994059801101685,"full":0.00036146564525552094,"partial":0.00023261382011696696},"weather":{"station":"KSEA","visibility_sm":10.0,"ceiling_ft":null,"raw":"KSEA 050653Z 20007KT 10SM CLR 12/10 A2990 RMK AO2 SLP129 T01220100"},"webcam_url":"https://atmos.uw.edu/data/images/webcam2_latest.jpg","model_version":"latest"}}
{"started_at":"2026-05-05T07:54:54Z","finished_at":"2026-05-05T07:54:56Z","duration_seconds":2.000,"status":"ok","state":{"timestamp_utc":"2026-05-05T07:54:56Z","class_index":0,"class_name":"not_out","is_out":false,"confidence":{"not_out":0.9993953704833984,"full":0.00032063713297247887,"partial":0.00028401429881341755},"weather":{"station":"KSEA","visibility_sm":10.0,"ceiling_ft":null,"raw":"KSEA 050653Z 20007KT 10SM CLR 12/10 A2990 RMK AO2 SLP129 T01220100"},"webcam_url":"https://atmos.uw.edu/data/images/webcam2_latest.jpg","model_version":"latest"}}
{"started_at":"2026-05-05T08:09:59Z","finished_at":"2026-05-05T08:10:01Z","duration_seconds":2.000,"status":"ok","state":{"timestamp_utc":"2026-05-05T08:10:01Z","class_index":0,"class_name":"not_out","is_out":false,"confidence":{"not_out":0.9992813467979431,"full":0.000407515064580366,"partial":0.0003111643309239298},"weather":{"station":"KSEA","visibility_sm":10.0,"ceiling_ft":null,"raw":"KSEA 050753Z 20007KT 10SM CLR 12/10 A2992 RMK AO2 SLP136 T01220100 402500117"},"webcam_url":"https://atmos.uw.edu/data/images/webcam2_latest.jpg","model_version":"latest"}}
{"started_at":"2026-05-05T08:25:05Z","finished_at":"2026-05-05T08:25:07Z","duration_seconds":2.000,"status":"ok","state":{"timestamp_utc":"2026-05-05T08:25:07Z","class_index":0,"class_name":"not_out","is_out":false,"confidence":{"not_out":0.9993149042129517,"full":0.000336230150423944,"partial":0.00034893304109573364},"weather":{"station":"KSEA","visibility_sm":10.0,"ceiling_ft":null,"raw":"KSEA 050753Z 20007KT 10SM CLR 12/10 A2992 RMK AO2 SLP136 T01220100 402500117"},"webcam_url":"https://atmos.uw.edu/data/images/webcam2_latest.jpg","model_version":"latest"}}
{"started_at":"2026-05-05T08:40:11Z","finished_at":"2026-05-05T08:40:13Z","duration_seconds":2.000,"status":"ok","state":{"timestamp_utc":"2026-05-05T08:40:13Z","class_index":0,"class_name":"not_out","is_out":false,"confidence":{"not_out":0.9988666772842407,"full":0.0006196726462803781,"partial":0.0005136906402185559},"weather":{"station":"KSEA","visibility_sm":10.0,"ceiling_ft":null,"raw":"KSEA 050837Z 20009KT 10SM SCT009 12/10 A2992 RMK AO2 T01170100"},"webcam_url":"https://atmos.uw.edu/data/images/webcam2_latest.jpg","model_version":"latest"}}
{"started_at":"2026-05-05T08:55:16Z","finished_at":"2026-05-05T08:55:19Z","duration_seconds":2.000,"status":"ok","state":{"timestamp_utc":"2026-05-05T08:55:19Z","class_index":0,"class_name":"not_out","is_out":false,"confidence":{"not_out":0.998820960521698,"full":0.0006621484644711018,"partial":0.0005168814095668495},"weather":{"station":"KSEA","visibility_sm":10.0,"ceiling_ft":null,"raw":"KSEA 050837Z 20009KT 10SM SCT009 12/10 A2992 RMK AO2 T01170100"},"webcam_url":"https://atmos.uw.edu/data/images/webcam2_latest.jpg","model_version":"latest"}}
{"started_at":"2026-05-05T09:10:23Z","finished_at":"2026-05-05T09:10:24Z","duration_seconds":1.000,"status":"ok","state":{"timestamp_utc":"2026-05-05T09:10:24Z","class_index":0,"class_name":"not_out","is_out":false,"confidence":{"not_out":0.999170184135437,"full":0.0004766769416164607,"partial":0.0003531200927682221},"weather":{"station":"KSEA","visibility_sm":10.0,"ceiling_ft":900.0,"raw":"KSEA 050853Z 20010KT 10SM BKN009 12/10 A2992 RMK AO2 SLP137 T01170100 51013"},"webcam_url":"https://atmos.uw.edu/data/images/webcam2_latest.jpg","model_version":"latest"}}
{"started_at":"2026-05-05T09:25:28Z","finished_at":"2026-05-05T09:25:30Z","duration_seconds":1.000,"status":"ok","state":{"timestamp_utc":"2026-05-05T09:25:30Z","class_index":0,"class_name":"not_out","is_out":false,"confidence":{"not_out":0.9994088411331177,"full":0.00035569979809224606,"partial":0.00023539621906820685},"weather":{"station":"KSEA","visibility_sm":10.0,"ceiling_ft":900.0,"raw":"KSEA 050853Z 20010KT 10SM BKN009 12/10 A2992 RMK AO2 SLP137 T01170100 51013"},"webcam_url":"https://atmos.uw.edu/data/images/webcam2_latest.jpg","model_version":"latest"}}
{"started_at":"2026-05-05T09:40:34Z","finished_at":"2026-05-05T09:40:36Z","duration_seconds":2.000,"status":"ok","state":{"timestamp_utc":"2026-05-05T09:40:36Z","class_index":0,"class_name":"not_out","is_out":false,"confidence":{"not_out":0.9994515776634216,"full":0.00033127458300441504,"partial":0.00021716942137572914},"weather":{"station":"KSEA","visibility_sm":10.0,"ceiling_ft":900.0,"raw":"KSEA 050853Z 20010KT 10SM BKN009 12/10 A2992 RMK AO2 SLP137 T01170100 51013"},"webcam_url":"https://atmos.uw.edu/data/images/webcam2_latest.jpg","model_version":"latest"}}
{"started_at":"2026-05-05T09:55:40Z","finished_at":"2026-05-05T09:55:42Z","duration_seconds":2.000,"status":"ok","state":{"timestamp_utc":"2026-05-05T09:55:42Z","class_index":0,"class_name":"not_out","is_out":false,"confidence":{"not_out":0.9995125532150269,"full":0.00025803601602092385,"partial":0.0002294129371875897},"weather":{"station":"KSEA","visibility_sm":10.0,"ceiling_ft":900.0,"raw":"KSEA 050853Z 20010KT 10SM BKN009 12/10 A2992 RMK AO2 SLP137 T01170100 51013"},"webcam_url":"https://atmos.uw.edu/data/images/webcam2_latest.jpg","model_version":"latest"}}
{"started_at":"2026-05-05T10:10:46Z","finished_at":"2026-05-05T10:10:48Z","duration_seconds":2.000,"status":"ok","state":{"timestamp_utc":"2026-05-05T10:10:48Z","class_index":0,"class_name":"not_out","is_out":false,"confidence":{"not_out":0.9994126558303833,"full":0.0003247306158300489,"partial":0.00026256387354806066},"weather":{"station":"KSEA","visibility_sm":10.0,"ceiling_ft":800.0,"raw":"KSEA 050953Z 21011KT 10SM OVC008 12/10 A2993 RMK AO2 SLP140 T01220100"},"webcam_url":"https://atmos.uw.edu/data/images/webcam2_latest.jpg","model_version":"latest"}}
{"started_at":"2026-05-05T10:25:51Z","finished_at":"2026-05-05T10:25:53Z","duration_seconds":2.000,"status":"ok","state":{"timestamp_utc":"2026-05-05T10:25:53Z","class_index":0,"class_name":"not_out","is_out":false,"confidence":{"not_out":0.9995757937431335,"full":0.00022653405903838575,"partial":0.00019762948795687407},"weather":{"station":"KSEA","visibility_sm":10.0,"ceiling_ft":800.0,"raw":"KSEA 050953Z 21011KT 10SM OVC008 12/10 A2993 RMK AO2 SLP140 T01220100"},"webcam_url":"https://atmos.uw.edu/data/images/webcam2_latest.jpg","model_version":"latest"}}
{"started_at":"2026-05-05T10:40:57Z","finished_at":"2026-05-05T10:40:58Z","duration_seconds":1.000,"status":"ok","state":{"timestamp_utc":"2026-05-05T10:40:58Z","class_index":0,"class_name":"not_out","is_out":false,"confidence":{"not_out":0.9996321201324463,"full":0.00019660948601085693,"partial":0.00017119220865424722},"weather":{"station":"KSEA","visibility_sm":10.0,"ceiling_ft":800.0,"raw":"KSEA 050953Z 21011KT 10SM OVC008 12/10 A2993 RMK AO2 SLP140 T01220100"},"webcam_url":"https://atmos.uw.edu/data/images/webcam2_latest.jpg","model_version":"latest"}}
{"started_at":"2026-05-05T10:56:02Z","finished_at":"2026-05-05T10:56:04Z","duration_seconds":2.000,"status":"ok","state":{"timestamp_utc":"2026-05-05T10:56:04Z","class_index":0,"class_name":"not_out","is_out":false,"confidence":{"not_out":0.9995881915092468,"full":0.00021891554933972657,"partial":0.0001929654536070302},"weather":{"station":"KSEA","visibility_sm":10.0,"ceiling_ft":1000.0,"raw":"KSEA 051053Z 21006KT 10SM OVC010 12/10 A2995 RMK AO2 SLP145 T01220100"},"webcam_url":"https://atmos.uw.edu/data/images/webcam2_latest.jpg","model_version":"latest"}}
{"started_at":"2026-05-05T11:11:08Z","finished_at":"2026-05-05T11:11:10Z","duration_seconds":2.000,"status":"ok","state":{"timestamp_utc":"2026-05-05T11:11:10Z","class_index":0,"class_name":"not_out","is_out":false,"confidence":{"not_out":0.9996534585952759,"full":0.00018580300093162805,"partial":0.00016070496349129826},"weather":{"station":"KSEA","visibility_sm":10.0,"ceiling_ft":1000.0,"raw":"KSEA 051053Z 21006KT 10SM OVC010 12/10 A2995 RMK AO2 SLP145 T01220100"},"webcam_url":"https://atmos.uw.edu/data/images/webcam2_latest.jpg","model_version":"latest"}}
{"started_at":"2026-05-05T11:26:14Z","finished_at":"2026-05-05T11:26:16Z","duration_seconds":2.000,"status":"ok","state":{"timestamp_utc":"2026-05-05T11:26:16Z","class_index":0,"class_name":"not_out","is_out":false,"confidence":{"not_out":0.9995798468589783,"full":0.00022484517830889672,"partial":0.0001952976599568501},"weather":{"station":"KSEA","visibility_sm":10.0,"ceiling_ft":1000.0,"raw":"KSEA 051053Z 21006KT 10SM OVC010 12/10 A2995 RMK AO2 SLP145 T01220100"},"webcam_url":"https://atmos.uw.edu/data/images/webcam2_latest.jpg","model_version":"latest"}}
{"started_at":"2026-05-05T11:41:20Z","finished_at":"2026-05-05T11:41:22Z","duration_seconds":2.000,"status":"ok","state":{"timestamp_utc":"2026-05-05T11:41:22Z","class_index":0,"class_name":"not_out","is_out":false,"confidence":{"not_out":0.9996010661125183,"full":0.00021153078705538064,"partial":0.00018738192738965154},"weather":{"station":"KSEA","visibility_sm":10.0,"ceiling_ft":1000.0,"raw":"KSEA 051053Z 21006KT 10SM OVC010 12/10 A2995 RMK AO2 SLP145 T01220100"},"webcam_url":"https://atmos.uw.edu/data/images/webcam2_latest.jpg","model_version":"latest"}}
{"started_at":"2026-05-05T11:56:26Z","finished_at":"2026-05-05T11:56:28Z","duration_seconds":2.000,"status":"ok","state":{"timestamp_utc":"2026-05-05T11:56:28Z","class_index":0,"class_name":"not_out","is_out":false,"confidence":{"not_out":0.9993807077407837,"full":0.00032760927570052445,"partial":0.00029160300618968904},"weather":{"station":"KSEA","visibility_sm":10.0,"ceiling_ft":1000.0,"raw":"KSEA 051153Z 22007KT 10SM OVC010 12/09 A2995 RMK AO2 SLP147 T01220094 10128 20117 51006"},"webcam_url":"https://atmos.uw.edu/data/images/webcam2_latest.jpg","model_version":"latest"}}
{"started_at":"2026-05-05T12:11:32Z","finished_at":"2026-05-05T12:11:34Z","duration_seconds":2.000,"status":"ok","state":{"timestamp_utc":"2026-05-05T12:11:34Z","class_index":0,"class_name":"not_out","is_out":false,"confidence":{"not_out":0.999775230884552,"full":0.0000776169472374022,"partial":0.0001471498399041593},"weather":{"station":"KSEA","visibility_sm":10.0,"ceiling_ft":1000.0,"raw":"KSEA 051153Z 22007KT 10SM OVC010 12/09 A2995 RMK AO2 SLP147 T01220094 10128 20117 51006"},"webcam_url":"https://atmos.uw.edu/data/images/webcam2_latest.jpg","model_version":"latest"}}
{"started_at":"2026-05-05T12:26:37Z","finished_at":"2026-05-05T12:26:40Z","duration_seconds":3.000,"status":"ok","state":{"timestamp_utc":"2026-05-05T12:26:40Z","class_index":0,"class_name":"not_out","is_out":false,"confidence":{"not_out":0.9997809529304504,"full":0.00007044709491310641,"partial":0.00014866716810502112},"weather":{"station":"KSEA","visibility_sm":10.0,"ceiling_ft":1000.0,"raw":"KSEA 051153Z 22007KT 10SM OVC010 12/09 A2995 RMK AO2 SLP147 T01220094 10128 20117 51006"},"webcam_url":"https://atmos.uw.edu/data/images/webcam2_latest.jpg","model_version":"latest"}}
{"started_at":"2026-05-05T12:41:43Z","finished_at":"2026-05-05T12:41:45Z","duration_seconds":2.000,"status":"ok","state":{"timestamp_utc":"2026-05-05T12:41:45Z","class_index":0,"class_name":"not_out","is_out":false,"confidence":{"not_out":0.9984891414642334,"full":0.00017728515376802534,"partial":0.0013336250558495522},"weather":{"station":"KSEA","visibility_sm":10.0,"ceiling_ft":1000.0,"raw":"KSEA 051153Z 22007KT 10SM OVC010 12/09 A2995 RMK AO2 SLP147 T01220094 10128 20117 51006"},"webcam_url":"https://atmos.uw.edu/data/images/webcam2_latest.jpg","model_version":"latest"}}
{"started_at":"2026-05-05T12:56:49Z","finished_at":"2026-05-05T12:56:51Z","duration_seconds":2.000,"status":"ok","state":{"timestamp_utc":"2026-05-05T12:56:51Z","class_index":0,"class_name":"not_out","is_out":false,"confidence":{"not_out":0.9964203834533691,"full":0.0000811158461146988,"partial":0.0034985083620995283},"weather":{"station":"KSEA","visibility_sm":10.0,"ceiling_ft":1100.0,"raw":"KSEA 051253Z 22007KT 10SM OVC011 12/09 A2996 RMK AO2 SLP150 T01220094"},"webcam_url":"https://atmos.uw.edu/data/images/webcam2_latest.jpg","model_version":"latest"}}
{"started_at":"2026-05-05T13:11:55Z","finished_at":"2026-05-05T13:11:57Z","duration_seconds":2.000,"status":"ok","state":{"timestamp_utc":"2026-05-05T13:11:57Z","class_index":0,"class_name":"not_out","is_out":false,"confidence":{"not_out":0.9997872710227966,"full":0.000027709893402061425,"partial":0.0001850650878623128},"weather":{"station":"KSEA","visibility_sm":10.0,"ceiling_ft":1100.0,"raw":"KSEA 051253Z 22007KT 10SM OVC011 12/09 A2996 RMK AO2 SLP150 T01220094"},"webcam_url":"https://atmos.uw.edu/data/images/webcam2_latest.jpg","model_version":"latest"}}
{"started_at":"2026-05-05T13:27:01Z","finished_at":"2026-05-05T13:27:03Z","duration_seconds":2.000,"status":"ok","state":{"timestamp_utc":"2026-05-05T13:27:03Z","class_index":0,"class_name":"not_out","is_out":false,"confidence":{"not_out":0.9998534917831421,"full":0.000006540195499837864,"partial":0.00013987529382575303},"weather":{"station":"KSEA","visibility_sm":10.0,"ceiling_ft":1100.0,"raw":"KSEA 051253Z 22007KT 10SM OVC011 12/09 A2996 RMK AO2 SLP150 T01220094"},"webcam_url":"https://atmos.uw.edu/data/images/webcam2_latest.jpg","model_version":"latest"}}
{"started_at":"2026-05-05T13:42:07Z","finished_at":"2026-05-05T13:42:09Z","duration_seconds":2.000,"status":"ok","state":{"timestamp_utc":"2026-05-05T13:42:09Z","class_index":0,"class_name":"not_out","is_out":false,"confidence":{"not_out":0.9995970129966736,"full":0.000009914448128256481,"partial":0.0003931562532670796},"weather":{"station":"KSEA","visibility_sm":10.0,"ceiling_ft":1100.0,"raw":"KSEA 051253Z 22007KT 10SM OVC011 12/09 A2996 RMK AO2 SLP150 T01220094"},"webcam_url":"https://atmos.uw.edu/data/images/webcam2_latest.jpg","model_version":"latest"}}
{"started_at":"2026-05-05T13:57:13Z","finished_at":"2026-05-05T13:57:15Z","duration_seconds":2.000,"status":"ok","state":{"timestamp_utc":"2026-05-05T13:57:15Z","class_index":0,"class_name":"not_out","is_out":false,"confidence":{"not_out":0.999496340751648,"full":0.000016527294064871967,"partial":0.00048702661297284067},"weather":{"station":"KSEA","visibility_sm":10.0,"ceiling_ft":1100.0,"raw":"KSEA 051353Z 21006KT 10SM OVC011 12/10 A2998 RMK AO2 SLP156 T01220100"},"webcam_url":"https://atmos.uw.edu/data/images/webcam2_latest.jpg","model_version":"latest"}}
{"started_at":"2026-05-05T14:12:19Z","finished_at":"2026-05-05T14:12:21Z","duration_seconds":2.000,"status":"ok","state":{"timestamp_utc":"2026-05-05T14:12:21Z","class_index":0,"class_name":"not_out","is_out":false,"confidence":{"not_out":0.9981222748756409,"full":0.00021808435849379748,"partial":0.0016595771303400397},"weather":{"station":"KSEA","visibility_sm":10.0,"ceiling_ft":1100.0,"raw":"KSEA 051353Z 21006KT 10SM OVC011 12/10 A2998 RMK AO2 SLP156 T01220100"},"webcam_url":"https://atmos.uw.edu/data/images/webcam2_latest.jpg","model_version":"latest"}}
{"started_at":"2026-05-05T14:27:25Z","finished_at":"2026-05-05T14:27:27Z","duration_seconds":2.000,"status":"ok","state":{"timestamp_utc":"2026-05-05T14:27:27Z","class_index":0,"class_name":"not_out","is_out":false,"confidence":{"not_out":0.9639049172401428,"full":0.031878888607025146,"partial":0.004216175992041826},"weather":{"station":"KSEA","visibility_sm":10.0,"ceiling_ft":1100.0,"raw":"KSEA 051353Z 21006KT 10SM OVC011 12/10 A2998 RMK AO2 SLP156 T01220100"},"webcam_url":"https://atmos.uw.edu/data/images/webcam2_latest.jpg","model_version":"latest"}}
{"started_at":"2026-05-05T14:42:31Z","finished_at":"2026-05-05T14:42:34Z","duration_seconds":3.000,"status":"ok","state":{"timestamp_utc":"2026-05-05T14:42:34Z","class_index":0,"class_name":"not_out","is_out":false,"confidence":{"not_out":0.994793713092804,"full":0.00013617226795759052,"partial":0.005070088431239128},"weather":{"station":"KSEA","visibility_sm":10.0,"ceiling_ft":1100.0,"raw":"KSEA 051353Z 21006KT 10SM OVC011 12/10 A2998 RMK AO2 SLP156 T01220100"},"webcam_url":"https://atmos.uw.edu/data/images/webcam2_latest.jpg","model_version":"latest"}}
{"started_at":"2026-05-05T14:57:38Z","finished_at":"2026-05-05T14:57:40Z","duration_seconds":2.000,"status":"ok","state":{"timestamp_utc":"2026-05-05T14:57:40Z","class_index":0,"class_name":"not_out","is_out":false,"confidence":{"not_out":0.9963635802268982,"full":0.000120876582514029,"partial":0.003515510819852352},"weather":{"station":"KSEA","visibility_sm":10.0,"ceiling_ft":1200.0,"raw":"KSEA 051453Z 22007KT 10SM OVC012 12/09 A3000 RMK AO2 SLP163 T01220094 53014"},"webcam_url":"https://atmos.uw.edu/data/images/webcam2_latest.jpg","model_version":"latest"}}
{"started_at":"2026-05-05T15:12:44Z","finished_at":"2026-05-05T15:12:46Z","duration_seconds":2.000,"status":"ok","state":{"timestamp_utc":"2026-05-05T15:12:46Z","class_index":0,"class_name":"not_out","is_out":false,"confidence":{"not_out":0.994159460067749,"full":0.000040640687075210735,"partial":0.0057999505661427975},"weather":{"station":"KSEA","visibility_sm":10.0,"ceiling_ft":1200.0,"raw":"KSEA 051453Z 22007KT 10SM OVC012 12/09 A3000 RMK AO2 SLP163 T01220094 53014"},"webcam_url":"https://atmos.uw.edu/data/images/webcam2_latest.jpg","model_version":"latest"}}
{"started_at":"2026-05-05T15:27:50Z","finished_at":"2026-05-05T15:27:52Z","duration_seconds":2.000,"status":"ok","state":{"timestamp_utc":"2026-05-05T15:27:52Z","class_index":0,"class_name":"not_out","is_out":false,"confidence":{"not_out":0.9951044321060181,"full":0.000031942898203851655,"partial":0.004863704554736614},"weather":{"station":"KSEA","visibility_sm":10.0,"ceiling_ft":1200.0,"raw":"KSEA 051453Z 22007KT 10SM OVC012 12/09 A3000 RMK AO2 SLP163 T01220094 53014"},"webcam_url":"https://atmos.uw.edu/data/images/webcam2_latest.jpg","model_version":"latest"}}
{"started_at":"2026-05-05T15:42:56Z","finished_at":"2026-05-05T15:42:59Z","duration_seconds":3.000,"status":"ok","state":{"timestamp_utc":"2026-05-05T15:42:59Z","class_index":0,"class_name":"not_out","is_out":false,"confidence":{"not_out":0.995306670665741,"full":0.0001158813975052908,"partial":0.0045774406753480434},"weather":{"station":"KSEA","visibility_sm":10.0,"ceiling_ft":1200.0,"raw":"KSEA 051453Z 22007KT 10SM OVC012 12/09 A3000 RMK AO2 SLP163 T01220094 53014"},"webcam_url":"https://atmos.uw.edu/data/images/webcam2_latest.jpg","model_version":"latest"}}
{"started_at":"2026-05-05T15:58:03Z","finished_at":"2026-05-05T15:58:05Z","duration_seconds":2.000,"status":"ok","state":{"timestamp_utc":"2026-05-05T15:58:05Z","class_index":0,"class_name":"not_out","is_out":false,"confidence":{"not_out":0.9976180195808411,"full":0.00010156452481169254,"partial":0.0022803526371717453},"weather":{"station":"KSEA","visibility_sm":10.0,"ceiling_ft":1200.0,"raw":"KSEA 051553Z 23005KT 10SM OVC012 13/09 A3000 RMK AO2 SLP165 T01280094"},"webcam_url":"https://atmos.uw.edu/data/images/webcam2_latest.jpg","model_version":"latest"}}
{"started_at":"2026-05-05T16:13:11Z","finished_at":"2026-05-05T16:13:13Z","duration_seconds":2.000,"status":"ok","state":{"timestamp_utc":"2026-05-05T16:13:13Z","class_index":0,"class_name":"not_out","is_out":false,"confidence":{"not_out":0.9955884218215942,"full":0.00003928331716451794,"partial":0.004372285213321447},"weather":{"station":"KSEA","visibility_sm":10.0,"ceiling_ft":1200.0,"raw":"KSEA 051553Z 23005KT 10SM OVC012 13/09 A3000 RMK AO2 SLP165 T01280094"},"webcam_url":"https://atmos.uw.edu/data/images/webcam2_latest.jpg","model_version":"latest"}}
{"started_at":"2026-05-05T16:28:17Z","finished_at":"2026-05-05T16:28:19Z","duration_seconds":2.000,"status":"ok","state":{"timestamp_utc":"2026-05-05T16:28:19Z","class_index":0,"class_name":"not_out","is_out":false,"confidence":{"not_out":0.9987780451774597,"full":0.000025962854124372825,"partial":0.0011959719704464078},"weather":{"station":"KSEA","visibility_sm":10.0,"ceiling_ft":1200.0,"raw":"KSEA 051553Z 23005KT 10SM OVC012 13/09 A3000 RMK AO2 SLP165 T01280094"},"webcam_url":"https://atmos.uw.edu/data/images/webcam2_latest.jpg","model_version":"latest"}}
{"started_at":"2026-05-05T16:43:23Z","finished_at":"2026-05-05T16:43:25Z","duration_seconds":2.000,"status":"ok","state":{"timestamp_utc":"2026-05-05T16:43:25Z","class_index":0,"class_name":"not_out","is_out":false,"confidence":{"not_out":0.9989567995071411,"full":0.0000340976839652285,"partial":0.001009084633551538},"weather":{"station":"KSEA","visibility_sm":10.0,"ceiling_ft":1200.0,"raw":"KSEA 051553Z 23005KT 10SM OVC012 13/09 A3000 RMK AO2 SLP165 T01280094"},"webcam_url":"https://atmos.uw.edu/data/images/webcam2_latest.jpg","model_version":"latest"}}
{"started_at":"2026-05-05T16:58:29Z","finished_at":"2026-05-05T16:58:32Z","duration_seconds":3.000,"status":"ok","state":{"timestamp_utc":"2026-05-05T16:58:32Z","class_index":0,"class_name":"not_out","is_out":false,"confidence":{"not_out":0.9924638271331787,"full":0.000047365203499794006,"partial":0.007488802075386047},"weather":{"station":"KSEA","visibility_sm":10.0,"ceiling_ft":1300.0,"raw":"KSEA 051653Z 23003KT 10SM OVC013 13/10 A3001 RMK AO2 SLP169 T01280100"},"webcam_url":"https://atmos.uw.edu/data/images/webcam2_latest.jpg","model_version":"latest"}}
{"started_at":"2026-05-05T17:13:36Z","finished_at":"2026-05-05T17:13:38Z","duration_seconds":2.000,"status":"ok","state":{"timestamp_utc":"2026-05-05T17:13:38Z","class_index":0,"class_name":"not_out","is_out":false,"confidence":{"not_out":0.9975336790084839,"full":0.00002386997039138805,"partial":0.0024423799477517605},"weather":{"station":"KSEA","visibility_sm":10.0,"ceiling_ft":1300.0,"raw":"KSEA 051653Z 23003KT 10SM OVC013 13/10 A3001 RMK AO2 SLP169 T01280100"},"webcam_url":"https://atmos.uw.edu/data/images/webcam2_latest.jpg","model_version":"latest"}}
{"started_at":"2026-05-05T17:28:42Z","finished_at":"2026-05-05T17:28:44Z","duration_seconds":2.000,"status":"ok","state":{"timestamp_utc":"2026-05-05T17:28:44Z","class_index":0,"class_name":"not_out","is_out":false,"confidence":{"not_out":0.9957292675971985,"full":0.00005117525142850354,"partial":0.00421951524913311},"weather":{"station":"KSEA","visibility_sm":10.0,"ceiling_ft":1300.0,"raw":"KSEA 051653Z 23003KT 10SM OVC013 13/10 A3001 RMK AO2 SLP169 T01280100"},"webcam_url":"https://atmos.uw.edu/data/images/webcam2_latest.jpg","model_version":"latest"}}
{"started_at":"2026-05-05T17:43:49Z","finished_at":"2026-05-05T17:43:51Z","duration_seconds":2.000,"status":"ok","state":{"timestamp_utc":"2026-05-05T17:43:51Z","class_index":0,"class_name":"not_out","is_out":false,"confidence":{"not_out":0.9929585456848145,"full":0.000040516486478736624,"partial":0.007000982295721769},"weather":{"station":"KSEA","visibility_sm":10.0,"ceiling_ft":1300.0,"raw":"KSEA 051653Z 23003KT 10SM OVC013 13/10 A3001 RMK AO2 SLP169 T01280100"},"webcam_url":"https://atmos.uw.edu/data/images/webcam2_latest.jpg","model_version":"latest"}}
{"started_at":"2026-05-05T17:58:55Z","finished_at":"2026-05-05T17:58:57Z","duration_seconds":2.000,"status":"ok","state":{"timestamp_utc":"2026-05-05T17:58:57Z","class_index":0,"class_name":"not_out","is_out":false,"confidence":{"not_out":0.9935010075569153,"full":0.00003811542774201371,"partial":0.006460824981331825},"weather":{"station":"KSEA","visibility_sm":10.0,"ceiling_ft":1400.0,"raw":"KSEA 051753Z 24004KT 10SM OVC014 13/10 A3002 RMK AO2 SLP172 CIG 013V015 T01330100 10133 20122 52008"},"webcam_url":"https://atmos.uw.edu/data/images/webcam2_latest.jpg","model_version":"latest"}}
{"started_at":"2026-05-05T18:14:01Z","finished_at":"2026-05-05T18:14:03Z","duration_seconds":2.000,"status":"ok","state":{"timestamp_utc":"2026-05-05T18:14:03Z","class_index":0,"class_name":"not_out","is_out":false,"confidence":{"not_out":0.9993094205856323,"full":0.0000170170624187449,"partial":0.0006735333008691669},"weather":{"station":"KSEA","visibility_sm":10.0,"ceiling_ft":1400.0,"raw":"KSEA 051753Z 24004KT 10SM OVC014 13/10 A3002 RMK AO2 SLP172 CIG 013V015 T01330100 10133 20122 52008"},"webcam_url":"https://atmos.uw.edu/data/images/webcam2_latest.jpg","model_version":"latest"}}
{"started_at":"2026-05-05T18:29:07Z","finished_at":"2026-05-05T18:29:09Z","duration_seconds":2.000,"status":"ok","state":{"timestamp_utc":"2026-05-05T18:29:09Z","class_index":0,"class_name":"not_out","is_out":false,"confidence":{"not_out":0.994594156742096,"full":0.000009104734090215061,"partial":0.005396682769060135},"weather":{"station":"KSEA","visibility_sm":10.0,"ceiling_ft":1400.0,"raw":"KSEA 051753Z 24004KT 10SM OVC014 13/10 A3002 RMK AO2 SLP172 CIG 013V015 T01330100 10133 20122 52008"},"webcam_url":"https://atmos.uw.edu/data/images/webcam2_latest.jpg","model_version":"latest"}}
{"started_at":"2026-05-05T18:44:13Z","finished_at":"2026-05-05T18:44:15Z","duration_seconds":2.000,"status":"ok","state":{"timestamp_utc":"2026-05-05T18:44:15Z","class_index":0,"class_name":"not_out","is_out":false,"confidence":{"not_out":0.9966251850128174,"full":0.00003182954606018029,"partial":0.003342968877404928},"weather":{"station":"KSEA","visibility_sm":10.0,"ceiling_ft":1400.0,"raw":"KSEA 051753Z 24004KT 10SM OVC014 13/10 A3002 RMK AO2 SLP172 CIG 013V015 T01330100 10133 20122 52008"},"webcam_url":"https://atmos.uw.edu/data/images/webcam2_latest.jpg","model_version":"latest"}}
{"started_at":"2026-05-05T18:59:19Z","finished_at":"2026-05-05T18:59:21Z","duration_seconds":2.000,"status":"ok","state":{"timestamp_utc":"2026-05-05T18:59:21Z","class_index":0,"class_name":"not_out","is_out":false,"confidence":{"not_out":0.9893792271614075,"full":0.00008643767068861052,"partial":0.01053432747721672},"weather":{"station":"KSEA","visibility_sm":10.0,"ceiling_ft":1400.0,"raw":"KSEA 051853Z 21009KT 10SM OVC014 14/10 A3002 RMK AO2 SLP173 CIG 013V015 T01390100"},"webcam_url":"https://atmos.uw.edu/data/images/webcam2_latest.jpg","model_version":"latest"}}
{"started_at":"2026-05-05T19:14:25Z","finished_at":"2026-05-05T19:14:27Z","duration_seconds":2.000,"status":"ok","state":{"timestamp_utc":"2026-05-05T19:14:27Z","class_index":0,"class_name":"not_out","is_out":false,"confidence":{"not_out":0.9885365962982178,"full":0.00013383816985879093,"partial":0.01132949348539114},"weather":{"station":"KSEA","visibility_sm":10.0,"ceiling_ft":1500.0,"raw":"KSEA 051911Z 21008KT 10SM OVC015 14/10 A3002 RMK AO2 CIG 013V017 T01390100"},"webcam_url":"https://atmos.uw.edu/data/images/webcam2_latest.jpg","model_version":"latest"}}
{"started_at":"2026-05-05T19:29:31Z","finished_at":"2026-05-05T19:29:33Z","duration_seconds":2.000,"status":"ok","state":{"timestamp_utc":"2026-05-05T19:29:33Z","class_index":0,"class_name":"not_out","is_out":false,"confidence":{"not_out":0.9948825836181641,"full":0.00007501878280891106,"partial":0.005042403470724821},"weather":{"station":"KSEA","visibility_sm":10.0,"ceiling_ft":1500.0,"raw":"KSEA 051911Z 21008KT 10SM OVC015 14/10 A3002 RMK AO2 CIG 013V017 T01390100"},"webcam_url":"https://atmos.uw.edu/data/images/webcam2_latest.jpg","model_version":"latest"}}
{"started_at":"2026-05-05T19:44:37Z","finished_at":"2026-05-05T19:44:39Z","duration_seconds":2.000,"status":"ok","state":{"timestamp_utc":"2026-05-05T19:44:39Z","class_index":0,"class_name":"not_out","is_out":false,"confidence":{"not_out":0.998462438583374,"full":0.000020062856492586434,"partial":0.0015174694126471877},"weather":{"station":"KSEA","visibility_sm":10.0,"ceiling_ft":1500.0,"raw":"KSEA 051911Z 21008KT 10SM OVC015 14/10 A3002 RMK AO2 CIG 013V017 T01390100"},"webcam_url":"https://atmos.uw.edu/data/images/webcam2_latest.jpg","model_version":"latest"}}
{"started_at":"2026-05-05T19:59:43Z","finished_at":"2026-05-05T19:59:45Z","duration_seconds":2.000,"status":"ok","state":{"timestamp_utc":"2026-05-05T19:59:45Z","class_index":0,"class_name":"not_out","is_out":false,"confidence":{"not_out":0.9962728023529053,"full":0.00009748047159519047,"partial":0.003629750572144985},"weather":{"station":"KSEA","visibility_sm":10.0,"ceiling_ft":1600.0,"raw":"KSEA 051953Z 23006KT 10SM BKN016 OVC020 14/10 A3003 RMK AO2 SLP174 T01390100"},"webcam_url":"https://atmos.uw.edu/data/images/webcam2_latest.jpg","model_version":"latest"}}
{"started_at":"2026-05-05T20:14:49Z","finished_at":"2026-05-05T20:14:52Z","duration_seconds":3.000,"status":"ok","state":{"timestamp_utc":"2026-05-05T20:14:52Z","class_index":0,"class_name":"not_out","is_out":false,"confidence":{"not_out":0.9979594945907593,"full":0.000016345582480425946,"partial":0.002024150686338544},"weather":{"station":"KSEA","visibility_sm":10.0,"ceiling_ft":1600.0,"raw":"KSEA 051953Z 23006KT 10SM BKN016 OVC020 14/10 A3003 RMK AO2 SLP174 T01390100"},"webcam_url":"https://atmos.uw.edu/data/images/webcam2_latest.jpg","model_version":"latest"}}
{"started_at":"2026-05-05T20:29:56Z","finished_at":"2026-05-05T20:29:59Z","duration_seconds":3.000,"status":"ok","state":{"timestamp_utc":"2026-05-05T20:29:59Z","class_index":0,"class_name":"not_out","is_out":false,"confidence":{"not_out":0.9957720637321472,"full":0.000028403921533026733,"partial":0.004199555609375238},"weather":{"station":"KSEA","visibility_sm":10.0,"ceiling_ft":1600.0,"raw":"KSEA 051953Z 23006KT 10SM BKN016 OVC020 14/10 A3003 RMK AO2 SLP174 T01390100"},"webcam_url":"https://atmos.uw.edu/data/images/webcam2_latest.jpg","model_version":"latest"}}
{"started_at":"2026-05-05T20:45:03Z","finished_at":"2026-05-05T20:45:05Z","duration_seconds":2.000,"status":"ok","state":{"timestamp_utc":"2026-05-05T20:45:05Z","class_index":0,"class_name":"not_out","is_out":false,"confidence":{"not_out":0.9975903034210205,"full":0.000024003227736102417,"partial":0.0023857136256992817},"weather":{"station":"KSEA","visibility_sm":10.0,"ceiling_ft":1600.0,"raw":"KSEA 051953Z 23006KT 10SM BKN016 OVC020 14/10 A3003 RMK AO2 SLP174 T01390100"},"webcam_url":"https://atmos.uw.edu/data/images/webcam2_latest.jpg","model_version":"latest"}}
{"started_at":"2026-05-05T21:00:09Z","finished_at":"2026-05-05T21:00:11Z","duration_seconds":2.000,"status":"ok","state":{"timestamp_utc":"2026-05-05T21:00:11Z","class_index":0,"class_name":"not_out","is_out":false,"confidence":{"not_out":0.9969430565834045,"full":0.000008919309948396403,"partial":0.0030479992274194956},"weather":{"station":"KSEA","visibility_sm":10.0,"ceiling_ft":1700.0,"raw":"KSEA 052053Z 22006KT 10SM BKN017 OVC020 14/10 A3003 RMK AO2 SLP174 T01440100 50002"},"webcam_url":"https://atmos.uw.edu/data/images/webcam2_latest.jpg","model_version":"latest"}}
{"started_at":"2026-05-05T21:15:16Z","finished_at":"2026-05-05T21:15:18Z","duration_seconds":2.000,"status":"ok","state":{"timestamp_utc":"2026-05-05T21:15:18Z","class_index":0,"class_name":"not_out","is_out":false,"confidence":{"not_out":0.9848741888999939,"full":0.00004382689803605899,"partial":0.015081986784934998},"weather":{"station":"KSEA","visibility_sm":10.0,"ceiling_ft":1700.0,"raw":"KSEA 052053Z 22006KT 10SM BKN017 OVC020 14/10 A3003 RMK AO2 SLP174 T01440100 50002"},"webcam_url":"https://atmos.uw.edu/data/images/webcam2_latest.jpg","model_version":"latest"}}
{"started_at":"2026-05-05T21:30:22Z","finished_at":"2026-05-05T21:30:24Z","duration_seconds":2.000,"status":"ok","state":{"timestamp_utc":"2026-05-05T21:30:23Z","class_index":0,"class_name":"not_out","is_out":false,"confidence":{"not_out":0.9821719527244568,"full":0.000052448976930463687,"partial":0.017775552347302437},"weather":{"station":"KSEA","visibility_sm":10.0,"ceiling_ft":1700.0,"raw":"KSEA 052053Z 22006KT 10SM BKN017 OVC020 14/10 A3003 RMK AO2 SLP174 T01440100 50002"},"webcam_url":"https://atmos.uw.edu/data/images/webcam2_latest.jpg","model_version":"latest"}}
{"started_at":"2026-05-05T21:45:27Z","finished_at":"2026-05-05T21:45:29Z","duration_seconds":2.000,"status":"ok","state":{"timestamp_utc":"2026-05-05T21:45:29Z","class_index":0,"class_name":"not_out","is_out":false,"confidence":{"not_out":0.9918002486228943,"full":0.000014185279724188149,"partial":0.008185516111552715},"weather":{"station":"KSEA","visibility_sm":10.0,"ceiling_ft":1700.0,"raw":"KSEA 052053Z 22006KT 10SM BKN017 OVC020 14/10 A3003 RMK AO2 SLP174 T01440100 50002"},"webcam_url":"https://atmos.uw.edu/data/images/webcam2_latest.jpg","model_version":"latest"}}
{"started_at":"2026-05-05T22:00:33Z","finished_at":"2026-05-05T22:00:35Z","duration_seconds":2.000,"status":"ok","state":{"timestamp_utc":"2026-05-05T22:00:35Z","class_index":0,"class_name":"not_out","is_out":false,"confidence":{"not_out":0.9953320622444153,"full":0.00006956672586966306,"partial":0.004598444327712059},"weather":{"station":"KSEA","visibility_sm":10.0,"ceiling_ft":2000.0,"raw":"KSEA 052153Z 24007KT 10SM OVC020 16/10 A3002 RMK AO2 SLP173 T01560100"},"webcam_url":"https://atmos.uw.edu/data/images/webcam2_latest.jpg","model_version":"latest"}}
{"started_at":"2026-05-05T22:15:39Z","finished_at":"2026-05-05T22:15:41Z","duration_seconds":2.000,"status":"ok","state":{"timestamp_utc":"2026-05-05T22:15:41Z","class_index":0,"class_name":"not_out","is_out":false,"confidence":{"not_out":0.9829855561256409,"full":0.00007725878822384402,"partial":0.01693721115589142},"weather":{"station":"KSEA","visibility_sm":10.0,"ceiling_ft":2000.0,"raw":"KSEA 052153Z 24007KT 10SM OVC020 16/10 A3002 RMK AO2 SLP173 T01560100"},"webcam_url":"https://atmos.uw.edu/data/images/webcam2_latest.jpg","model_version":"latest"}}
{"started_at":"2026-05-05T22:30:45Z","finished_at":"2026-05-05T22:30:48Z","duration_seconds":3.000,"status":"ok","state":{"timestamp_utc":"2026-05-05T22:30:48Z","class_index":0,"class_name":"not_out","is_out":false,"confidence":{"not_out":0.9760006070137024,"full":0.004645976237952709,"partial":0.019353417679667473},"weather":{"station":"KSEA","visibility_sm":10.0,"ceiling_ft":2000.0,"raw":"KSEA 052153Z 24007KT 10SM OVC020 16/10 A3002 RMK AO2 SLP173 T01560100"},"webcam_url":"https://atmos.uw.edu/data/images/webcam2_latest.jpg","model_version":"latest"}}
{"started_at":"2026-05-05T22:45:52Z","finished_at":"2026-05-05T22:45:54Z","duration_seconds":2.000,"status":"ok","state":{"timestamp_utc":"2026-05-05T22:45:54Z","class_index":0,"class_name":"not_out","is_out":false,"confidence":{"not_out":0.9553336501121521,"full":0.01599346473813057,"partial":0.028672829270362854},"weather":{"station":"KSEA","visibility_sm":10.0,"ceiling_ft":2000.0,"raw":"KSEA 052153Z 24007KT 10SM OVC020 16/10 A3002 RMK AO2 SLP173 T01560100"},"webcam_url":"https://atmos.uw.edu/data/images/webcam2_latest.jpg","model_version":"latest"}}
{"started_at":"2026-05-05T23:00:57Z","finished_at":"2026-05-05T23:00:59Z","duration_seconds":2.000,"status":"ok","state":{"timestamp_utc":"2026-05-05T23:00:59Z","class_index":0,"class_name":"not_out","is_out":false,"confidence":{"not_out":0.8565115332603455,"full":0.13107286393642426,"partial":0.012415524572134018},"weather":{"station":"KSEA","visibility_sm":10.0,"ceiling_ft":2300.0,"raw":"KSEA 052253Z 25007KT 10SM FEW018 BKN023 16/11 A3001 RMK AO2 SLP168 T01560106"},"webcam_url":"https://atmos.uw.edu/data/images/webcam2_latest.jpg","model_version":"latest"}}
{"started_at":"2026-05-05T23:16:03Z","finished_at":"2026-05-05T23:16:05Z","duration_seconds":2.000,"status":"ok","state":{"timestamp_utc":"2026-05-05T23:16:05Z","class_index":0,"class_name":"not_out","is_out":false,"confidence":{"not_out":0.6048629879951477,"full":0.38432037830352783,"partial":0.010816558264195919},"weather":{"station":"KSEA","visibility_sm":10.0,"ceiling_ft":2300.0,"raw":"KSEA 052253Z 25007KT 10SM FEW018 BKN023 16/11 A3001 RMK AO2 SLP168 T01560106"},"webcam_url":"https://atmos.uw.edu/data/images/webcam2_latest.jpg","model_version":"latest"}}
{"started_at":"2026-05-05T23:31:09Z","finished_at":"2026-05-05T23:31:11Z","duration_seconds":2.000,"status":"ok","state":{"timestamp_utc":"2026-05-05T23:31:11Z","class_index":1,"class_name":"full","is_out":true,"confidence":{"not_out":0.28752756118774414,"full":0.6373209357261658,"partial":0.0751514658331871},"weather":{"station":"KSEA","visibility_sm":10.0,"ceiling_ft":2300.0,"raw":"KSEA 052253Z 25007KT 10SM FEW018 BKN023 16/11 A3001 RMK AO2 SLP168 T01560106"},"webcam_url":"https://atmos.uw.edu/data/images/webcam2_latest.jpg","model_version":"latest"}}
{"started_at":"2026-05-05T23:46:14Z","finished_at":"2026-05-05T23:46:16Z","duration_seconds":2.000,"status":"ok","state":{"timestamp_utc":"2026-05-05T23:46:16Z","class_index":1,"class_name":"full","is_out":true,"confidence":{"not_out":0.08046772330999374,"full":0.8899683952331543,"partial":0.029563868418335915},"weather":{"station":"KSEA","visibility_sm":10.0,"ceiling_ft":null,"raw":"KSEA 052335Z 25008KT 10SM SCT024 17/11 A3000 RMK AO2 T01670111"},"webcam_url":"https://atmos.uw.edu/data/images/webcam2_latest.jpg","model_version":"latest"}}
{"started_at":"2026-05-06T00:01:20Z","finished_at":"2026-05-06T00:01:21Z","duration_seconds":1.000,"status":"error","error":{"type":"InferenceCallFailed","message":"inference call failed (curl_exit=0, http=500): {\"detail\":\"ConnectionError: HTTPSConnectionPool(host='atmos.uw.edu', port=443): Max retries exceeded with url: /data/images/webcam2_latest.jpg (Caused by NewConnectionError(\\\"HTTPSConnection(host='atmos.uw.edu', port=443): Failed to establish a new connection: [Errno 111] Connection refused\\\"))\"}"}}
{"started_at":"2026-05-06T00:16:25Z","finished_at":"2026-05-06T00:16:27Z","duration_seconds":2.000,"status":"ok","state":{"timestamp_utc":"2026-05-06T00:16:27Z","class_index":1,"class_name":"full","is_out":true,"confidence":{"not_out":0.019948065280914307,"full":0.9490017294883728,"partial":0.031050218269228935},"weather":{"station":"KSEA","visibility_sm":10.0,"ceiling_ft":null,"raw":"KSEA 052353Z 25006KT 10SM FEW026 16/11 A3000 RMK AO2 SLP163 T01610106 10172 20128 58010"},"webcam_url":"https://atmos.uw.edu/data/images/webcam2_latest.jpg","model_version":"latest"}}
{"started_at":"2026-05-06T00:31:31Z","finished_at":"2026-05-06T00:31:33Z","duration_seconds":2.000,"status":"ok","state":{"timestamp_utc":"2026-05-06T00:31:33Z","class_index":1,"class_name":"full","is_out":true,"confidence":{"not_out":0.04699945077300072,"full":0.830430269241333,"partial":0.12257031351327896},"weather":{"station":"KSEA","visibility_sm":10.0,"ceiling_ft":null,"raw":"KSEA 052353Z 25006KT 10SM FEW026 16/11 A3000 RMK AO2 SLP163 T01610106 10172 20128 58010"},"webcam_url":"https://atmos.uw.edu/data/images/webcam2_latest.jpg","model_version":"latest"}}
{"started_at":"2026-05-06T00:46:36Z","finished_at":"2026-05-06T00:46:39Z","duration_seconds":3.000,"status":"ok","state":{"timestamp_utc":"2026-05-06T00:46:39Z","class_index":1,"class_name":"full","is_out":true,"confidence":{"not_out":0.037146128714084625,"full":0.7165664434432983,"partial":0.24628742039203644},"weather":{"station":"KSEA","visibility_sm":10.0,"ceiling_ft":null,"raw":"KSEA 052353Z 25006KT 10SM FEW026 16/11 A3000 RMK AO2 SLP163 T01610106 10172 20128 58010"},"webcam_url":"https://atmos.uw.edu/data/images/webcam2_latest.jpg","model_version":"latest"}}
{"started_at":"2026-05-06T01:01:42Z","finished_at":"2026-05-06T01:01:45Z","duration_seconds":3.000,"status":"ok","state":{"timestamp_utc":"2026-05-06T01:01:45Z","class_index":1,"class_name":"full","is_out":true,"confidence":{"not_out":0.05106600373983383,"full":0.621197521686554,"partial":0.32773643732070923},"weather":{"station":"KSEA","visibility_sm":10.0,"ceiling_ft":null,"raw":"KSEA 060053Z 21004KT 10SM FEW028 17/11 A2998 RMK AO2 SLP158 T01670106"},"webcam_url":"https://atmos.uw.edu/data/images/webcam2_latest.jpg","model_version":"latest"}}
{"started_at":"2026-05-06T01:16:48Z","finished_at":"2026-05-06T01:16:50Z","duration_seconds":2.000,"status":"ok","state":{"timestamp_utc":"2026-05-06T01:16:50Z","class_index":1,"class_name":"full","is_out":true,"confidence":{"not_out":0.04312257841229439,"full":0.6478094458580017,"partial":0.30906805396080017},"weather":{"station":"KSEA","visibility_sm":10.0,"ceiling_ft":null,"raw":"KSEA 060053Z 21004KT 10SM FEW028 17/11 A2998 RMK AO2 SLP158 T01670106"},"webcam_url":"https://atmos.uw.edu/data/images/webcam2_latest.jpg","model_version":"latest"}}
{"started_at":"2026-05-06T01:31:54Z","finished_at":"2026-05-06T01:31:56Z","duration_seconds":2.000,"status":"ok","state":{"timestamp_utc":"2026-05-06T01:31:56Z","class_index":2,"class_name":"partial","is_out":true,"confidence":{"not_out":0.028421912342309952,"full":0.46506544947624207,"partial":0.5065125823020935},"weather":{"station":"KSEA","visibility_sm":10.0,"ceiling_ft":null,"raw":"KSEA 060053Z 21004KT 10SM FEW028 17/11 A2998 RMK AO2 SLP158 T01670106"},"webcam_url":"https://atmos.uw.edu/data/images/webcam2_latest.jpg","model_version":"latest"}}
{"started_at":"2026-05-06T01:47:00Z","finished_at":"2026-05-06T01:47:02Z","duration_seconds":2.000,"status":"ok","state":{"timestamp_utc":"2026-05-06T01:47:02Z","class_index":2,"class_name":"partial","is_out":true,"confidence":{"not_out":0.014115442521870136,"full":0.33794987201690674,"partial":0.6479346752166748},"weather":{"station":"KSEA","visibility_sm":10.0,"ceiling_ft":null,"raw":"KSEA 060053Z 21004KT 10SM FEW028 17/11 A2998 RMK AO2 SLP158 T01670106"},"webcam_url":"https://atmos.uw.edu/data/images/webcam2_latest.jpg","model_version":"latest"}}
{"started_at":"2026-05-06T02:02:06Z","finished_at":"2026-05-06T02:02:07Z","duration_seconds":1.000,"status":"ok","state":{"timestamp_utc":"2026-05-06T02:02:07Z","class_index":2,"class_name":"partial","is_out":true,"confidence":{"not_out":0.021207915619015694,"full":0.33820265531539917,"partial":0.6405894756317139},"weather":{"station":"KSEA","visibility_sm":10.0,"ceiling_ft":null,"raw":"KSEA 060153Z 19007KT 10SM CLR 17/11 A2998 RMK AO2 SLP158 T01670106"},"webcam_url":"https://atmos.uw.edu/data/images/webcam2_latest.jpg","model_version":"latest"}}
{"started_at":"2026-05-06T02:17:11Z","finished_at":"2026-05-06T02:17:13Z","duration_seconds":2.000,"status":"ok","state":{"timestamp_utc":"2026-05-06T02:17:13Z","class_index":2,"class_name":"partial","is_out":true,"confidence":{"not_out":0.015882480889558792,"full":0.18908672034740448,"partial":0.7950307726860046},"weather":{"station":"KSEA","visibility_sm":10.0,"ceiling_ft":null,"raw":"KSEA 060153Z 19007KT 10SM CLR 17/11 A2998 RMK AO2 SLP158 T01670106"},"webcam_url":"https://atmos.uw.edu/data/images/webcam2_latest.jpg","model_version":"latest"}}
{"started_at":"2026-05-06T02:32:17Z","finished_at":"2026-05-06T02:32:19Z","duration_seconds":2.000,"status":"ok","state":{"timestamp_utc":"2026-05-06T02:32:19Z","class_index":2,"class_name":"partial","is_out":true,"confidence":{"not_out":0.011255552992224693,"full":0.20144017040729523,"partial":0.7873042821884155},"weather":{"station":"KSEA","visibility_sm":10.0,"ceiling_ft":null,"raw":"KSEA 060153Z 19007KT 10SM CLR 17/11 A2998 RMK AO2 SLP158 T01670106"},"webcam_url":"https://atmos.uw.edu/data/images/webcam2_latest.jpg","model_version":"latest"}}
{"started_at":"2026-05-06T02:47:23Z","finished_at":"2026-05-06T02:47:25Z","duration_seconds":2.000,"status":"ok","state":{"timestamp_utc":"2026-05-06T02:47:25Z","class_index":2,"class_name":"partial","is_out":true,"confidence":{"not_out":0.012319494038820267,"full":0.13585692644119263,"partial":0.8518235683441162},"weather":{"station":"KSEA","visibility_sm":10.0,"ceiling_ft":null,"raw":"KSEA 060153Z 19007KT 10SM CLR 17/11 A2998 RMK AO2 SLP158 T01670106"},"webcam_url":"https://atmos.uw.edu/data/images/webcam2_latest.jpg","model_version":"latest"}}
{"started_at":"2026-05-06T03:02:29Z","finished_at":"2026-05-06T03:02:31Z","duration_seconds":2.000,"status":"ok","state":{"timestamp_utc":"2026-05-06T03:02:31Z","class_index":2,"class_name":"partial","is_out":true,"confidence":{"not_out":0.013204297050833702,"full":0.1955745369195938,"partial":0.7912211418151855},"weather":{"station":"KSEA","visibility_sm":10.0,"ceiling_ft":null,"raw":"KSEA 060253Z 20005KT 10SM CLR 16/11 A2998 RMK AO2 SLP157 T01610106 56005"},"webcam_url":"https://atmos.uw.edu/data/images/webcam2_latest.jpg","model_version":"latest"}}
{"started_at":"2026-05-06T03:17:34Z","finished_at":"2026-05-06T03:17:37Z","duration_seconds":3.000,"status":"ok","state":{"timestamp_utc":"2026-05-06T03:17:37Z","class_index":2,"class_name":"partial","is_out":true,"confidence":{"not_out":0.036806751042604446,"full":0.1271952986717224,"partial":0.8359979391098022},"weather":{"station":"KSEA","visibility_sm":10.0,"ceiling_ft":null,"raw":"KSEA 060253Z 20005KT 10SM CLR 16/11 A2998 RMK AO2 SLP157 T01610106 56005"},"webcam_url":"https://atmos.uw.edu/data/images/webcam2_latest.jpg","model_version":"latest"}}
{"started_at":"2026-05-06T03:32:40Z","finished_at":"2026-05-06T03:32:45Z","duration_seconds":5.000,"status":"ok","state":{"timestamp_utc":"2026-05-06T03:32:45Z","class_index":1,"class_name":"full","is_out":true,"confidence":{"not_out":0.35292309522628784,"full":0.5388584136962891,"partial":0.10821850597858429},"weather":{"station":"KSEA","visibility_sm":10.0,"ceiling_ft":null,"raw":"KSEA 060253Z 20005KT 10SM CLR 16/11 A2998 RMK AO2 SLP157 T01610106 56005"},"webcam_url":"https://atmos.uw.edu/data/images/webcam2_latest.jpg","model_version":"latest"}}
{"started_at":"2026-05-06T03:47:49Z","finished_at":"2026-05-06T03:47:51Z","duration_seconds":2.000,"status":"ok","state":{"timestamp_utc":"2026-05-06T03:47:51Z","class_index":1,"class_name":"full","is_out":true,"confidence":{"not_out":0.2604735195636749,"full":0.3977057933807373,"partial":0.34182068705558777},"weather":{"station":"KSEA","visibility_sm":10.0,"ceiling_ft":null,"raw":"KSEA 060253Z 20005KT 10SM CLR 16/11 A2998 RMK AO2 SLP157 T01610106 56005"},"webcam_url":"https://atmos.uw.edu/data/images/webcam2_latest.jpg","model_version":"latest"}}
{"started_at":"2026-05-06T04:02:55Z","finished_at":"2026-05-06T04:02:57Z","duration_seconds":2.000,"status":"ok","state":{"timestamp_utc":"2026-05-06T04:02:57Z","class_index":2,"class_name":"partial","is_out":true,"confidence":{"not_out":0.22779332101345062,"full":0.0017653797985985875,"partial":0.7704412937164307},"weather":{"station":"KSEA","visibility_sm":10.0,"ceiling_ft":null,"raw":"KSEA 060353Z 20004KT 10SM CLR 15/11 A2999 RMK AO2 SLP163 T01500106"},"webcam_url":"https://atmos.uw.edu/data/images/webcam2_latest.jpg","model_version":"latest"}}
{"started_at":"2026-05-06T04:18:00Z","finished_at":"2026-05-06T04:18:03Z","duration_seconds":3.000,"status":"ok","state":{"timestamp_utc":"2026-05-06T04:18:03Z","class_index":0,"class_name":"not_out","is_out":false,"confidence":{"not_out":0.9997358918190002,"full":0.00011716374865500256,"partial":0.0001469702838221565},"weather":{"station":"KSEA","visibility_sm":10.0,"ceiling_ft":null,"raw":"KSEA 060353Z 20004KT 10SM CLR 15/11 A2999 RMK AO2 SLP163 T01500106"},"webcam_url":"https://atmos.uw.edu/data/images/webcam2_latest.jpg","model_version":"latest"}}
{"started_at":"2026-05-06T04:33:06Z","finished_at":"2026-05-06T04:33:08Z","duration_seconds":2.000,"status":"ok","state":{"timestamp_utc":"2026-05-06T04:33:08Z","class_index":0,"class_name":"not_out","is_out":false,"confidence":{"not_out":0.999127209186554,"full":0.00046136294258758426,"partial":0.0004114287730772048},"weather":{"station":"KSEA","visibility_sm":10.0,"ceiling_ft":null,"raw":"KSEA 060353Z 20004KT 10SM CLR 15/11 A2999 RMK AO2 SLP163 T01500106"},"webcam_url":"https://atmos.uw.edu/data/images/webcam2_latest.jpg","model_version":"latest"}}
{"started_at":"2026-05-06T04:48:12Z","finished_at":"2026-05-06T04:48:14Z","duration_seconds":2.000,"status":"ok","state":{"timestamp_utc":"2026-05-06T04:48:14Z","class_index":0,"class_name":"not_out","is_out":false,"confidence":{"not_out":0.9990808963775635,"full":0.0004370896494947374,"partial":0.00048205250641331077},"weather":{"station":"KSEA","visibility_sm":10.0,"ceiling_ft":null,"raw":"KSEA 060353Z 20004KT 10SM CLR 15/11 A2999 RMK AO2 SLP163 T01500106"},"webcam_url":"https://atmos.uw.edu/data/images/webcam2_latest.jpg","model_version":"latest"}}
{"started_at":"2026-05-06T05:03:18Z","finished_at":"2026-05-06T05:03:21Z","duration_seconds":3.000,"status":"ok","state":{"timestamp_utc":"2026-05-06T05:03:21Z","class_index":0,"class_name":"not_out","is_out":false,"confidence":{"not_out":0.9991146922111511,"full":0.00048182817408815026,"partial":0.0004035357851535082},"weather":{"station":"KSEA","visibility_sm":10.0,"ceiling_ft":null,"raw":"KSEA 060453Z 20007KT 10SM CLR 14/11 A3000 RMK AO2 SLP165 T01440106"},"webcam_url":"https://atmos.uw.edu/data/images/webcam2_latest.jpg","model_version":"latest"}}
{"started_at":"2026-05-06T05:18:25Z","finished_at":"2026-05-06T05:18:27Z","duration_seconds":2.000,"status":"ok","state":{"timestamp_utc":"2026-05-06T05:18:27Z","class_index":0,"class_name":"not_out","is_out":false,"confidence":{"not_out":0.9988652467727661,"full":0.0007036495371721685,"partial":0.000431168737122789},"weather":{"station":"KSEA","visibility_sm":10.0,"ceiling_ft":null,"raw":"KSEA 060453Z 20007KT 10SM CLR 14/11 A3000 RMK AO2 SLP165 T01440106"},"webcam_url":"https://atmos.uw.edu/data/images/webcam2_latest.jpg","model_version":"latest"}}
{"started_at":"2026-05-06T05:33:31Z","finished_at":"2026-05-06T05:33:33Z","duration_seconds":2.000,"status":"ok","state":{"timestamp_utc":"2026-05-06T05:33:33Z","class_index":0,"class_name":"not_out","is_out":false,"confidence":{"not_out":0.9992266893386841,"full":0.00040271980105899274,"partial":0.0003705232229549438},"weather":{"station":"KSEA","visibility_sm":10.0,"ceiling_ft":null,"raw":"KSEA 060453Z 20007KT 10SM CLR 14/11 A3000 RMK AO2 SLP165 T01440106"},"webcam_url":"https://atmos.uw.edu/data/images/webcam2_latest.jpg","model_version":"latest"}}
{"started_at":"2026-05-06T05:48:37Z","finished_at":"2026-05-06T05:48:39Z","duration_seconds":2.000,"status":"ok","state":{"timestamp_utc":"2026-05-06T05:48:39Z","class_index":0,"class_name":"not_out","is_out":false,"confidence":{"not_out":0.9990033507347107,"full":0.0005758752231486142,"partial":0.0004207483143545687},"weather":{"station":"KSEA","visibility_sm":10.0,"ceiling_ft":null,"raw":"KSEA 060453Z 20007KT 10SM CLR 14/11 A3000 RMK AO2 SLP165 T01440106"},"webcam_url":"https://atmos.uw.edu/data/images/webcam2_latest.jpg","model_version":"latest"}}
{"started_at":"2026-05-06T06:03:42Z","finished_at":"2026-05-06T06:03:44Z","duration_seconds":2.000,"status":"ok","state":{"timestamp_utc":"2026-05-06T06:03:44Z","class_index":0,"class_name":"not_out","is_out":false,"confidence":{"not_out":0.9988149404525757,"full":0.0006934960838407278,"partial":0.0004916850011795759},"weather":{"station":"KSEA","visibility_sm":10.0,"ceiling_ft":null,"raw":"KSEA 060553Z 20006KT 10SM CLR 13/10 A3001 RMK AO2 SLP169 T01280100 10172 20128 51011"},"webcam_url":"https://atmos.uw.edu/data/images/webcam2_latest.jpg","model_version":"latest"}}
{"started_at":"2026-05-06T06:18:48Z","finished_at":"2026-05-06T06:18:50Z","duration_seconds":2.000,"status":"ok","state":{"timestamp_utc":"2026-05-06T06:18:50Z","class_index":0,"class_name":"not_out","is_out":false,"confidence":{"not_out":0.9987497329711914,"full":0.000668420281726867,"partial":0.0005818642093800008},"weather":{"station":"KSEA","visibility_sm":10.0,"ceiling_ft":null,"raw":"KSEA 060553Z 20006KT 10SM CLR 13/10 A3001 RMK AO2 SLP169 T01280100 10172 20128 51011"},"webcam_url":"https://atmos.uw.edu/data/images/webcam2_latest.jpg","model_version":"latest"}}
{"started_at":"2026-05-06T06:33:54Z","finished_at":"2026-05-06T06:33:56Z","duration_seconds":2.000,"status":"ok","state":{"timestamp_utc":"2026-05-06T06:33:56Z","class_index":0,"class_name":"not_out","is_out":false,"confidence":{"not_out":0.9991207718849182,"full":0.0005084905424155295,"partial":0.00037072799750603735},"weather":{"station":"KSEA","visibility_sm":10.0,"ceiling_ft":null,"raw":"KSEA 060553Z 20006KT 10SM CLR 13/10 A3001 RMK AO2 SLP169 T01280100 10172 20128 51011"},"webcam_url":"https://atmos.uw.edu/data/images/webcam2_latest.jpg","model_version":"latest"}}
{"started_at":"2026-05-06T06:49:00Z","finished_at":"2026-05-06T06:49:02Z","duration_seconds":2.000,"status":"ok","state":{"timestamp_utc":"2026-05-06T06:49:02Z","class_index":0,"class_name":"not_out","is_out":false,"confidence":{"not_out":0.9991564750671387,"full":0.0005248262314125896,"partial":0.00031875091372057796},"weather":{"station":"KSEA","visibility_sm":10.0,"ceiling_ft":null,"raw":"KSEA 060553Z 20006KT 10SM CLR 13/10 A3001 RMK AO2 SLP169 T01280100 10172 20128 51011"},"webcam_url":"https://atmos.uw.edu/data/images/webcam2_latest.jpg","model_version":"latest"}}
{"started_at":"2026-05-06T07:04:06Z","finished_at":"2026-05-06T07:04:08Z","duration_seconds":2.000,"status":"ok","state":{"timestamp_utc":"2026-05-06T07:04:08Z","class_index":0,"class_name":"not_out","is_out":false,"confidence":{"not_out":0.9994472861289978,"full":0.0002552129153627902,"partial":0.000297506368951872},"weather":{"station":"KSEA","visibility_sm":10.0,"ceiling_ft":null,"raw":"KSEA 060653Z 19004KT 10SM CLR 12/09 A3003 RMK AO2 SLP175 T01220094"},"webcam_url":"https://atmos.uw.edu/data/images/webcam2_latest.jpg","model_version":"latest"}}
{"started_at":"2026-05-06T07:19:11Z","finished_at":"2026-05-06T07:19:13Z","duration_seconds":2.000,"status":"ok","state":{"timestamp_utc":"2026-05-06T07:19:13Z","class_index":0,"class_name":"not_out","is_out":false,"confidence":{"not_out":0.9995273351669312,"full":0.00021779567759949714,"partial":0.0002549180935602635},"weather":{"station":"KSEA","visibility_sm":10.0,"ceiling_ft":null,"raw":"KSEA 060653Z 19004KT 10SM CLR 12/09 A3003 RMK AO2 SLP175 T01220094"},"webcam_url":"https://atmos.uw.edu/data/images/webcam2_latest.jpg","model_version":"latest"}}
{"started_at":"2026-05-06T07:34:17Z","finished_at":"2026-05-06T07:34:20Z","duration_seconds":3.000,"status":"ok","state":{"timestamp_utc":"2026-05-06T07:34:20Z","class_index":0,"class_name":"not_out","is_out":false,"confidence":{"not_out":0.9995278120040894,"full":0.00024113705148920417,"partial":0.00023099713143892586},"weather":{"station":"KSEA","visibility_sm":10.0,"ceiling_ft":null,"raw":"KSEA 060653Z 19004KT 10SM CLR 12/09 A3003 RMK AO2 SLP175 T01220094"},"webcam_url":"https://atmos.uw.edu/data/images/webcam2_latest.jpg","model_version":"latest"}}
{"started_at":"2026-05-06T07:49:23Z","finished_at":"2026-05-06T07:49:26Z","duration_seconds":3.000,"status":"ok","state":{"timestamp_utc":"2026-05-06T07:49:26Z","class_index":0,"class_name":"not_out","is_out":false,"confidence":{"not_out":0.9995416402816772,"full":0.00023726354993414134,"partial":0.00022111409634817392},"weather":{"station":"KSEA","visibility_sm":10.0,"ceiling_ft":null,"raw":"KSEA 060653Z 19004KT 10SM CLR 12/09 A3003 RMK AO2 SLP175 T01220094"},"webcam_url":"https://atmos.uw.edu/data/images/webcam2_latest.jpg","model_version":"latest"}}
{"started_at":"2026-05-06T08:04:29Z","finished_at":"2026-05-06T08:04:31Z","duration_seconds":2.000,"status":"ok","state":{"timestamp_utc":"2026-05-06T08:04:31Z","class_index":0,"class_name":"not_out","is_out":false,"confidence":{"not_out":0.9994352459907532,"full":0.00025589566212147474,"partial":0.00030881393468007445},"weather":{"station":"KSEA","visibility_sm":10.0,"ceiling_ft":null,"raw":"KSEA 060753Z 19007KT 10SM CLR 12/09 A3004 RMK AO2 SLP179 T01170094 401720117"},"webcam_url":"https://atmos.uw.edu/data/images/webcam2_latest.jpg","model_version":"latest"}}
{"started_at":"2026-05-06T08:19:35Z","finished_at":"2026-05-06T08:19:37Z","duration_seconds":2.000,"status":"ok","state":{"timestamp_utc":"2026-05-06T08:19:37Z","class_index":0,"class_name":"not_out","is_out":false,"confidence":{"not_out":0.9993343949317932,"full":0.00034156162291765213,"partial":0.00032402711804024875},"weather":{"station":"KSEA","visibility_sm":10.0,"ceiling_ft":null,"raw":"KSEA 060753Z 19007KT 10SM CLR 12/09 A3004 RMK AO2 SLP179 T01170094 401720117"},"webcam_url":"https://atmos.uw.edu/data/images/webcam2_latest.jpg","model_version":"latest"}}
{"started_at":"2026-05-06T08:34:41Z","finished_at":"2026-05-06T08:34:43Z","duration_seconds":2.000,"status":"ok","state":{"timestamp_utc":"2026-05-06T08:34:43Z","class_index":0,"class_name":"not_out","is_out":false,"confidence":{"not_out":0.9996964931488037,"full":0.0001642316346988082,"partial":0.0001392639969708398},"weather":{"station":"KSEA","visibility_sm":10.0,"ceiling_ft":null,"raw":"KSEA 060753Z 19007KT 10SM CLR 12/09 A3004 RMK AO2 SLP179 T01170094 401720117"},"webcam_url":"https://atmos.uw.edu/data/images/webcam2_latest.jpg","model_version":"latest"}}
{"started_at":"2026-05-06T08:49:47Z","finished_at":"2026-05-06T08:49:50Z","duration_seconds":3.000,"status":"ok","state":{"timestamp_utc":"2026-05-06T08:49:50Z","class_index":0,"class_name":"not_out","is_out":false,"confidence":{"not_out":0.99959796667099,"full":0.0002225590724265203,"partial":0.00017948578170035034},"weather":{"station":"KSEA","visibility_sm":10.0,"ceiling_ft":2500.0,"raw":"KSEA 060833Z 21006KT 10SM BKN025 12/09 A3005 RMK AO2 T01170094"},"webcam_url":"https://atmos.uw.edu/data/images/webcam2_latest.jpg","model_version":"latest"}}
{"started_at":"2026-05-06T09:04:54Z","finished_at":"2026-05-06T09:04:56Z","duration_seconds":2.000,"status":"ok","state":{"timestamp_utc":"2026-05-06T09:04:56Z","class_index":0,"class_name":"not_out","is_out":false,"confidence":{"not_out":0.9996570348739624,"full":0.0001791683753253892,"partial":0.00016382064495701343},"weather":{"station":"KSEA","visibility_sm":10.0,"ceiling_ft":2400.0,"raw":"KSEA 060853Z 22007KT 10SM OVC024 12/09 A3005 RMK AO2 SLP182 T01170094 51013"},"webcam_url":"https://atmos.uw.edu/data/images/webcam2_latest.jpg","model_version":"latest"}}
{"started_at":"2026-05-06T09:20:00Z","finished_at":"2026-05-06T09:20:02Z","duration_seconds":2.000,"status":"ok","state":{"timestamp_utc":"2026-05-06T09:20:02Z","class_index":0,"class_name":"not_out","is_out":false,"confidence":{"not_out":0.9997748732566833,"full":0.00011483251728350297,"partial":0.00011019065277650952},"weather":{"station":"KSEA","visibility_sm":10.0,"ceiling_ft":2400.0,"raw":"KSEA 060853Z 22007KT 10SM OVC024 12/09 A3005 RMK AO2 SLP182 T01170094 51013"},"webcam_url":"https://atmos.uw.edu/data/images/webcam2_latest.jpg","model_version":"latest"}}
{"started_at":"2026-05-06T09:35:06Z","finished_at":"2026-05-06T09:35:08Z","duration_seconds":2.000,"status":"ok","state":{"timestamp_utc":"2026-05-06T09:35:08Z","class_index":0,"class_name":"not_out","is_out":false,"confidence":{"not_out":0.9997789263725281,"full":0.00009461987792747095,"partial":0.0001264190796064213},"weather":{"station":"KSEA","visibility_sm":10.0,"ceiling_ft":2400.0,"raw":"KSEA 060853Z 22007KT 10SM OVC024 12/09 A3005 RMK AO2 SLP182 T01170094 51013"},"webcam_url":"https://atmos.uw.edu/data/images/webcam2_latest.jpg","model_version":"latest"}}
{"started_at":"2026-05-06T09:50:12Z","finished_at":"2026-05-06T09:50:14Z","duration_seconds":2.000,"status":"ok","state":{"timestamp_utc":"2026-05-06T09:50:14Z","class_index":0,"class_name":"not_out","is_out":false,"confidence":{"not_out":0.9992695450782776,"full":0.0004233542422298342,"partial":0.00030703935772180557},"weather":{"station":"KSEA","visibility_sm":10.0,"ceiling_ft":2400.0,"raw":"KSEA 060853Z 22007KT 10SM OVC024 12/09 A3005 RMK AO2 SLP182 T01170094 51013"},"webcam_url":"https://atmos.uw.edu/data/images/webcam2_latest.jpg","model_version":"latest"}}
{"started_at":"2026-05-06T10:05:18Z","finished_at":"2026-05-06T10:05:21Z","duration_seconds":3.000,"status":"ok","state":{"timestamp_utc":"2026-05-06T10:05:21Z","class_index":0,"class_name":"not_out","is_out":false,"confidence":{"not_out":0.9996737241744995,"full":0.0001620635302970186,"partial":0.0001642042479943484},"weather":{"station":"KSEA","visibility_sm":10.0,"ceiling_ft":1200.0,"raw":"KSEA 060953Z 21007KT 10SM BKN012 OVC021 11/09 A3006 RMK AO2 SLP186 T01110094"},"webcam_url":"https://atmos.uw.edu/data/images/webcam2_latest.jpg","model_version":"latest"}}
{"started_at":"2026-05-06T10:20:25Z","finished_at":"2026-05-06T10:20:27Z","duration_seconds":2.000,"status":"ok","state":{"timestamp_utc":"2026-05-06T10:20:27Z","class_index":0,"class_name":"not_out","is_out":false,"confidence":{"not_out":0.9995166063308716,"full":0.0003249394067097455,"partial":0.00015844016161281615},"weather":{"station":"KSEA","visibility_sm":10.0,"ceiling_ft":1200.0,"raw":"KSEA 060953Z 21007KT 10SM BKN012 OVC021 11/09 A3006 RMK AO2 SLP186 T01110094"},"webcam_url":"https://atmos.uw.edu/data/images/webcam2_latest.jpg","model_version":"latest"}}
{"started_at":"2026-05-06T10:35:31Z","finished_at":"2026-05-06T10:35:33Z","duration_seconds":2.000,"status":"ok","state":{"timestamp_utc":"2026-05-06T10:35:33Z","class_index":0,"class_name":"not_out","is_out":false,"confidence":{"not_out":0.9996434450149536,"full":0.00022572901798412204,"partial":0.00013083168596494943},"weather":{"station":"KSEA","visibility_sm":10.0,"ceiling_ft":1200.0,"raw":"KSEA 060953Z 21007KT 10SM BKN012 OVC021 11/09 A3006 RMK AO2 SLP186 T01110094"},"webcam_url":"https://atmos.uw.edu/data/images/webcam2_latest.jpg","model_version":"latest"}}
{"started_at":"2026-05-06T10:50:37Z","finished_at":"2026-05-06T10:50:42Z","duration_seconds":5.000,"status":"ok","state":{"timestamp_utc":"2026-05-06T10:50:42Z","class_index":0,"class_name":"not_out","is_out":false,"confidence":{"not_out":0.9996415376663208,"full":0.00021029706113040447,"partial":0.00014812679728493094},"weather":{"station":"KSEA","visibility_sm":10.0,"ceiling_ft":1200.0,"raw":"KSEA 060953Z 21007KT 10SM BKN012 OVC021 11/09 A3006 RMK AO2 SLP186 T01110094"},"webcam_url":"https://atmos.uw.edu/data/images/webcam2_latest.jpg","model_version":"latest"}}
{"started_at":"2026-05-06T11:05:46Z","finished_at":"2026-05-06T11:05:48Z","duration_seconds":2.000,"status":"ok","state":{"timestamp_utc":"2026-05-06T11:05:48Z","class_index":0,"class_name":"not_out","is_out":false,"confidence":{"not_out":0.9993384480476379,"full":0.00031545644742436707,"partial":0.00034608528949320316},"weather":{"station":"KSEA","visibility_sm":10.0,"ceiling_ft":1200.0,"raw":"KSEA 061053Z 20006KT 10SM OVC012 11/09 A3007 RMK AO2 SLP190 T01110094"},"webcam_url":"https://atmos.uw.edu/data/images/webcam2_latest.jpg","model_version":"latest"}}
{"started_at":"2026-05-06T11:20:51Z","finished_at":"2026-05-06T11:20:53Z","duration_seconds":2.000,"status":"ok","state":{"timestamp_utc":"2026-05-06T11:20:53Z","class_index":0,"class_name":"not_out","is_out":false,"confidence":{"not_out":0.9991787075996399,"full":0.0003972330305259675,"partial":0.0004240396083332598},"weather":{"station":"KSEA","visibility_sm":10.0,"ceiling_ft":1200.0,"raw":"KSEA 061053Z 20006KT 10SM OVC012 11/09 A3007 RMK AO2 SLP190 T01110094"},"webcam_url":"https://atmos.uw.edu/data/images/webcam2_latest.jpg","model_version":"latest"}}
{"started_at":"2026-05-06T11:35:57Z","finished_at":"2026-05-06T11:35:59Z","duration_seconds":2.000,"status":"ok","state":{"timestamp_utc":"2026-05-06T11:35:59Z","class_index":0,"class_name":"not_out","is_out":false,"confidence":{"not_out":0.9991567134857178,"full":0.00045165777555666864,"partial":0.00039166194619610906},"weather":{"station":"KSEA","visibility_sm":10.0,"ceiling_ft":1200.0,"raw":"KSEA 061053Z 20006KT 10SM OVC012 11/09 A3007 RMK AO2 SLP190 T01110094"},"webcam_url":"https://atmos.uw.edu/data/images/webcam2_latest.jpg","model_version":"latest"}}
{"started_at":"2026-05-06T11:51:03Z","finished_at":"2026-05-06T11:51:05Z","duration_seconds":2.000,"status":"ok","state":{"timestamp_utc":"2026-05-06T11:51:05Z","class_index":0,"class_name":"not_out","is_out":false,"confidence":{"not_out":0.9994780421257019,"full":0.00024261583166662604,"partial":0.0002793708408717066},"weather":{"station":"KSEA","visibility_sm":10.0,"ceiling_ft":800.0,"raw":"KSEA 061146Z 18006KT 10SM BKN008 OVC019 11/09 A3008 RMK AO2 T01110094"},"webcam_url":"https://atmos.uw.edu/data/images/webcam2_latest.jpg","model_version":"latest"}}
{"started_at":"2026-05-06T12:06:09Z","finished_at":"2026-05-06T12:06:11Z","duration_seconds":2.000,"status":"ok","state":{"timestamp_utc":"2026-05-06T12:06:11Z","class_index":0,"class_name":"not_out","is_out":false,"confidence":{"not_out":0.9996970891952515,"full":0.0001469973794883117,"partial":0.00015601803897880018},"weather":{"station":"KSEA","visibility_sm":9.0,"ceiling_ft":700.0,"raw":"KSEA 061153Z 19007KT 9SM BKN007 OVC020 11/09 A3008 RMK AO2 SLP193 T01110094 10128 20111 51010"},"webcam_url":"https://atmos.uw.edu/data/images/webcam2_latest.jpg","model_version":"latest"}}
{"started_at":"2026-05-06T12:21:15Z","finished_at":"2026-05-06T12:21:17Z","duration_seconds":2.000,"status":"ok","state":{"timestamp_utc":"2026-05-06T12:21:17Z","class_index":0,"class_name":"not_out","is_out":false,"confidence":{"not_out":0.9998719692230225,"full":0.00003821514474111609,"partial":0.00008970001363195479},"weather":{"station":"KSEA","visibility_sm":9.0,"ceiling_ft":700.0,"raw":"KSEA 061153Z 19007KT 9SM BKN007 OVC020 11/09 A3008 RMK AO2 SLP193 T01110094 10128 20111 51010"},"webcam_url":"https://atmos.uw.edu/data/images/webcam2_latest.jpg","model_version":"latest"}}
{"started_at":"2026-05-06T12:36:21Z","finished_at":"2026-05-06T12:36:23Z","duration_seconds":2.000,"status":"ok","state":{"timestamp_utc":"2026-05-06T12:36:23Z","class_index":0,"class_name":"not_out","is_out":false,"confidence":{"not_out":0.9993202686309814,"full":0.00007180945976870134,"partial":0.0006079401355236769},"weather":{"station":"KSEA","visibility_sm":9.0,"ceiling_ft":700.0,"raw":"KSEA 061153Z 19007KT 9SM BKN007 OVC020 11/09 A3008 RMK AO2 SLP193 T01110094 10128 20111 51010"},"webcam_url":"https://atmos.uw.edu/data/images/webcam2_latest.jpg","model_version":"latest"}}
{"started_at":"2026-05-06T12:51:27Z","finished_at":"2026-05-06T12:51:29Z","duration_seconds":2.000,"status":"ok","state":{"timestamp_utc":"2026-05-06T12:51:29Z","class_index":0,"class_name":"not_out","is_out":false,"confidence":{"not_out":0.9984306693077087,"full":0.000033192820410477,"partial":0.001536155235953629},"weather":{"station":"KSEA","visibility_sm":9.0,"ceiling_ft":700.0,"raw":"KSEA 061153Z 19007KT 9SM BKN007 OVC020 11/09 A3008 RMK AO2 SLP193 T01110094 10128 20111 51010"},"webcam_url":"https://atmos.uw.edu/data/images/webcam2_latest.jpg","model_version":"latest"}}
{"started_at":"2026-05-06T13:06:33Z","finished_at":"2026-05-06T13:06:35Z","duration_seconds":2.000,"status":"ok","state":{"timestamp_utc":"2026-05-06T13:06:35Z","class_index":0,"class_name":"not_out","is_out":false,"confidence":{"not_out":0.9987937211990356,"full":0.00003013537934748456,"partial":0.001176135498099029},"weather":{"station":"KSEA","visibility_sm":9.0,"ceiling_ft":800.0,"raw":"KSEA 061253Z 20005KT 9SM BKN008 OVC012 11/09 A3009 RMK AO2 SLP196 T01110094"},"webcam_url":"https://atmos.uw.edu/data/images/webcam2_latest.jpg","model_version":"latest"}}
{"started_at":"2026-05-06T13:21:39Z","finished_at":"2026-05-06T13:21:41Z","duration_seconds":2.000,"status":"ok","state":{"timestamp_utc":"2026-05-06T13:21:41Z","class_index":0,"class_name":"not_out","is_out":false,"confidence":{"not_out":0.9989104270935059,"full":0.000015722956959507428,"partial":0.0010738841956481338},"weather":{"station":"KSEA","visibility_sm":9.0,"ceiling_ft":800.0,"raw":"KSEA 061253Z 20005KT 9SM BKN008 OVC012 11/09 A3009 RMK AO2 SLP196 T01110094"},"webcam_url":"https://atmos.uw.edu/data/images/webcam2_latest.jpg","model_version":"latest"}}
{"started_at":"2026-05-06T13:36:45Z","finished_at":"2026-05-06T13:36:47Z","duration_seconds":2.000,"status":"ok","state":{"timestamp_utc":"2026-05-06T13:36:47Z","class_index":0,"class_name":"not_out","is_out":false,"confidence":{"not_out":0.9981688261032104,"full":0.000013111266525811516,"partial":0.0018180162878707051},"weather":{"station":"KSEA","visibility_sm":9.0,"ceiling_ft":800.0,"raw":"KSEA 061253Z 20005KT 9SM BKN008 OVC012 11/09 A3009 RMK AO2 SLP196 T01110094"},"webcam_url":"https://atmos.uw.edu/data/images/webcam2_latest.jpg","model_version":"latest"}}
{"started_at":"2026-05-06T13:51:51Z","finished_at":"2026-05-06T13:51:53Z","duration_seconds":2.000,"status":"ok","state":{"timestamp_utc":"2026-05-06T13:51:53Z","class_index":0,"class_name":"not_out","is_out":false,"confidence":{"not_out":0.9991335272789001,"full":0.000024376267901971005,"partial":0.0008420799858868122},"weather":{"station":"KSEA","visibility_sm":9.0,"ceiling_ft":800.0,"raw":"KSEA 061253Z 20005KT 9SM BKN008 OVC012 11/09 A3009 RMK AO2 SLP196 T01110094"},"webcam_url":"https://atmos.uw.edu/data/images/webcam2_latest.jpg","model_version":"latest"}}
{"started_at":"2026-05-06T14:06:57Z","finished_at":"2026-05-06T14:06:59Z","duration_seconds":2.000,"status":"ok","state":{"timestamp_utc":"2026-05-06T14:06:59Z","class_index":0,"class_name":"not_out","is_out":false,"confidence":{"not_out":0.9999285936355591,"full":0.000019517015971359797,"partial":0.00005182002860237844},"weather":{"station":"KSEA","visibility_sm":7.0,"ceiling_ft":700.0,"raw":"KSEA 061353Z 22006KT 7SM BKN007 OVC017 11/09 A3011 RMK AO2 SLP203 T01110094 $"},"webcam_url":"https://atmos.uw.edu/data/images/webcam2_latest.jpg","model_version":"latest"}}
{"started_at":"2026-05-06T14:22:03Z","finished_at":"2026-05-06T14:22:05Z","duration_seconds":2.000,"status":"ok","state":{"timestamp_utc":"2026-05-06T14:22:05Z","class_index":0,"class_name":"not_out","is_out":false,"confidence":{"not_out":0.9998010993003845,"full":0.00008898708620108664,"partial":0.00010984761320287362},"weather":{"station":"KSEA","visibility_sm":7.0,"ceiling_ft":700.0,"raw":"KSEA 061353Z 22006KT 7SM BKN007 OVC017 11/09 A3011 RMK AO2 SLP203 T01110094 $"},"webcam_url":"https://atmos.uw.edu/data/images/webcam2_latest.jpg","model_version":"latest"}}
{"started_at":"2026-05-06T14:37:09Z","finished_at":"2026-05-06T14:37:11Z","duration_seconds":2.000,"status":"ok","state":{"timestamp_utc":"2026-05-06T14:37:11Z","class_index":0,"class_name":"not_out","is_out":false,"confidence":{"not_out":0.9996080994606018,"full":0.0000059092085393785965,"partial":0.00038592531927861273},"weather":{"station":"KSEA","visibility_sm":7.0,"ceiling_ft":700.0,"raw":"KSEA 061353Z 22006KT 7SM BKN007 OVC017 11/09 A3011 RMK AO2 SLP203 T01110094 $"},"webcam_url":"https://atmos.uw.edu/data/images/webcam2_latest.jpg","model_version":"latest"}}
{"started_at":"2026-05-06T14:52:15Z","finished_at":"2026-05-06T14:52:17Z","duration_seconds":2.000,"status":"ok","state":{"timestamp_utc":"2026-05-06T14:52:17Z","class_index":0,"class_name":"not_out","is_out":false,"confidence":{"not_out":0.9997958540916443,"full":0.000004492047537496546,"partial":0.00019961094949394464},"weather":{"station":"KSEA","visibility_sm":7.0,"ceiling_ft":700.0,"raw":"KSEA 061353Z 22006KT 7SM BKN007 OVC017 11/09 A3011 RMK AO2 SLP203 T01110094 $"},"webcam_url":"https://atmos.uw.edu/data/images/webcam2_latest.jpg","model_version":"latest"}}
{"started_at":"2026-05-06T15:07:21Z","finished_at":"2026-05-06T15:07:23Z","duration_seconds":2.000,"status":"ok","state":{"timestamp_utc":"2026-05-06T15:07:23Z","class_index":0,"class_name":"not_out","is_out":false,"confidence":{"not_out":0.999835729598999,"full":0.000004150048880546819,"partial":0.00016003083146642894},"weather":{"station":"KSEA","visibility_sm":3.0,"ceiling_ft":500.0,"raw":"KSEA 061453Z 22006KT 3SM BR BKN005 OVC011 11/10 A3012 RMK AO2 SFC VIS 4 SLP205 CIG 004V006 T01060100 51012 $"},"webcam_url":"https://atmos.uw.edu/data/images/webcam2_latest.jpg","model_version":"latest"}}
{"started_at":"2026-05-06T15:22:27Z","finished_at":"2026-05-06T15:22:29Z","duration_seconds":2.000,"status":"ok","state":{"timestamp_utc":"2026-05-06T15:22:29Z","class_index":0,"class_name":"not_out","is_out":false,"confidence":{"not_out":0.998017430305481,"full":0.0000038938846955716144,"partial":0.001978658838197589},"weather":{"station":"KSEA","visibility_sm":3.0,"ceiling_ft":500.0,"raw":"KSEA 061453Z 22006KT 3SM BR BKN005 OVC011 11/10 A3012 RMK AO2 SFC VIS 4 SLP205 CIG 004V006 T01060100 51012 $"},"webcam_url":"https://atmos.uw.edu/data/images/webcam2_latest.jpg","model_version":"latest"}}
{"started_at":"2026-05-06T15:37:33Z","finished_at":"2026-05-06T15:37:35Z","duration_seconds":2.000,"status":"ok","state":{"timestamp_utc":"2026-05-06T15:37:35Z","class_index":0,"class_name":"not_out","is_out":false,"confidence":{"not_out":0.9997239708900452,"full":0.000006324459263851168,"partial":0.0002697113377507776},"weather":{"station":"KSEA","visibility_sm":3.0,"ceiling_ft":500.0,"raw":"KSEA 061453Z 22006KT 3SM BR BKN005 OVC011 11/10 A3012 RMK AO2 SFC VIS 4 SLP205 CIG 004V006 T01060100 51012 $"},"webcam_url":"https://atmos.uw.edu/data/images/webcam2_latest.jpg","model_version":"latest"}}
{"started_at":"2026-05-06T15:52:38Z","finished_at":"2026-05-06T15:52:41Z","duration_seconds":3.000,"status":"ok","state":{"timestamp_utc":"2026-05-06T15:52:41Z","class_index":0,"class_name":"not_out","is_out":false,"confidence":{"not_out":0.9996514320373535,"full":0.0000051993820306961425,"partial":0.00034337874967604876},"weather":{"station":"KSEA","visibility_sm":3.0,"ceiling_ft":500.0,"raw":"KSEA 061453Z 22006KT 3SM BR BKN005 OVC011 11/10 A3012 RMK AO2 SFC VIS 4 SLP205 CIG 004V006 T01060100 51012 $"},"webcam_url":"https://atmos.uw.edu/data/images/webcam2_latest.jpg","model_version":"latest"}}
{"started_at":"2026-05-06T16:07:44Z","finished_at":"2026-05-06T16:07:46Z","duration_seconds":2.000,"status":"ok","state":{"timestamp_utc":"2026-05-06T16:07:46Z","class_index":0,"class_name":"not_out","is_out":false,"confidence":{"not_out":0.9997565150260925,"full":0.0000015836668580959667,"partial":0.0002418984950054437},"weather":{"station":"KSEA","visibility_sm":3.0,"ceiling_ft":500.0,"raw":"KSEA 061553Z 20007KT 3SM BR BKN005 OVC011 11/10 A3012 RMK AO2 SFC VIS 5 SLP205 T01110100 $"},"webcam_url":"https://atmos.uw.edu/data/images/webcam2_latest.jpg","model_version":"latest"}}
{"started_at":"2026-05-06T16:22:50Z","finished_at":"2026-05-06T16:22:52Z","duration_seconds":2.000,"status":"ok","state":{"timestamp_utc":"2026-05-06T16:22:52Z","class_index":0,"class_name":"not_out","is_out":false,"confidence":{"not_out":0.9978406429290771,"full":0.000003922712039639009,"partial":0.0021553735714405775},"weather":{"station":"KSEA","visibility_sm":3.0,"ceiling_ft":500.0,"raw":"KSEA 061553Z 20007KT 3SM BR BKN005 OVC011 11/10 A3012 RMK AO2 SFC VIS 5 SLP205 T01110100 $"},"webcam_url":"https://atmos.uw.edu/data/images/webcam2_latest.jpg","model_version":"latest"}}
{"started_at":"2026-05-06T16:37:56Z","finished_at":"2026-05-06T16:37:58Z","duration_seconds":2.000,"status":"ok","state":{"timestamp_utc":"2026-05-06T16:37:58Z","class_index":0,"class_name":"not_out","is_out":false,"confidence":{"not_out":0.9998075366020203,"full":0.000005103179319121409,"partial":0.0001873541623353958},"weather":{"station":"KSEA","visibility_sm":3.0,"ceiling_ft":500.0,"raw":"KSEA 061553Z 20007KT 3SM BR BKN005 OVC011 11/10 A3012 RMK AO2 SFC VIS 5 SLP205 T01110100 $"},"webcam_url":"https://atmos.uw.edu/data/images/webcam2_latest.jpg","model_version":"latest"}}
{"started_at":"2026-05-06T16:53:02Z","finished_at":"2026-05-06T16:53:04Z","duration_seconds":2.000,"status":"ok","state":{"timestamp_utc":"2026-05-06T16:53:04Z","class_index":0,"class_name":"not_out","is_out":false,"confidence":{"not_out":0.9980756044387817,"full":0.000026935513233183883,"partial":0.0018974504200741649},"weather":{"station":"KSEA","visibility_sm":3.0,"ceiling_ft":500.0,"raw":"KSEA 061553Z 20007KT 3SM BR BKN005 OVC011 11/10 A3012 RMK AO2 SFC VIS 5 SLP205 T01110100 $"},"webcam_url":"https://atmos.uw.edu/data/images/webcam2_latest.jpg","model_version":"latest"}}
{"started_at":"2026-05-06T17:08:08Z","finished_at":"2026-05-06T17:08:10Z","duration_seconds":2.000,"status":"ok","state":{"timestamp_utc":"2026-05-06T17:08:10Z","class_index":0,"class_name":"not_out","is_out":false,"confidence":{"not_out":0.9996042847633362,"full":0.000007050873591651907,"partial":0.00038869984564371407},"weather":{"station":"KSEA","visibility_sm":7.0,"ceiling_ft":1500.0,"raw":"KSEA 061659Z 21007KT 7SM SCT007 OVC015 12/10 A3013 RMK AO2 T01170100 $"},"webcam_url":"https://atmos.uw.edu/data/images/webcam2_latest.jpg","model_version":"latest"}}
{"started_at":"2026-05-06T17:23:14Z","finished_at":"2026-05-06T17:23:17Z","duration_seconds":3.000,"status":"ok","state":{"timestamp_utc":"2026-05-06T17:23:16Z","class_index":0,"class_name":"not_out","is_out":false,"confidence":{"not_out":0.9997453093528748,"full":0.000005086114470032044,"partial":0.00024954439140856266},"weather":{"station":"KSEA","visibility_sm":7.0,"ceiling_ft":1500.0,"raw":"KSEA 061659Z 21007KT 7SM SCT007 OVC015 12/10 A3013 RMK AO2 T01170100 $"},"webcam_url":"https://atmos.uw.edu/data/images/webcam2_latest.jpg","model_version":"latest"}}
{"started_at":"2026-05-06T17:38:20Z","finished_at":"2026-05-06T17:38:23Z","duration_seconds":3.000,"status":"ok","state":{"timestamp_utc":"2026-05-06T17:38:23Z","class_index":0,"class_name":"not_out","is_out":false,"confidence":{"not_out":0.9998059868812561,"full":0.000004022809207526734,"partial":0.00019001844339072704},"weather":{"station":"KSEA","visibility_sm":8.0,"ceiling_ft":1000.0,"raw":"KSEA 061730Z 21007KT 8SM BKN010 OVC015 12/09 A3013 RMK AO2 T01170094 $"},"webcam_url":"https://atmos.uw.edu/data/images/webcam2_latest.jpg","model_version":"latest"}}
{"started_at":"2026-05-06T17:53:26Z","finished_at":"2026-05-06T17:53:29Z","duration_seconds":3.000,"status":"ok","state":{"timestamp_utc":"2026-05-06T17:53:29Z","class_index":0,"class_name":"not_out","is_out":false,"confidence":{"not_out":0.998123824596405,"full":0.000009909508662531152,"partial":0.001866332022473216},"weather":{"station":"KSEA","visibility_sm":8.0,"ceiling_ft":1000.0,"raw":"KSEA 061730Z 21007KT 8SM BKN010 OVC015 12/09 A3013 RMK AO2 T01170094 $"},"webcam_url":"https://atmos.uw.edu/data/images/webcam2_latest.jpg","model_version":"latest"}}
{"started_at":"2026-05-06T18:08:32Z","finished_at":"2026-05-06T18:08:35Z","duration_seconds":3.000,"status":"ok","state":{"timestamp_utc":"2026-05-06T18:08:35Z","class_index":0,"class_name":"not_out","is_out":false,"confidence":{"not_out":0.9980039000511169,"full":0.00001042567328113364,"partial":0.0019856723956763744},"weather":{"station":"KSEA","visibility_sm":10.0,"ceiling_ft":1000.0,"raw":"KSEA 061753Z 20007KT 10SM BKN010 OVC015 12/09 A3013 RMK AO2 SLP210 CIG 008V012 T01170094 10117 20106 52004 $"},"webcam_url":"https://atmos.uw.edu/data/images/webcam2_latest.jpg","model_version":"latest"}}
{"started_at":"2026-05-06T18:23:38Z","finished_at":"2026-05-06T18:23:41Z","duration_seconds":3.000,"status":"ok","state":{"timestamp_utc":"2026-05-06T18:23:41Z","class_index":0,"class_name":"not_out","is_out":false,"confidence":{"not_out":0.9994058609008789,"full":0.000002318326551176142,"partial":0.0005918254610151052},"weather":{"station":"KSEA","visibility_sm":10.0,"ceiling_ft":1000.0,"raw":"KSEA 061753Z 20007KT 10SM BKN010 OVC015 12/09 A3013 RMK AO2 SLP210 CIG 008V012 T01170094 10117 20106 52004 $"},"webcam_url":"https://atmos.uw.edu/data/images/webcam2_latest.jpg","model_version":"latest"}}
{"started_at":"2026-05-06T18:38:45Z","finished_at":"2026-05-06T18:38:47Z","duration_seconds":2.000,"status":"ok","state":{"timestamp_utc":"2026-05-06T18:38:47Z","class_index":0,"class_name":"not_out","is_out":false,"confidence":{"not_out":0.999173104763031,"full":0.000002277385419802158,"partial":0.0008245819481089711},"weather":{"station":"KSEA","visibility_sm":10.0,"ceiling_ft":1000.0,"raw":"KSEA 061753Z 20007KT 10SM BKN010 OVC015 12/09 A3013 RMK AO2 SLP210 CIG 008V012 T01170094 10117 20106 52004 $"},"webcam_url":"https://atmos.uw.edu/data/images/webcam2_latest.jpg","model_version":"latest"}}
{"started_at":"2026-05-06T18:53:50Z","finished_at":"2026-05-06T18:53:52Z","duration_seconds":3.000,"status":"ok","state":{"timestamp_utc":"2026-05-06T18:53:52Z","class_index":0,"class_name":"not_out","is_out":false,"confidence":{"not_out":0.9969809651374817,"full":0.00003053597538382746,"partial":0.0029884136747568846},"weather":{"station":"KSEA","visibility_sm":10.0,"ceiling_ft":1000.0,"raw":"KSEA 061753Z 20007KT 10SM BKN010 OVC015 12/09 A3013 RMK AO2 SLP210 CIG 008V012 T01170094 10117 20106 52004 $"},"webcam_url":"https://atmos.uw.edu/data/images/webcam2_latest.jpg","model_version":"latest"}}
{"started_at":"2026-05-06T19:08:56Z","finished_at":"2026-05-06T19:08:58Z","duration_seconds":2.000,"status":"ok","state":{"timestamp_utc":"2026-05-06T19:08:58Z","class_index":0,"class_name":"not_out","is_out":false,"confidence":{"not_out":0.9869458079338074,"full":0.00003104531788267195,"partial":0.013023119419813156},"weather":{"station":"KSEA","visibility_sm":10.0,"ceiling_ft":1100.0,"raw":"KSEA 061853Z 20006KT 10SM BKN011 OVC016 12/09 A3014 RMK AO2 SLP211 T01220089 $"},"webcam_url":"https://atmos.uw.edu/data/images/webcam2_latest.jpg","model_version":"latest"}}
{"started_at":"2026-05-06T19:24:02Z","finished_at":"2026-05-06T19:24:04Z","duration_seconds":2.000,"status":"ok","state":{"timestamp_utc":"2026-05-06T19:24:04Z","class_index":0,"class_name":"not_out","is_out":false,"confidence":{"not_out":0.9917980432510376,"full":0.00003638234920799732,"partial":0.00816552247852087},"weather":{"station":"KSEA","visibility_sm":10.0,"ceiling_ft":1600.0,"raw":"KSEA 061918Z 20007KT 10SM SCT012 OVC016 12/08 A3014 RMK AO2 T01220083 $"},"webcam_url":"https://atmos.uw.edu/data/images/webcam2_latest.jpg","model_version":"latest"}}
{"started_at":"2026-05-06T19:39:08Z","finished_at":"2026-05-06T19:39:10Z","duration_seconds":2.000,"status":"ok","state":{"timestamp_utc":"2026-05-06T19:39:10Z","class_index":0,"class_name":"not_out","is_out":false,"confidence":{"not_out":0.9960149526596069,"full":0.000035408556868787855,"partial":0.003949654288589954},"weather":{"station":"KSEA","visibility_sm":10.0,"ceiling_ft":1600.0,"raw":"KSEA 061918Z 20007KT 10SM SCT012 OVC016 12/08 A3014 RMK AO2 T01220083 $"},"webcam_url":"https://atmos.uw.edu/data/images/webcam2_latest.jpg","model_version":"latest"}}
{"started_at":"2026-05-06T19:54:14Z","finished_at":"2026-05-06T19:54:16Z","duration_seconds":2.000,"status":"ok","state":{"timestamp_utc":"2026-05-06T19:54:16Z","class_index":0,"class_name":"not_out","is_out":false,"confidence":{"not_out":0.9877161383628845,"full":0.000013219237189332489,"partial":0.012270680628716946},"weather":{"station":"KSEA","visibility_sm":10.0,"ceiling_ft":1600.0,"raw":"KSEA 061918Z 20007KT 10SM SCT012 OVC016 12/08 A3014 RMK AO2 T01220083 $"},"webcam_url":"https://atmos.uw.edu/data/images/webcam2_latest.jpg","model_version":"latest"}}
{"started_at":"2026-05-06T20:09:20Z","finished_at":"2026-05-06T20:09:22Z","duration_seconds":2.000,"status":"ok","state":{"timestamp_utc":"2026-05-06T20:09:22Z","class_index":0,"class_name":"not_out","is_out":false,"confidence":{"not_out":0.9980123043060303,"full":0.000013759957255388144,"partial":0.0019738576374948025},"weather":{"station":"KSEA","visibility_sm":10.0,"ceiling_ft":1900.0,"raw":"KSEA 061953Z 23006KT 10SM FEW013 OVC019 13/08 A3014 RMK AO2 SLP214 T01280083 $"},"webcam_url":"https://atmos.uw.edu/data/images/webcam2_latest.jpg","model_version":"latest"}}
{"started_at":"2026-05-06T20:24:26Z","finished_at":"2026-05-06T20:24:28Z","duration_seconds":2.000,"status":"ok","state":{"timestamp_utc":"2026-05-06T20:24:28Z","class_index":0,"class_name":"not_out","is_out":false,"confidence":{"not_out":0.9973469972610474,"full":0.00003592493521864526,"partial":0.002617091406136751},"weather":{"station":"KSEA","visibility_sm":10.0,"ceiling_ft":1900.0,"raw":"KSEA 061953Z 23006KT 10SM FEW013 OVC019 13/08 A3014 RMK AO2 SLP214 T01280083 $"},"webcam_url":"https://atmos.uw.edu/data/images/webcam2_latest.jpg","model_version":"latest"}}
{"started_at":"2026-05-06T20:39:32Z","finished_at":"2026-05-06T20:39:34Z","duration_seconds":2.000,"status":"ok","state":{"timestamp_utc":"2026-05-06T20:39:34Z","class_index":0,"class_name":"not_out","is_out":false,"confidence":{"not_out":0.9931522607803345,"full":0.00003787128662224859,"partial":0.006809879094362259},"weather":{"station":"KSEA","visibility_sm":10.0,"ceiling_ft":1900.0,"raw":"KSEA 061953Z 23006KT 10SM FEW013 OVC019 13/08 A3014 RMK AO2 SLP214 T01280083 $"},"webcam_url":"https://atmos.uw.edu/data/images/webcam2_latest.jpg","model_version":"latest"}}
{"started_at":"2026-05-06T20:54:39Z","finished_at":"2026-05-06T20:54:42Z","duration_seconds":3.000,"status":"ok","state":{"timestamp_utc":"2026-05-06T20:54:42Z","class_index":0,"class_name":"not_out","is_out":false,"confidence":{"not_out":0.9929338693618774,"full":0.00002907553243858274,"partial":0.007037085015326738},"weather":{"station":"KSEA","visibility_sm":10.0,"ceiling_ft":1900.0,"raw":"KSEA 061953Z 23006KT 10SM FEW013 OVC019 13/08 A3014 RMK AO2 SLP214 T01280083 $"},"webcam_url":"https://atmos.uw.edu/data/images/webcam2_latest.jpg","model_version":"latest"}}
{"started_at":"2026-05-06T21:09:46Z","finished_at":"2026-05-06T21:09:48Z","duration_seconds":2.000,"status":"ok","state":{"timestamp_utc":"2026-05-06T21:09:48Z","class_index":0,"class_name":"not_out","is_out":false,"confidence":{"not_out":0.9958605170249939,"full":0.00001776843419065699,"partial":0.004121686797589064},"weather":{"station":"KSEA","visibility_sm":10.0,"ceiling_ft":2000.0,"raw":"KSEA 062053Z 24006KT 10SM OVC020 13/08 A3015 RMK AO2 SLP216 T01330083 53006 $"},"webcam_url":"https://atmos.uw.edu/data/images/webcam2_latest.jpg","model_version":"latest"}}
{"started_at":"2026-05-06T21:24:51Z","finished_at":"2026-05-06T21:24:53Z","duration_seconds":2.000,"status":"ok","state":{"timestamp_utc":"2026-05-06T21:24:53Z","class_index":0,"class_name":"not_out","is_out":false,"confidence":{"not_out":0.9872931241989136,"full":0.000029821529096807353,"partial":0.012677057646214962},"weather":{"station":"KSEA","visibility_sm":10.0,"ceiling_ft":2000.0,"raw":"KSEA 062053Z 24006KT 10SM OVC020 13/08 A3015 RMK AO2 SLP216 T01330083 53006 $"},"webcam_url":"https://atmos.uw.edu/data/images/webcam2_latest.jpg","model_version":"latest"}}
{"started_at":"2026-05-06T21:39:57Z","finished_at":"2026-05-06T21:39:59Z","duration_seconds":2.000,"status":"ok","state":{"timestamp_utc":"2026-05-06T21:39:59Z","class_index":0,"class_name":"not_out","is_out":false,"confidence":{"not_out":0.9964185953140259,"full":0.000013286213288665749,"partial":0.003568119602277875},"weather":{"station":"KSEA","visibility_sm":10.0,"ceiling_ft":2000.0,"raw":"KSEA 062053Z 24006KT 10SM OVC020 13/08 A3015 RMK AO2 SLP216 T01330083 53006 $"},"webcam_url":"https://atmos.uw.edu/data/images/webcam2_latest.jpg","model_version":"latest"}}
{"started_at":"2026-05-06T21:55:03Z","finished_at":"2026-05-06T21:55:05Z","duration_seconds":2.000,"status":"ok","state":{"timestamp_utc":"2026-05-06T21:55:05Z","class_index":0,"class_name":"not_out","is_out":false,"confidence":{"not_out":0.996720016002655,"full":0.000013924085578764789,"partial":0.003266135463491082},"weather":{"station":"KSEA","visibility_sm":10.0,"ceiling_ft":2000.0,"raw":"KSEA 062053Z 24006KT 10SM OVC020 13/08 A3015 RMK AO2 SLP216 T01330083 53006 $"},"webcam_url":"https://atmos.uw.edu/data/images/webcam2_latest.jpg","model_version":"latest"}}
{"started_at":"2026-05-06T22:10:09Z","finished_at":"2026-05-06T22:10:11Z","duration_seconds":2.000,"status":"ok","state":{"timestamp_utc":"2026-05-06T22:10:11Z","class_index":0,"class_name":"not_out","is_out":false,"confidence":{"not_out":0.9835688471794128,"full":0.000015452937077498063,"partial":0.01641567051410675},"weather":{"station":"KSEA","visibility_sm":10.0,"ceiling_ft":2500.0,"raw":"KSEA 062153Z 20008KT 10SM FEW020 OVC025 13/08 A3015 RMK AO2 SLP216 T01330083 $"},"webcam_url":"https://atmos.uw.edu/data/images/webcam2_latest.jpg","model_version":"latest"}}
{"started_at":"2026-05-06T22:25:14Z","finished_at":"2026-05-06T22:25:17Z","duration_seconds":3.000,"status":"ok","state":{"timestamp_utc":"2026-05-06T22:25:17Z","class_index":0,"class_name":"not_out","is_out":false,"confidence":{"not_out":0.9948622584342957,"full":0.00000431946909884573,"partial":0.005133445840328932},"weather":{"station":"KSEA","visibility_sm":10.0,"ceiling_ft":2500.0,"raw":"KSEA 062153Z 20008KT 10SM FEW020 OVC025 13/08 A3015 RMK AO2 SLP216 T01330083 $"},"webcam_url":"https://atmos.uw.edu/data/images/webcam2_latest.jpg","model_version":"latest"}}
{"started_at":"2026-05-06T22:40:20Z","finished_at":"2026-05-06T22:40:24Z","duration_seconds":4.000,"status":"ok","state":{"timestamp_utc":"2026-05-06T22:40:23Z","class_index":0,"class_name":"not_out","is_out":false,"confidence":{"not_out":0.9920157194137573,"full":0.000009075685738935135,"partial":0.007975190877914429},"weather":{"station":"KSEA","visibility_sm":10.0,"ceiling_ft":2500.0,"raw":"KSEA 062153Z 20008KT 10SM FEW020 OVC025 13/08 A3015 RMK AO2 SLP216 T01330083 $"},"webcam_url":"https://atmos.uw.edu/data/images/webcam2_latest.jpg","model_version":"latest"}}
{"started_at":"2026-05-06T22:55:28Z","finished_at":"2026-05-06T22:55:30Z","duration_seconds":2.000,"status":"ok","state":{"timestamp_utc":"2026-05-06T22:55:30Z","class_index":0,"class_name":"not_out","is_out":false,"confidence":{"not_out":0.9927975535392761,"full":0.000005622172466246411,"partial":0.007196744438260794},"weather":{"station":"KSEA","visibility_sm":10.0,"ceiling_ft":2500.0,"raw":"KSEA 062153Z 20008KT 10SM FEW020 OVC025 13/08 A3015 RMK AO2 SLP216 T01330083 $"},"webcam_url":"https://atmos.uw.edu/data/images/webcam2_latest.jpg","model_version":"latest"}}
{"started_at":"2026-05-06T23:10:34Z","finished_at":"2026-05-06T23:10:36Z","duration_seconds":2.000,"status":"ok","state":{"timestamp_utc":"2026-05-06T23:10:36Z","class_index":0,"class_name":"not_out","is_out":false,"confidence":{"not_out":0.9891248941421509,"full":0.000017979111362365074,"partial":0.01085713505744934},"weather":{"station":"KSEA","visibility_sm":10.0,"ceiling_ft":2700.0,"raw":"KSEA 062253Z 22009KT 10SM BKN027 OVC031 14/08 A3014 RMK AO2 SLP213 T01390083 $"},"webcam_url":"https://atmos.uw.edu/data/images/webcam2_latest.jpg","model_version":"latest"}}
{"started_at":"2026-05-06T23:25:40Z","finished_at":"2026-05-06T23:25:42Z","duration_seconds":2.000,"status":"ok","state":{"timestamp_utc":"2026-05-06T23:25:42Z","class_index":0,"class_name":"not_out","is_out":false,"confidence":{"not_out":0.9938509464263916,"full":0.000013155044143786654,"partial":0.006135841365903616},"weather":{"station":"KSEA","visibility_sm":10.0,"ceiling_ft":2700.0,"raw":"KSEA 062253Z 22009KT 10SM BKN027 OVC031 14/08 A3014 RMK AO2 SLP213 T01390083 $"},"webcam_url":"https://atmos.uw.edu/data/images/webcam2_latest.jpg","model_version":"latest"}}
{"started_at":"2026-05-06T23:40:46Z","finished_at":"2026-05-06T23:40:48Z","duration_seconds":2.000,"status":"ok","state":{"timestamp_utc":"2026-05-06T23:40:48Z","class_index":0,"class_name":"not_out","is_out":false,"confidence":{"not_out":0.9949994087219238,"full":0.00001683994196355343,"partial":0.004983726888895035},"weather":{"station":"KSEA","visibility_sm":10.0,"ceiling_ft":2700.0,"raw":"KSEA 062253Z 22009KT 10SM BKN027 OVC031 14/08 A3014 RMK AO2 SLP213 T01390083 $"},"webcam_url":"https://atmos.uw.edu/data/images/webcam2_latest.jpg","model_version":"latest"}}
{"started_at":"2026-05-06T23:55:52Z","finished_at":"2026-05-06T23:55:54Z","duration_seconds":2.000,"status":"ok","state":{"timestamp_utc":"2026-05-06T23:55:54Z","class_index":0,"class_name":"not_out","is_out":false,"confidence":{"not_out":0.9943801760673523,"full":0.00003857091724057682,"partial":0.005581313744187355},"weather":{"station":"KSEA","visibility_sm":10.0,"ceiling_ft":2800.0,"raw":"KSEA 062353Z 23010KT 10SM OVC028 13/08 A3014 RMK AO2 SLP213 T01330083 10139 20117 58003 $"},"webcam_url":"https://atmos.uw.edu/data/images/webcam2_latest.jpg","model_version":"latest"}}
{"started_at":"2026-05-07T00:10:58Z","finished_at":"2026-05-07T00:11:00Z","duration_seconds":2.000,"status":"ok","state":{"timestamp_utc":"2026-05-07T00:11:00Z","class_index":0,"class_name":"not_out","is_out":false,"confidence":{"not_out":0.9942805767059326,"full":0.000010811844731506426,"partial":0.005708673503249884},"weather":{"station":"KSEA","visibility_sm":10.0,"ceiling_ft":2800.0,"raw":"KSEA 062353Z 23010KT 10SM OVC028 13/08 A3014 RMK AO2 SLP213 T01330083 10139 20117 58003 $"},"webcam_url":"https://atmos.uw.edu/data/images/webcam2_latest.jpg","model_version":"latest"}}
{"started_at":"2026-05-07T00:26:03Z","finished_at":"2026-05-07T00:26:05Z","duration_seconds":2.000,"status":"ok","state":{"timestamp_utc":"2026-05-07T00:26:05Z","class_index":0,"class_name":"not_out","is_out":false,"confidence":{"not_out":0.9914284348487854,"full":0.00006624472007388249,"partial":0.008505240082740784},"weather":{"station":"KSEA","visibility_sm":10.0,"ceiling_ft":2800.0,"raw":"KSEA 062353Z 23010KT 10SM OVC028 13/08 A3014 RMK AO2 SLP213 T01330083 10139 20117 58003 $"},"webcam_url":"https://atmos.uw.edu/data/images/webcam2_latest.jpg","model_version":"latest"}}
{"started_at":"2026-05-07T00:41:09Z","finished_at":"2026-05-07T00:41:11Z","duration_seconds":2.000,"status":"ok","state":{"timestamp_utc":"2026-05-07T00:41:11Z","class_index":0,"class_name":"not_out","is_out":false,"confidence":{"not_out":0.996893048286438,"full":0.000031043287890497595,"partial":0.0030759177170693874},"weather":{"station":"KSEA","visibility_sm":10.0,"ceiling_ft":2800.0,"raw":"KSEA 062353Z 23010KT 10SM OVC028 13/08 A3014 RMK AO2 SLP213 T01330083 10139 20117 58003 $"},"webcam_url":"https://atmos.uw.edu/data/images/webcam2_latest.jpg","model_version":"latest"}}
{"started_at":"2026-05-07T00:56:15Z","finished_at":"2026-05-07T00:56:17Z","duration_seconds":2.000,"status":"ok","state":{"timestamp_utc":"2026-05-07T00:56:17Z","class_index":0,"class_name":"not_out","is_out":false,"confidence":{"not_out":0.9991884827613831,"full":0.000007641891897947062,"partial":0.0008039220119826496},"weather":{"station":"KSEA","visibility_sm":10.0,"ceiling_ft":2900.0,"raw":"KSEA 070053Z 23007KT 10SM OVC029 13/09 A3014 RMK AO2 SLP212 T01330089 $"},"webcam_url":"https://atmos.uw.edu/data/images/webcam2_latest.jpg","model_version":"latest"}}
{"started_at":"2026-05-07T01:11:21Z","finished_at":"2026-05-07T01:11:23Z","duration_seconds":2.000,"status":"ok","state":{"timestamp_utc":"2026-05-07T01:11:23Z","class_index":0,"class_name":"not_out","is_out":false,"confidence":{"not_out":0.999735414981842,"full":0.000001325918901784462,"partial":0.0002633128024172038},"weather":{"station":"KSEA","visibility_sm":10.0,"ceiling_ft":2900.0,"raw":"KSEA 070053Z 23007KT 10SM OVC029 13/09 A3014 RMK AO2 SLP212 T01330089 $"},"webcam_url":"https://atmos.uw.edu/data/images/webcam2_latest.jpg","model_version":"latest"}}
{"started_at":"2026-05-07T01:26:27Z","finished_at":"2026-05-07T01:26:29Z","duration_seconds":2.000,"status":"ok","state":{"timestamp_utc":"2026-05-07T01:26:29Z","class_index":0,"class_name":"not_out","is_out":false,"confidence":{"not_out":0.9982328414916992,"full":0.000011949303370784037,"partial":0.001755282748490572},"weather":{"station":"KSEA","visibility_sm":10.0,"ceiling_ft":2900.0,"raw":"KSEA 070053Z 23007KT 10SM OVC029 13/09 A3014 RMK AO2 SLP212 T01330089 $"},"webcam_url":"https://atmos.uw.edu/data/images/webcam2_latest.jpg","model_version":"latest"}}
{"started_at":"2026-05-07T01:41:33Z","finished_at":"2026-05-07T01:41:34Z","duration_seconds":1.000,"status":"ok","state":{"timestamp_utc":"2026-05-07T01:41:34Z","class_index":0,"class_name":"not_out","is_out":false,"confidence":{"not_out":0.9913340210914612,"full":0.00027379492530599236,"partial":0.00839216634631157},"weather":{"station":"KSEA","visibility_sm":10.0,"ceiling_ft":2900.0,"raw":"KSEA 070053Z 23007KT 10SM OVC029 13/09 A3014 RMK AO2 SLP212 T01330089 $"},"webcam_url":"https://atmos.uw.edu/data/images/webcam2_latest.jpg","model_version":"latest"}}
{"started_at":"2026-05-07T01:56:38Z","finished_at":"2026-05-07T01:56:40Z","duration_seconds":2.000,"status":"ok","state":{"timestamp_utc":"2026-05-07T01:56:40Z","class_index":0,"class_name":"not_out","is_out":false,"confidence":{"not_out":0.989339292049408,"full":0.0008528075995855033,"partial":0.00980791449546814},"weather":{"station":"KSEA","visibility_sm":10.0,"ceiling_ft":2700.0,"raw":"KSEA 070153Z 24009KT 10SM OVC027 13/09 A3014 RMK AO2 SLP211 T01330089 $"},"webcam_url":"https://atmos.uw.edu/data/images/webcam2_latest.jpg","model_version":"latest"}}
{"started_at":"2026-05-07T02:11:43Z","finished_at":"2026-05-07T02:11:46Z","duration_seconds":3.000,"status":"ok","state":{"timestamp_utc":"2026-05-07T02:11:46Z","class_index":0,"class_name":"not_out","is_out":false,"confidence":{"not_out":0.9965568780899048,"full":0.000005501139639818575,"partial":0.0034377111587673426},"weather":{"station":"KSEA","visibility_sm":10.0,"ceiling_ft":2700.0,"raw":"KSEA 070153Z 24009KT 10SM OVC027 13/09 A3014 RMK AO2 SLP211 T01330089 $"},"webcam_url":"https://atmos.uw.edu/data/images/webcam2_latest.jpg","model_version":"latest"}}
{"started_at":"2026-05-07T02:26:49Z","finished_at":"2026-05-07T02:26:51Z","duration_seconds":2.000,"status":"ok","state":{"timestamp_utc":"2026-05-07T02:26:51Z","class_index":0,"class_name":"not_out","is_out":false,"confidence":{"not_out":0.994640052318573,"full":0.00010188818123424426,"partial":0.005258169025182724},"weather":{"station":"KSEA","visibility_sm":10.0,"ceiling_ft":2700.0,"raw":"KSEA 070153Z 24009KT 10SM OVC027 13/09 A3014 RMK AO2 SLP211 T01330089 $"},"webcam_url":"https://atmos.uw.edu/data/images/webcam2_latest.jpg","model_version":"latest"}}
{"started_at":"2026-05-07T02:41:55Z","finished_at":"2026-05-07T02:41:57Z","duration_seconds":2.000,"status":"ok","state":{"timestamp_utc":"2026-05-07T02:41:57Z","class_index":0,"class_name":"not_out","is_out":false,"confidence":{"not_out":0.9984738230705261,"full":0.00006346812006086111,"partial":0.001462675048969686},"weather":{"station":"KSEA","visibility_sm":10.0,"ceiling_ft":2700.0,"raw":"KSEA 070153Z 24009KT 10SM OVC027 13/09 A3014 RMK AO2 SLP211 T01330089 $"},"webcam_url":"https://atmos.uw.edu/data/images/webcam2_latest.jpg","model_version":"latest"}}
{"started_at":"2026-05-07T02:57:01Z","finished_at":"2026-05-07T02:57:03Z","duration_seconds":2.000,"status":"ok","state":{"timestamp_utc":"2026-05-07T02:57:03Z","class_index":0,"class_name":"not_out","is_out":false,"confidence":{"not_out":0.9983466863632202,"full":0.000014836096852377523,"partial":0.001638461253605783},"weather":{"station":"KSEA","visibility_sm":10.0,"ceiling_ft":2500.0,"raw":"KSEA 070253Z 23007KT 10SM OVC025 13/09 A3014 RMK AO2 SLP212 T01280089 55001 $"},"webcam_url":"https://atmos.uw.edu/data/images/webcam2_latest.jpg","model_version":"latest"}}
{"started_at":"2026-05-07T03:12:07Z","finished_at":"2026-05-07T03:12:09Z","duration_seconds":2.000,"status":"ok","state":{"timestamp_utc":"2026-05-07T03:12:09Z","class_index":0,"class_name":"not_out","is_out":false,"confidence":{"not_out":0.99850994348526,"full":0.000027857384338858537,"partial":0.0014621393056586385},"weather":{"station":"KSEA","visibility_sm":10.0,"ceiling_ft":2500.0,"raw":"KSEA 070253Z 23007KT 10SM OVC025 13/09 A3014 RMK AO2 SLP212 T01280089 55001 $"},"webcam_url":"https://atmos.uw.edu/data/images/webcam2_latest.jpg","model_version":"latest"}}
{"started_at":"2026-05-07T03:27:13Z","finished_at":"2026-05-07T03:27:14Z","duration_seconds":1.000,"status":"ok","state":{"timestamp_utc":"2026-05-07T03:27:14Z","class_index":0,"class_name":"not_out","is_out":false,"confidence":{"not_out":0.998544454574585,"full":0.00013072550063952804,"partial":0.0013248383766040206},"weather":{"station":"KSEA","visibility_sm":10.0,"ceiling_ft":2500.0,"raw":"KSEA 070253Z 23007KT 10SM OVC025 13/09 A3014 RMK AO2 SLP212 T01280089 55001 $"},"webcam_url":"https://atmos.uw.edu/data/images/webcam2_latest.jpg","model_version":"latest"}}
{"started_at":"2026-05-07T03:42:18Z","finished_at":"2026-05-07T03:42:20Z","duration_seconds":2.000,"status":"ok","state":{"timestamp_utc":"2026-05-07T03:42:20Z","class_index":0,"class_name":"not_out","is_out":false,"confidence":{"not_out":0.9988337159156799,"full":0.0004966696142219007,"partial":0.000669680826831609},"weather":{"station":"KSEA","visibility_sm":10.0,"ceiling_ft":2500.0,"raw":"KSEA 070253Z 23007KT 10SM OVC025 13/09 A3014 RMK AO2 SLP212 T01280089 55001 $"},"webcam_url":"https://atmos.uw.edu/data/images/webcam2_latest.jpg","model_version":"latest"}}
{"started_at":"2026-05-07T03:57:24Z","finished_at":"2026-05-07T03:57:27Z","duration_seconds":3.000,"status":"ok","state":{"timestamp_utc":"2026-05-07T03:57:27Z","class_index":0,"class_name":"not_out","is_out":false,"confidence":{"not_out":0.9967268705368042,"full":0.002695049624890089,"partial":0.0005780024803243577},"weather":{"station":"KSEA","visibility_sm":10.0,"ceiling_ft":2500.0,"raw":"KSEA 070253Z 23007KT 10SM OVC025 13/09 A3014 RMK AO2 SLP212 T01280089 55001 $"},"webcam_url":"https://atmos.uw.edu/data/images/webcam2_latest.jpg","model_version":"latest"}}
{"started_at":"2026-05-07T04:12:31Z","finished_at":"2026-05-07T04:12:33Z","duration_seconds":2.000,"status":"ok","state":{"timestamp_utc":"2026-05-07T04:12:33Z","class_index":0,"class_name":"not_out","is_out":false,"confidence":{"not_out":0.9996521472930908,"full":0.0001283911697100848,"partial":0.0002195072011090815},"weather":{"station":"KSEA","visibility_sm":10.0,"ceiling_ft":2600.0,"raw":"KSEA 070353Z 23004KT 10SM OVC026 12/09 A3015 RMK AO2 SLP217 T01220089 $"},"webcam_url":"https://atmos.uw.edu/data/images/webcam2_latest.jpg","model_version":"latest"}}
{"started_at":"2026-05-07T04:27:37Z","finished_at":"2026-05-07T04:27:39Z","duration_seconds":2.000,"status":"ok","state":{"timestamp_utc":"2026-05-07T04:27:39Z","class_index":0,"class_name":"not_out","is_out":false,"confidence":{"not_out":0.9996373653411865,"full":0.0001775455748429522,"partial":0.0001850135304266587},"weather":{"station":"KSEA","visibility_sm":10.0,"ceiling_ft":2600.0,"raw":"KSEA 070353Z 23004KT 10SM OVC026 12/09 A3015 RMK AO2 SLP217 T01220089 $"},"webcam_url":"https://atmos.uw.edu/data/images/webcam2_latest.jpg","model_version":"latest"}}
{"started_at":"2026-05-07T04:42:43Z","finished_at":"2026-05-07T04:42:45Z","duration_seconds":2.000,"status":"ok","state":{"timestamp_utc":"2026-05-07T04:42:45Z","class_index":0,"class_name":"not_out","is_out":false,"confidence":{"not_out":0.9994328618049622,"full":0.00027203618083149195,"partial":0.0002951700007542968},"weather":{"station":"KSEA","visibility_sm":10.0,"ceiling_ft":2600.0,"raw":"KSEA 070353Z 23004KT 10SM OVC026 12/09 A3015 RMK AO2 SLP217 T01220089 $"},"webcam_url":"https://atmos.uw.edu/data/images/webcam2_latest.jpg","model_version":"latest"}}
{"started_at":"2026-05-07T04:57:48Z","finished_at":"2026-05-07T04:57:50Z","duration_seconds":3.000,"status":"ok","state":{"timestamp_utc":"2026-05-07T04:57:50Z","class_index":0,"class_name":"not_out","is_out":false,"confidence":{"not_out":0.9997000694274902,"full":0.00014683528570458293,"partial":0.00015313251060433686},"weather":{"station":"KSEA","visibility_sm":5.0,"ceiling_ft":2300.0,"raw":"KSEA 070453Z 20007KT 5SM -DZ BR OVC023 11/09 A3016 RMK AO2 DZB29 SLP219 P0000 T01110094 $"},"webcam_url":"https://atmos.uw.edu/data/images/webcam2_latest.jpg","model_version":"latest"}}
{"started_at":"2026-05-07T05:12:54Z","finished_at":"2026-05-07T05:12:56Z","duration_seconds":2.000,"status":"ok","state":{"timestamp_utc":"2026-05-07T05:12:56Z","class_index":0,"class_name":"not_out","is_out":false,"confidence":{"not_out":0.9995132684707642,"full":0.00024370804021600634,"partial":0.00024312143796123564},"weather":{"station":"KSEA","visibility_sm":5.0,"ceiling_ft":2300.0,"raw":"KSEA 070453Z 20007KT 5SM -DZ BR OVC023 11/09 A3016 RMK AO2 DZB29 SLP219 P0000 T01110094 $"},"webcam_url":"https://atmos.uw.edu/data/images/webcam2_latest.jpg","model_version":"latest"}}
{"started_at":"2026-05-07T05:28:00Z","finished_at":"2026-05-07T05:28:02Z","duration_seconds":2.000,"status":"ok","state":{"timestamp_utc":"2026-05-07T05:28:02Z","class_index":0,"class_name":"not_out","is_out":false,"confidence":{"not_out":0.9993137121200562,"full":0.0003996747254859656,"partial":0.0002866191789507866},"weather":{"station":"KSEA","visibility_sm":4.0,"ceiling_ft":1300.0,"raw":"KSEA 070512Z 21009KT 4SM -DZ BR FEW008 BKN013 OVC024 11/09 A3016 RMK AO2 P0000 T01110094 $"},"webcam_url":"https://atmos.uw.edu/data/images/webcam2_latest.jpg","model_version":"latest"}}
{"started_at":"2026-05-07T05:43:06Z","finished_at":"2026-05-07T05:43:08Z","duration_seconds":2.000,"status":"ok","state":{"timestamp_utc":"2026-05-07T05:43:08Z","class_index":0,"class_name":"not_out","is_out":false,"confidence":{"not_out":0.9995115995407104,"full":0.00022919315961189568,"partial":0.0002592065720818937},"weather":{"station":"KSEA","visibility_sm":4.0,"ceiling_ft":1300.0,"raw":"KSEA 070512Z 21009KT 4SM -DZ BR FEW008 BKN013 OVC024 11/09 A3016 RMK AO2 P0000 T01110094 $"},"webcam_url":"https://atmos.uw.edu/data/images/webcam2_latest.jpg","model_version":"latest"}}
{"started_at":"2026-05-07T05:58:11Z","finished_at":"2026-05-07T05:58:14Z","duration_seconds":3.000,"status":"ok","state":{"timestamp_utc":"2026-05-07T05:58:14Z","class_index":0,"class_name":"not_out","is_out":false,"confidence":{"not_out":0.9991762042045593,"full":0.00041122123366221786,"partial":0.0004125976993236691},"weather":{"station":"KSEA","visibility_sm":4.0,"ceiling_ft":1200.0,"raw":"KSEA 070553Z 20007KT 4SM -DZ BR FEW008 OVC012 11/09 A3016 RMK AO2 SLP219 P0000 60000 T01060094 10139 20106 50006 $"},"webcam_url":"https://atmos.uw.edu/data/images/webcam2_latest.jpg","model_version":"latest"}}
{"started_at":"2026-05-07T06:13:18Z","finished_at":"2026-05-07T06:13:20Z","duration_seconds":2.000,"status":"ok","state":{"timestamp_utc":"2026-05-07T06:13:20Z","class_index":0,"class_name":"not_out","is_out":false,"confidence":{"not_out":0.9992777705192566,"full":0.00038894807221367955,"partial":0.00033326318953186274},"weather":{"station":"KSEA","visibility_sm":4.0,"ceiling_ft":1200.0,"raw":"KSEA 070553Z 20007KT 4SM -DZ BR FEW008 OVC012 11/09 A3016 RMK AO2 SLP219 P0000 60000 T01060094 10139 20106 50006 $"},"webcam_url":"https://atmos.uw.edu/data/images/webcam2_latest.jpg","model_version":"latest"}}
{"started_at":"2026-05-07T06:28:24Z","finished_at":"2026-05-07T06:28:26Z","duration_seconds":2.000,"status":"ok","state":{"timestamp_utc":"2026-05-07T06:28:26Z","class_index":0,"class_name":"not_out","is_out":false,"confidence":{"not_out":0.9992682337760925,"full":0.00037764315493404865,"partial":0.0003541117184795439},"weather":{"station":"KSEA","visibility_sm":4.0,"ceiling_ft":1200.0,"raw":"KSEA 070553Z 20007KT 4SM -DZ BR FEW008 OVC012 11/09 A3016 RMK AO2 SLP219 P0000 60000 T01060094 10139 20106 50006 $"},"webcam_url":"https://atmos.uw.edu/data/images/webcam2_latest.jpg","model_version":"latest"}}
{"started_at":"2026-05-07T06:43:30Z","finished_at":"2026-05-07T06:43:32Z","duration_seconds":2.000,"status":"ok","state":{"timestamp_utc":"2026-05-07T06:43:32Z","class_index":0,"class_name":"not_out","is_out":false,"confidence":{"not_out":0.9994319081306458,"full":0.0002948430774267763,"partial":0.00027322646928951144},"weather":{"station":"KSEA","visibility_sm":4.0,"ceiling_ft":1200.0,"raw":"KSEA 070553Z 20007KT 4SM -DZ BR FEW008 OVC012 11/09 A3016 RMK AO2 SLP219 P0000 60000 T01060094 10139 20106 50006 $"},"webcam_url":"https://atmos.uw.edu/data/images/webcam2_latest.jpg","model_version":"latest"}}
{"started_at":"2026-05-07T06:58:35Z","finished_at":"2026-05-07T06:58:38Z","duration_seconds":3.000,"status":"ok","state":{"timestamp_utc":"2026-05-07T06:58:38Z","class_index":0,"class_name":"not_out","is_out":false,"confidence":{"not_out":0.9990955591201782,"full":0.0005011964240111411,"partial":0.0004033232107758522},"weather":{"station":"KSEA","visibility_sm":6.0,"ceiling_ft":2000.0,"raw":"KSEA 070653Z 20008KT 6SM -DZ BR FEW011 OVC020 11/09 A3015 RMK AO2 SLP218 P0000 T01060089 $"},"webcam_url":"https://atmos.uw.edu/data/images/webcam2_latest.jpg","model_version":"latest"}}
{"started_at":"2026-05-07T07:13:41Z","finished_at":"2026-05-07T07:13:43Z","duration_seconds":2.000,"status":"ok","state":{"timestamp_utc":"2026-05-07T07:13:43Z","class_index":0,"class_name":"not_out","is_out":false,"confidence":{"not_out":0.9994254112243652,"full":0.0003163657383993268,"partial":0.0002583345922175795},"weather":{"station":"KSEA","visibility_sm":6.0,"ceiling_ft":2000.0,"raw":"KSEA 070653Z 20008KT 6SM -DZ BR FEW011 OVC020 11/09 A3015 RMK AO2 SLP218 P0000 T01060089 $"},"webcam_url":"https://atmos.uw.edu/data/images/webcam2_latest.jpg","model_version":"latest"}}
{"started_at":"2026-05-07T07:28:47Z","finished_at":"2026-05-07T07:28:49Z","duration_seconds":2.000,"status":"ok","state":{"timestamp_utc":"2026-05-07T07:28:49Z","class_index":0,"class_name":"not_out","is_out":false,"confidence":{"not_out":0.9995513558387756,"full":0.00022398291912395507,"partial":0.0002246300136903301},"weather":{"station":"KSEA","visibility_sm":6.0,"ceiling_ft":2000.0,"raw":"KSEA 070653Z 20008KT 6SM -DZ BR FEW011 OVC020 11/09 A3015 RMK AO2 SLP218 P0000 T01060089 $"},"webcam_url":"https://atmos.uw.edu/data/images/webcam2_latest.jpg","model_version":"latest"}}
{"started_at":"2026-05-07T07:43:53Z","finished_at":"2026-05-07T07:43:55Z","duration_seconds":2.000,"status":"ok","state":{"timestamp_utc":"2026-05-07T07:43:55Z","class_index":0,"class_name":"not_out","is_out":false,"confidence":{"not_out":0.9994351267814636,"full":0.0002836560888681561,"partial":0.00028120746719650924},"weather":{"station":"KSEA","visibility_sm":6.0,"ceiling_ft":2000.0,"raw":"KSEA 070653Z 20008KT 6SM -DZ BR FEW011 OVC020 11/09 A3015 RMK AO2 SLP218 P0000 T01060089 $"},"webcam_url":"https://atmos.uw.edu/data/images/webcam2_latest.jpg","model_version":"latest"}}
{"started_at":"2026-05-07T07:58:59Z","finished_at":"2026-05-07T07:59:01Z","duration_seconds":2.000,"status":"ok","state":{"timestamp_utc":"2026-05-07T07:59:01Z","class_index":0,"class_name":"not_out","is_out":false,"confidence":{"not_out":0.9995216131210327,"full":0.0002117977710440755,"partial":0.00026651390362530947},"weather":{"station":"KSEA","visibility_sm":10.0,"ceiling_ft":2100.0,"raw":"KSEA 070753Z 20005KT 10SM BKN021 BKN030 OVC037 11/08 A3016 RMK AO2 DZE37 SLP218 P0000 T01060083 401390106 $"},"webcam_url":"https://atmos.uw.edu/data/images/webcam2_latest.jpg","model_version":"latest"}}
{"started_at":"2026-05-07T08:14:05Z","finished_at":"2026-05-07T08:14:07Z","duration_seconds":2.000,"status":"ok","state":{"timestamp_utc":"2026-05-07T08:14:07Z","class_index":0,"class_name":"not_out","is_out":false,"confidence":{"not_out":0.9994244575500488,"full":0.0002903085551224649,"partial":0.000285200570942834},"weather":{"station":"KSEA","visibility_sm":10.0,"ceiling_ft":3200.0,"raw":"KSEA 070802Z 20005KT 10SM SCT021 BKN032 OVC039 11/08 A3016 RMK AO2 T01060083 $"},"webcam_url":"https://atmos.uw.edu/data/images/webcam2_latest.jpg","model_version":"latest"}}
{"started_at":"2026-05-07T08:29:11Z","finished_at":"2026-05-07T08:29:14Z","duration_seconds":3.000,"status":"ok","state":{"timestamp_utc":"2026-05-07T08:29:14Z","class_index":0,"class_name":"not_out","is_out":false,"confidence":{"not_out":0.9992840886116028,"full":0.0003564686339814216,"partial":0.00035948381992056966},"weather":{"station":"KSEA","visibility_sm":10.0,"ceiling_ft":3200.0,"raw":"KSEA 070802Z 20005KT 10SM SCT021 BKN032 OVC039 11/08 A3016 RMK AO2 T01060083 $"},"webcam_url":"https://atmos.uw.edu/data/images/webcam2_latest.jpg","model_version":"latest"}}
{"started_at":"2026-05-07T08:44:17Z","finished_at":"2026-05-07T08:44:20Z","duration_seconds":3.000,"status":"ok","state":{"timestamp_utc":"2026-05-07T08:44:20Z","class_index":0,"class_name":"not_out","is_out":false,"confidence":{"not_out":0.9994086027145386,"full":0.000293058343231678,"partial":0.0002982766309287399},"weather":{"station":"KSEA","visibility_sm":10.0,"ceiling_ft":3200.0,"raw":"KSEA 070802Z 20005KT 10SM SCT021 BKN032 OVC039 11/08 A3016 RMK AO2 T01060083 $"},"webcam_url":"https://atmos.uw.edu/data/images/webcam2_latest.jpg","model_version":"latest"}}
{"started_at":"2026-05-07T08:59:24Z","finished_at":"2026-05-07T08:59:26Z","duration_seconds":2.000,"status":"ok","state":{"timestamp_utc":"2026-05-07T08:59:26Z","class_index":0,"class_name":"not_out","is_out":false,"confidence":{"not_out":0.9992265701293945,"full":0.00040239113150164485,"partial":0.000371054484276101},"weather":{"station":"KSEA","visibility_sm":10.0,"ceiling_ft":3800.0,"raw":"KSEA 070853Z 20005KT 10SM SCT022 BKN038 10/08 A3016 RMK AO2 SLP218 60000 T01000078 55000 $"},"webcam_url":"https://atmos.uw.edu/data/images/webcam2_latest.jpg","model_version":"latest"}}
{"started_at":"2026-05-07T09:14:30Z","finished_at":"2026-05-07T09:14:32Z","duration_seconds":2.000,"status":"ok","state":{"timestamp_utc":"2026-05-07T09:14:32Z","class_index":0,"class_name":"not_out","is_out":false,"confidence":{"not_out":0.9994127750396729,"full":0.00024269925779663026,"partial":0.00034455262357369065},"weather":{"station":"KSEA","visibility_sm":10.0,"ceiling_ft":3800.0,"raw":"KSEA 070853Z 20005KT 10SM SCT022 BKN038 10/08 A3016 RMK AO2 SLP218 60000 T01000078 55000 $"},"webcam_url":"https://atmos.uw.edu/data/images/webcam2_latest.jpg","model_version":"latest"}}
{"started_at":"2026-05-07T09:29:36Z","finished_at":"2026-05-07T09:29:38Z","duration_seconds":2.000,"status":"ok","state":{"timestamp_utc":"2026-05-07T09:29:38Z","class_index":0,"class_name":"not_out","is_out":false,"confidence":{"not_out":0.9995154142379761,"full":0.00025652998010627925,"partial":0.00022805784828960896},"weather":{"station":"KSEA","visibility_sm":10.0,"ceiling_ft":3800.0,"raw":"KSEA 070853Z 20005KT 10SM SCT022 BKN038 10/08 A3016 RMK AO2 SLP218 60000 T01000078 55000 $"},"webcam_url":"https://atmos.uw.edu/data/images/webcam2_latest.jpg","model_version":"latest"}}
{"started_at":"2026-05-07T09:44:42Z","finished_at":"2026-05-07T09:44:44Z","duration_seconds":2.000,"status":"ok","state":{"timestamp_utc":"2026-05-07T09:44:44Z","class_index":0,"class_name":"not_out","is_out":false,"confidence":{"not_out":0.9994410872459412,"full":0.0002971554349642247,"partial":0.00026171785430051386},"weather":{"station":"KSEA","visibility_sm":10.0,"ceiling_ft":1600.0,"raw":"KSEA 070939Z 18003KT 10SM OVC016 11/08 A3016 RMK AO2 T01060083 $"},"webcam_url":"https://atmos.uw.edu/data/images/webcam2_latest.jpg","model_version":"latest"}}
{"started_at":"2026-05-07T09:59:48Z","finished_at":"2026-05-07T09:59:50Z","duration_seconds":2.000,"status":"ok","state":{"timestamp_utc":"2026-05-07T09:59:50Z","class_index":0,"class_name":"not_out","is_out":false,"confidence":{"not_out":0.9995417594909668,"full":0.00025781209114938974,"partial":0.0002003657427849248},"weather":{"station":"KSEA","visibility_sm":10.0,"ceiling_ft":1600.0,"raw":"KSEA 070953Z 17004KT 10SM OVC016 11/08 A3016 RMK AO2 SLP219 T01060083 $"},"webcam_url":"https://atmos.uw.edu/data/images/webcam2_latest.jpg","model_version":"latest"}}
{"started_at":"2026-05-07T10:14:54Z","finished_at":"2026-05-07T10:14:56Z","duration_seconds":2.000,"status":"ok","state":{"timestamp_utc":"2026-05-07T10:14:56Z","class_index":0,"class_name":"not_out","is_out":false,"confidence":{"not_out":0.9993029832839966,"full":0.00037915678694844246,"partial":0.00031783353188075125},"weather":{"station":"KSEA","visibility_sm":10.0,"ceiling_ft":1600.0,"raw":"KSEA 070953Z 17004KT 10SM OVC016 11/08 A3016 RMK AO2 SLP219 T01060083 $"},"webcam_url":"https://atmos.uw.edu/data/images/webcam2_latest.jpg","model_version":"latest"}}
{"started_at":"2026-05-07T10:30:00Z","finished_at":"2026-05-07T10:30:02Z","duration_seconds":2.000,"status":"ok","state":{"timestamp_utc":"2026-05-07T10:30:02Z","class_index":0,"class_name":"not_out","is_out":false,"confidence":{"not_out":0.9992308616638184,"full":0.00036261376226320863,"partial":0.00040660297963768244},"weather":{"station":"KSEA","visibility_sm":10.0,"ceiling_ft":1600.0,"raw":"KSEA 070953Z 17004KT 10SM OVC016 11/08 A3016 RMK AO2 SLP219 T01060083 $"},"webcam_url":"https://atmos.uw.edu/data/images/webcam2_latest.jpg","model_version":"latest"}}
{"started_at":"2026-05-07T10:45:06Z","finished_at":"2026-05-07T10:45:10Z","duration_seconds":4.000,"status":"ok","state":{"timestamp_utc":"2026-05-07T10:45:10Z","class_index":0,"class_name":"not_out","is_out":false,"confidence":{"not_out":0.9993491768836975,"full":0.00029394470038823783,"partial":0.0003569306863937527},"weather":{"station":"KSEA","visibility_sm":10.0,"ceiling_ft":1600.0,"raw":"KSEA 070953Z 17004KT 10SM OVC016 11/08 A3016 RMK AO2 SLP219 T01060083 $"},"webcam_url":"https://atmos.uw.edu/data/images/webcam2_latest.jpg","model_version":"latest"}}
{"started_at":"2026-05-07T11:00:14Z","finished_at":"2026-05-07T11:00:16Z","duration_seconds":2.000,"status":"ok","state":{"timestamp_utc":"2026-05-07T11:00:16Z","class_index":0,"class_name":"not_out","is_out":false,"confidence":{"not_out":0.9992934465408325,"full":0.0003319225797895342,"partial":0.00037468658410944045},"weather":{"station":"KSEA","visibility_sm":10.0,"ceiling_ft":2000.0,"raw":"KSEA 071053Z 13005KT 10SM SCT014 OVC020 11/08 A3016 RMK AO2 SLP218 T01060078 $"},"webcam_url":"https://atmos.uw.edu/data/images/webcam2_latest.jpg","model_version":"latest"}}
{"started_at":"2026-05-07T11:15:20Z","finished_at":"2026-05-07T11:15:22Z","duration_seconds":2.000,"status":"ok","state":{"timestamp_utc":"2026-05-07T11:15:22Z","class_index":0,"class_name":"not_out","is_out":false,"confidence":{"not_out":0.9991397857666016,"full":0.0003280339005868882,"partial":0.0005321434582583606},"weather":{"station":"KSEA","visibility_sm":10.0,"ceiling_ft":2000.0,"raw":"KSEA 071053Z 13005KT 10SM SCT014 OVC020 11/08 A3016 RMK AO2 SLP218 T01060078 $"},"webcam_url":"https://atmos.uw.edu/data/images/webcam2_latest.jpg","model_version":"latest"}}
{"started_at":"2026-05-07T11:30:26Z","finished_at":"2026-05-07T11:30:28Z","duration_seconds":2.000,"status":"ok","state":{"timestamp_utc":"2026-05-07T11:30:28Z","class_index":0,"class_name":"not_out","is_out":false,"confidence":{"not_out":0.9983510971069336,"full":0.000930630718357861,"partial":0.0007182843401096761},"weather":{"station":"KSEA","visibility_sm":10.0,"ceiling_ft":2000.0,"raw":"KSEA 071053Z 13005KT 10SM SCT014 OVC020 11/08 A3016 RMK AO2 SLP218 T01060078 $"},"webcam_url":"https://atmos.uw.edu/data/images/webcam2_latest.jpg","model_version":"latest"}}
{"started_at":"2026-05-07T11:45:31Z","finished_at":"2026-05-07T11:45:33Z","duration_seconds":2.000,"status":"ok","state":{"timestamp_utc":"2026-05-07T11:45:33Z","class_index":0,"class_name":"not_out","is_out":false,"confidence":{"not_out":0.9989150762557983,"full":0.00046662925160489976,"partial":0.0006182375364005566},"weather":{"station":"KSEA","visibility_sm":10.0,"ceiling_ft":2000.0,"raw":"KSEA 071053Z 13005KT 10SM SCT014 OVC020 11/08 A3016 RMK AO2 SLP218 T01060078 $"},"webcam_url":"https://atmos.uw.edu/data/images/webcam2_latest.jpg","model_version":"latest"}}
{"started_at":"2026-05-07T12:00:37Z","finished_at":"2026-05-07T12:00:39Z","duration_seconds":2.000,"status":"ok","state":{"timestamp_utc":"2026-05-07T12:00:39Z","class_index":0,"class_name":"not_out","is_out":false,"confidence":{"not_out":0.9983402490615845,"full":0.0012045399053022265,"partial":0.0004552458703983575},"weather":{"station":"KSEA","visibility_sm":10.0,"ceiling_ft":2900.0,"raw":"KSEA 071153Z 18004KT 10SM SCT019 OVC029 11/07 A3015 RMK AO2 SLP215 60000 T01060072 10106 20100 58003 $"},"webcam_url":"https://atmos.uw.edu/data/images/webcam2_latest.jpg","model_version":"latest"}}
{"started_at":"2026-05-07T12:15:42Z","finished_at":"2026-05-07T12:15:44Z","duration_seconds":2.000,"status":"ok","state":{"timestamp_utc":"2026-05-07T12:15:44Z","class_index":0,"class_name":"not_out","is_out":false,"confidence":{"not_out":0.9981503486633301,"full":0.000710059714037925,"partial":0.0011396337067708373},"weather":{"station":"KSEA","visibility_sm":10.0,"ceiling_ft":2900.0,"raw":"KSEA 071153Z 18004KT 10SM SCT019 OVC029 11/07 A3015 RMK AO2 SLP215 60000 T01060072 10106 20100 58003 $"},"webcam_url":"https://atmos.uw.edu/data/images/webcam2_latest.jpg","model_version":"latest"}}
{"started_at":"2026-05-07T12:30:47Z","finished_at":"2026-05-07T12:30:49Z","duration_seconds":2.000,"status":"ok","state":{"timestamp_utc":"2026-05-07T12:30:49Z","class_index":0,"class_name":"not_out","is_out":false,"confidence":{"not_out":0.9971354007720947,"full":0.0008998822886496782,"partial":0.0019647383596748114},"weather":{"station":"KSEA","visibility_sm":10.0,"ceiling_ft":3100.0,"raw":"KSEA 071227Z 17005KT 10SM OVC031 10/07 A3014 RMK AO2 T01000072 $"},"webcam_url":"https://atmos.uw.edu/data/images/webcam2_latest.jpg","model_version":"latest"}}
{"started_at":"2026-05-07T12:45:53Z","finished_at":"2026-05-07T12:45:55Z","duration_seconds":2.000,"status":"ok","state":{"timestamp_utc":"2026-05-07T12:45:55Z","class_index":0,"class_name":"not_out","is_out":false,"confidence":{"not_out":0.9912579655647278,"full":0.0005672797560691833,"partial":0.00817473977804184},"weather":{"station":"KSEA","visibility_sm":10.0,"ceiling_ft":3100.0,"raw":"KSEA 071227Z 17005KT 10SM OVC031 10/07 A3014 RMK AO2 T01000072 $"},"webcam_url":"https://atmos.uw.edu/data/images/webcam2_latest.jpg","model_version":"latest"}}
{"started_at":"2026-05-07T13:00:59Z","finished_at":"2026-05-07T13:01:01Z","duration_seconds":2.000,"status":"ok","state":{"timestamp_utc":"2026-05-07T13:01:01Z","class_index":0,"class_name":"not_out","is_out":false,"confidence":{"not_out":0.8520467281341553,"full":0.12314712256193161,"partial":0.02480611950159073},"weather":{"station":"KSEA","visibility_sm":10.0,"ceiling_ft":3200.0,"raw":"KSEA 071253Z 16005KT 10SM FEW023 BKN032 10/07 A3014 RMK AO2 SLP211 T01000072 $"},"webcam_url":"https://atmos.uw.edu/data/images/webcam2_latest.jpg","model_version":"latest"}}
{"started_at":"2026-05-07T13:16:05Z","finished_at":"2026-05-07T13:16:07Z","duration_seconds":2.000,"status":"ok","state":{"timestamp_utc":"2026-05-07T13:16:07Z","class_index":0,"class_name":"not_out","is_out":false,"confidence":{"not_out":0.9941787719726562,"full":0.0005205111228860915,"partial":0.005300743971019983},"weather":{"station":"KSEA","visibility_sm":10.0,"ceiling_ft":3200.0,"raw":"KSEA 071253Z 16005KT 10SM FEW023 BKN032 10/07 A3014 RMK AO2 SLP211 T01000072 $"},"webcam_url":"https://atmos.uw.edu/data/images/webcam2_latest.jpg","model_version":"latest"}}
{"started_at":"2026-05-07T13:31:11Z","finished_at":"2026-05-07T13:31:12Z","duration_seconds":1.000,"status":"ok","state":{"timestamp_utc":"2026-05-07T13:31:12Z","class_index":2,"class_name":"partial","is_out":true,"confidence":{"not_out":0.30058351159095764,"full":0.01542374026030302,"partial":0.6839927434921265},"weather":{"station":"KSEA","visibility_sm":10.0,"ceiling_ft":3200.0,"raw":"KSEA 071253Z 16005KT 10SM FEW023 BKN032 10/07 A3014 RMK AO2 SLP211 T01000072 $"},"webcam_url":"https://atmos.uw.edu/data/images/webcam2_latest.jpg","model_version":"latest"}}
{"started_at":"2026-05-07T13:46:16Z","finished_at":"2026-05-07T13:46:18Z","duration_seconds":2.000,"status":"ok","state":{"timestamp_utc":"2026-05-07T13:46:18Z","class_index":2,"class_name":"partial","is_out":true,"confidence":{"not_out":0.25849488377571106,"full":0.0152085917070508,"partial":0.7262965440750122},"weather":{"station":"KSEA","visibility_sm":10.0,"ceiling_ft":3200.0,"raw":"KSEA 071253Z 16005KT 10SM FEW023 BKN032 10/07 A3014 RMK AO2 SLP211 T01000072 $"},"webcam_url":"https://atmos.uw.edu/data/images/webcam2_latest.jpg","model_version":"latest"}}
{"started_at":"2026-05-07T14:01:22Z","finished_at":"2026-05-07T14:01:24Z","duration_seconds":2.000,"status":"ok","state":{"timestamp_utc":"2026-05-07T14:01:24Z","class_index":0,"class_name":"not_out","is_out":false,"confidence":{"not_out":0.998543381690979,"full":0.0008051057229749858,"partial":0.000651430687867105},"weather":{"station":"KSEA","visibility_sm":10.0,"ceiling_ft":3300.0,"raw":"KSEA 071353Z 20006KT 10SM FEW022 BKN033 11/07 A3014 RMK AO2 SLP213 T01060072 $"},"webcam_url":"https://atmos.uw.edu/data/images/webcam2_latest.jpg","model_version":"latest"}}
{"started_at":"2026-05-07T14:16:28Z","finished_at":"2026-05-07T14:16:30Z","duration_seconds":2.000,"status":"ok","state":{"timestamp_utc":"2026-05-07T14:16:30Z","class_index":0,"class_name":"not_out","is_out":false,"confidence":{"not_out":0.9730916023254395,"full":0.0234523955732584,"partial":0.003456050530076027},"weather":{"station":"KSEA","visibility_sm":10.0,"ceiling_ft":3300.0,"raw":"KSEA 071353Z 20006KT 10SM FEW022 BKN033 11/07 A3014 RMK AO2 SLP213 T01060072 $"},"webcam_url":"https://atmos.uw.edu/data/images/webcam2_latest.jpg","model_version":"latest"}}
{"started_at":"2026-05-07T14:31:34Z","finished_at":"2026-05-07T14:31:36Z","duration_seconds":2.000,"status":"ok","state":{"timestamp_utc":"2026-05-07T14:31:36Z","class_index":0,"class_name":"not_out","is_out":false,"confidence":{"not_out":0.9697717428207397,"full":0.0058218748308718204,"partial":0.024406302720308304},"weather":{"station":"KSEA","visibility_sm":10.0,"ceiling_ft":3300.0,"raw":"KSEA 071353Z 20006KT 10SM FEW022 BKN033 11/07 A3014 RMK AO2 SLP213 T01060072 $"},"webcam_url":"https://atmos.uw.edu/data/images/webcam2_latest.jpg","model_version":"latest"}}
{"started_at":"2026-05-07T14:46:40Z","finished_at":"2026-05-07T14:46:42Z","duration_seconds":2.000,"status":"ok","state":{"timestamp_utc":"2026-05-07T14:46:42Z","class_index":0,"class_name":"not_out","is_out":false,"confidence":{"not_out":0.9974654912948608,"full":0.0001012879511108622,"partial":0.002433211775496602},"weather":{"station":"KSEA","visibility_sm":10.0,"ceiling_ft":3300.0,"raw":"KSEA 071353Z 20006KT 10SM FEW022 BKN033 11/07 A3014 RMK AO2 SLP213 T01060072 $"},"webcam_url":"https://atmos.uw.edu/data/images/webcam2_latest.jpg","model_version":"latest"}}
{"started_at":"2026-05-07T15:01:46Z","finished_at":"2026-05-07T15:01:49Z","duration_seconds":3.000,"status":"ok","state":{"timestamp_utc":"2026-05-07T15:01:49Z","class_index":0,"class_name":"not_out","is_out":false,"confidence":{"not_out":0.9913939833641052,"full":0.000621733779553324,"partial":0.007984213531017303},"weather":{"station":"KSEA","visibility_sm":10.0,"ceiling_ft":null,"raw":"KSEA 071453Z 21009KT 10SM FEW021 SCT032 11/07 A3015 RMK AO2 SLP215 T01060067 55000 $"},"webcam_url":"https://atmos.uw.edu/data/images/webcam2_latest.jpg","model_version":"latest"}}
{"started_at":"2026-05-07T15:16:53Z","finished_at":"2026-05-07T15:16:55Z","duration_seconds":2.000,"status":"ok","state":{"timestamp_utc":"2026-05-07T15:16:55Z","class_index":0,"class_name":"not_out","is_out":false,"confidence":{"not_out":0.9908775687217712,"full":0.00011974111839663237,"partial":0.00900269951671362},"weather":{"station":"KSEA","visibility_sm":10.0,"ceiling_ft":null,"raw":"KSEA 071453Z 21009KT 10SM FEW021 SCT032 11/07 A3015 RMK AO2 SLP215 T01060067 55000 $"},"webcam_url":"https://atmos.uw.edu/data/images/webcam2_latest.jpg","model_version":"latest"}}
{"started_at":"2026-05-07T15:31:59Z","finished_at":"2026-05-07T15:32:00Z","duration_seconds":1.000,"status":"ok","state":{"timestamp_utc":"2026-05-07T15:32:00Z","class_index":0,"class_name":"not_out","is_out":false,"confidence":{"not_out":0.99782794713974,"full":0.00000777490458858665,"partial":0.002164331963285804},"weather":{"station":"KSEA","visibility_sm":10.0,"ceiling_ft":null,"raw":"KSEA 071453Z 21009KT 10SM FEW021 SCT032 11/07 A3015 RMK AO2 SLP215 T01060067 55000 $"},"webcam_url":"https://atmos.uw.edu/data/images/webcam2_latest.jpg","model_version":"latest"}}
{"started_at":"2026-05-07T15:47:04Z","finished_at":"2026-05-07T15:47:06Z","duration_seconds":2.000,"status":"ok","state":{"timestamp_utc":"2026-05-07T15:47:06Z","class_index":0,"class_name":"not_out","is_out":false,"confidence":{"not_out":0.9757440090179443,"full":0.00005218568549025804,"partial":0.024203738197684288},"weather":{"station":"KSEA","visibility_sm":10.0,"ceiling_ft":null,"raw":"KSEA 071453Z 21009KT 10SM FEW021 SCT032 11/07 A3015 RMK AO2 SLP215 T01060067 55000 $"},"webcam_url":"https://atmos.uw.edu/data/images/webcam2_latest.jpg","model_version":"latest"}}
{"started_at":"2026-05-07T16:02:10Z","finished_at":"2026-05-07T16:02:12Z","duration_seconds":2.000,"status":"ok","state":{"timestamp_utc":"2026-05-07T16:02:12Z","class_index":0,"class_name":"not_out","is_out":false,"confidence":{"not_out":0.9901565313339233,"full":0.00003609491977840662,"partial":0.009807326830923557},"weather":{"station":"KSEA","visibility_sm":10.0,"ceiling_ft":3200.0,"raw":"KSEA 071553Z 21006KT 10SM SCT016 BKN032 11/07 A3015 RMK AO2 SLP215 T01110072 $"},"webcam_url":"https://atmos.uw.edu/data/images/webcam2_latest.jpg","model_version":"latest"}}
{"started_at":"2026-05-07T16:17:16Z","finished_at":"2026-05-07T16:17:18Z","duration_seconds":2.000,"status":"ok","state":{"timestamp_utc":"2026-05-07T16:17:18Z","class_index":0,"class_name":"not_out","is_out":false,"confidence":{"not_out":0.9712216854095459,"full":0.00006219340139068663,"partial":0.028716066852211952},"weather":{"station":"KSEA","visibility_sm":10.0,"ceiling_ft":3200.0,"raw":"KSEA 071553Z 21006KT 10SM SCT016 BKN032 11/07 A3015 RMK AO2 SLP215 T01110072 $"},"webcam_url":"https://atmos.uw.edu/data/images/webcam2_latest.jpg","model_version":"latest"}}
{"started_at":"2026-05-07T16:32:22Z","finished_at":"2026-05-07T16:32:24Z","duration_seconds":2.000,"status":"ok","state":{"timestamp_utc":"2026-05-07T16:32:24Z","class_index":0,"class_name":"not_out","is_out":false,"confidence":{"not_out":0.9952115416526794,"full":0.0004021142376586795,"partial":0.004386455751955509},"weather":{"station":"KSEA","visibility_sm":10.0,"ceiling_ft":3200.0,"raw":"KSEA 071553Z 21006KT 10SM SCT016 BKN032 11/07 A3015 RMK AO2 SLP215 T01110072 $"},"webcam_url":"https://atmos.uw.edu/data/images/webcam2_latest.jpg","model_version":"latest"}}
{"started_at":"2026-05-07T16:47:28Z","finished_at":"2026-05-07T16:47:30Z","duration_seconds":2.000,"status":"ok","state":{"timestamp_utc":"2026-05-07T16:47:30Z","class_index":0,"class_name":"not_out","is_out":false,"confidence":{"not_out":0.9906909465789795,"full":0.00013231848424766213,"partial":0.009176856838166714},"weather":{"station":"KSEA","visibility_sm":10.0,"ceiling_ft":3200.0,"raw":"KSEA 071553Z 21006KT 10SM SCT016 BKN032 11/07 A3015 RMK AO2 SLP215 T01110072 $"},"webcam_url":"https://atmos.uw.edu/data/images/webcam2_latest.jpg","model_version":"latest"}}
{"started_at":"2026-05-07T17:02:34Z","finished_at":"2026-05-07T17:02:36Z","duration_seconds":2.000,"status":"ok","state":{"timestamp_utc":"2026-05-07T17:02:36Z","class_index":0,"class_name":"not_out","is_out":false,"confidence":{"not_out":0.9816453456878662,"full":0.00013165462587494403,"partial":0.018223043531179428},"weather":{"station":"KSEA","visibility_sm":10.0,"ceiling_ft":20000.0,"raw":"KSEA 071653Z 21004KT 10SM FEW016 SCT032 BKN200 13/07 A3014 RMK AO2 SLP213 T01280072 $"},"webcam_url":"https://atmos.uw.edu/data/images/webcam2_latest.jpg","model_version":"latest"}}
{"started_at":"2026-05-07T17:17:41Z","finished_at":"2026-05-07T17:17:43Z","duration_seconds":2.000,"status":"ok","state":{"timestamp_utc":"2026-05-07T17:17:43Z","class_index":0,"class_name":"not_out","is_out":false,"confidence":{"not_out":0.9826226234436035,"full":0.000008218880793720018,"partial":0.017369164153933525},"weather":{"station":"KSEA","visibility_sm":10.0,"ceiling_ft":20000.0,"raw":"KSEA 071653Z 21004KT 10SM FEW016 SCT032 BKN200 13/07 A3014 RMK AO2 SLP213 T01280072 $"},"webcam_url":"https://atmos.uw.edu/data/images/webcam2_latest.jpg","model_version":"latest"}}
{"started_at":"2026-05-07T17:32:47Z","finished_at":"2026-05-07T17:32:49Z","duration_seconds":2.000,"status":"ok","state":{"timestamp_utc":"2026-05-07T17:32:49Z","class_index":0,"class_name":"not_out","is_out":false,"confidence":{"not_out":0.9876068234443665,"full":0.000007256459412019467,"partial":0.012385851703584194},"weather":{"station":"KSEA","visibility_sm":10.0,"ceiling_ft":20000.0,"raw":"KSEA 071653Z 21004KT 10SM FEW016 SCT032 BKN200 13/07 A3014 RMK AO2 SLP213 T01280072 $"},"webcam_url":"https://atmos.uw.edu/data/images/webcam2_latest.jpg","model_version":"latest"}}
{"started_at":"2026-05-07T17:47:52Z","finished_at":"2026-05-07T17:47:55Z","duration_seconds":3.000,"status":"ok","state":{"timestamp_utc":"2026-05-07T17:47:55Z","class_index":0,"class_name":"not_out","is_out":false,"confidence":{"not_out":0.9849586486816406,"full":0.00001656787389947567,"partial":0.015024855732917786},"weather":{"station":"KSEA","visibility_sm":10.0,"ceiling_ft":20000.0,"raw":"KSEA 071653Z 21004KT 10SM FEW016 SCT032 BKN200 13/07 A3014 RMK AO2 SLP213 T01280072 $"},"webcam_url":"https://atmos.uw.edu/data/images/webcam2_latest.jpg","model_version":"latest"}}
{"started_at":"2026-05-07T18:02:59Z","finished_at":"2026-05-07T18:03:01Z","duration_seconds":2.000,"status":"ok","state":{"timestamp_utc":"2026-05-07T18:03:01Z","class_index":0,"class_name":"not_out","is_out":false,"confidence":{"not_out":0.9905785918235779,"full":0.00003623186785262078,"partial":0.009385132230818272},"weather":{"station":"KSEA","visibility_sm":10.0,"ceiling_ft":3200.0,"raw":"KSEA 071753Z 29005KT 10SM SCT023 BKN032 BKN200 13/07 A3014 RMK AO2 SLP213 SCT023 V BKN T01280067 10133 20100 57002 $"},"webcam_url":"https://atmos.uw.edu/data/images/webcam2_latest.jpg","model_version":"latest"}}
{"started_at":"2026-05-07T18:18:04Z","finished_at":"2026-05-07T18:18:07Z","duration_seconds":3.000,"status":"ok","state":{"timestamp_utc":"2026-05-07T18:18:07Z","class_index":0,"class_name":"not_out","is_out":false,"confidence":{"not_out":0.9818514585494995,"full":0.000051084596634609625,"partial":0.01809754967689514},"weather":{"station":"KSEA","visibility_sm":10.0,"ceiling_ft":3200.0,"raw":"KSEA 071753Z 29005KT 10SM SCT023 BKN032 BKN200 13/07 A3014 RMK AO2 SLP213 SCT023 V BKN T01280067 10133 20100 57002 $"},"webcam_url":"https://atmos.uw.edu/data/images/webcam2_latest.jpg","model_version":"latest"}}
{"started_at":"2026-05-07T18:33:11Z","finished_at":"2026-05-07T18:33:13Z","duration_seconds":2.000,"status":"ok","state":{"timestamp_utc":"2026-05-07T18:33:13Z","class_index":0,"class_name":"not_out","is_out":false,"confidence":{"not_out":0.9818785786628723,"full":0.00003808857218245976,"partial":0.018083378672599792},"weather":{"station":"KSEA","visibility_sm":10.0,"ceiling_ft":3200.0,"raw":"KSEA 071753Z 29005KT 10SM SCT023 BKN032 BKN200 13/07 A3014 RMK AO2 SLP213 SCT023 V BKN T01280067 10133 20100 57002 $"},"webcam_url":"https://atmos.uw.edu/data/images/webcam2_latest.jpg","model_version":"latest"}}
{"started_at":"2026-05-07T18:48:17Z","finished_at":"2026-05-07T18:48:19Z","duration_seconds":2.000,"status":"ok","state":{"timestamp_utc":"2026-05-07T18:48:19Z","class_index":0,"class_name":"not_out","is_out":false,"confidence":{"not_out":0.994094967842102,"full":0.00002900163053709548,"partial":0.005876021459698677},"weather":{"station":"KSEA","visibility_sm":10.0,"ceiling_ft":3200.0,"raw":"KSEA 071753Z 29005KT 10SM SCT023 BKN032 BKN200 13/07 A3014 RMK AO2 SLP213 SCT023 V BKN T01280067 10133 20100 57002 $"},"webcam_url":"https://atmos.uw.edu/data/images/webcam2_latest.jpg","model_version":"latest"}}
{"started_at":"2026-05-07T19:03:23Z","finished_at":"2026-05-07T19:03:25Z","duration_seconds":2.000,"status":"ok","state":{"timestamp_utc":"2026-05-07T19:03:25Z","class_index":0,"class_name":"not_out","is_out":false,"confidence":{"not_out":0.9942843317985535,"full":0.00003252540773246437,"partial":0.005683175288140774},"weather":{"station":"KSEA","visibility_sm":10.0,"ceiling_ft":3000.0,"raw":"KSEA 071853Z VRB04KT 10SM FEW024 BKN030 BKN200 14/06 A3013 RMK AO2 SLP209 T01390061 $"},"webcam_url":"https://atmos.uw.edu/data/images/webcam2_latest.jpg","model_version":"latest"}}
{"started_at":"2026-05-07T19:18:29Z","finished_at":"2026-05-07T19:18:31Z","duration_seconds":2.000,"status":"ok","state":{"timestamp_utc":"2026-05-07T19:18:31Z","class_index":0,"class_name":"not_out","is_out":false,"confidence":{"not_out":0.9909317493438721,"full":0.000045532084186561406,"partial":0.00902271643280983},"weather":{"station":"KSEA","visibility_sm":10.0,"ceiling_ft":3000.0,"raw":"KSEA 071853Z VRB04KT 10SM FEW024 BKN030 BKN200 14/06 A3013 RMK AO2 SLP209 T01390061 $"},"webcam_url":"https://atmos.uw.edu/data/images/webcam2_latest.jpg","model_version":"latest"}}
{"started_at":"2026-05-07T19:33:35Z","finished_at":"2026-05-07T19:33:38Z","duration_seconds":3.000,"status":"ok","state":{"timestamp_utc":"2026-05-07T19:33:38Z","class_index":0,"class_name":"not_out","is_out":false,"confidence":{"not_out":0.8964649438858032,"full":0.0005151974619366229,"partial":0.10301985591650009},"weather":{"station":"KSEA","visibility_sm":10.0,"ceiling_ft":3000.0,"raw":"KSEA 071853Z VRB04KT 10SM FEW024 BKN030 BKN200 14/06 A3013 RMK AO2 SLP209 T01390061 $"},"webcam_url":"https://atmos.uw.edu/data/images/webcam2_latest.jpg","model_version":"latest"}}
{"started_at":"2026-05-07T19:48:42Z","finished_at":"2026-05-07T19:48:44Z","duration_seconds":2.000,"status":"ok","state":{"timestamp_utc":"2026-05-07T19:48:44Z","class_index":0,"class_name":"not_out","is_out":false,"confidence":{"not_out":0.9784090518951416,"full":0.001220575999468565,"partial":0.02037043310701847},"weather":{"station":"KSEA","visibility_sm":10.0,"ceiling_ft":3000.0,"raw":"KSEA 071853Z VRB04KT 10SM FEW024 BKN030 BKN200 14/06 A3013 RMK AO2 SLP209 T01390061 $"},"webcam_url":"https://atmos.uw.edu/data/images/webcam2_latest.jpg","model_version":"latest"}}
{"started_at":"2026-05-07T20:03:47Z","finished_at":"2026-05-07T20:03:49Z","duration_seconds":2.000,"status":"ok","state":{"timestamp_utc":"2026-05-07T20:03:49Z","class_index":0,"class_name":"not_out","is_out":false,"confidence":{"not_out":0.9812179803848267,"full":0.005139579065144062,"partial":0.013642466627061367},"weather":{"station":"KSEA","visibility_sm":10.0,"ceiling_ft":3200.0,"raw":"KSEA 071953Z 00000KT 10SM FEW028 BKN032 BKN220 14/06 A3012 RMK AO2 SLP207 T01440061 $"},"webcam_url":"https://atmos.uw.edu/data/images/webcam2_latest.jpg","model_version":"latest"}}
{"started_at":"2026-05-07T20:18:53Z","finished_at":"2026-05-07T20:18:55Z","duration_seconds":2.000,"status":"ok","state":{"timestamp_utc":"2026-05-07T20:18:55Z","class_index":0,"class_name":"not_out","is_out":false,"confidence":{"not_out":0.8749631643295288,"full":0.00246073747985065,"partial":0.12257612496614456},"weather":{"station":"KSEA","visibility_sm":10.0,"ceiling_ft":3200.0,"raw":"KSEA 071953Z 00000KT 10SM FEW028 BKN032 BKN220 14/06 A3012 RMK AO2 SLP207 T01440061 $"},"webcam_url":"https://atmos.uw.edu/data/images/webcam2_latest.jpg","model_version":"latest"}}
{"started_at":"2026-05-07T20:33:59Z","finished_at":"2026-05-07T20:34:01Z","duration_seconds":2.000,"status":"ok","state":{"timestamp_utc":"2026-05-07T20:34:01Z","class_index":0,"class_name":"not_out","is_out":false,"confidence":{"not_out":0.9711331129074097,"full":0.0009923033649101853,"partial":0.027874641120433807},"weather":{"station":"KSEA","visibility_sm":10.0,"ceiling_ft":3200.0,"raw":"KSEA 071953Z 00000KT 10SM FEW028 BKN032 BKN220 14/06 A3012 RMK AO2 SLP207 T01440061 $"},"webcam_url":"https://atmos.uw.edu/data/images/webcam2_latest.jpg","model_version":"latest"}}
{"started_at":"2026-05-07T20:49:05Z","finished_at":"2026-05-07T20:49:07Z","duration_seconds":2.000,"status":"ok","state":{"timestamp_utc":"2026-05-07T20:49:07Z","class_index":0,"class_name":"not_out","is_out":false,"confidence":{"not_out":0.9931378960609436,"full":0.004154824651777744,"partial":0.0027072986122220755},"weather":{"station":"KSEA","visibility_sm":10.0,"ceiling_ft":3200.0,"raw":"KSEA 071953Z 00000KT 10SM FEW028 BKN032 BKN220 14/06 A3012 RMK AO2 SLP207 T01440061 $"},"webcam_url":"https://atmos.uw.edu/data/images/webcam2_latest.jpg","model_version":"latest"}}
{"started_at":"2026-05-07T21:04:11Z","finished_at":"2026-05-07T21:04:13Z","duration_seconds":2.000,"status":"ok","state":{"timestamp_utc":"2026-05-07T21:04:13Z","class_index":0,"class_name":"not_out","is_out":false,"confidence":{"not_out":0.983502209186554,"full":0.005437009036540985,"partial":0.011060838587582111},"weather":{"station":"KSEA","visibility_sm":10.0,"ceiling_ft":3800.0,"raw":"KSEA 072053Z VRB05KT 10SM SCT032 BKN038 BKN220 17/07 A3011 RMK AO2 SLP203 T01670067 58010 $"},"webcam_url":"https://atmos.uw.edu/data/images/webcam2_latest.jpg","model_version":"latest"}}
{"started_at":"2026-05-07T21:19:17Z","finished_at":"2026-05-07T21:19:19Z","duration_seconds":2.000,"status":"ok","state":{"timestamp_utc":"2026-05-07T21:19:19Z","class_index":0,"class_name":"not_out","is_out":false,"confidence":{"not_out":0.9809014201164246,"full":0.006639155559241772,"partial":0.012459426186978817},"weather":{"station":"KSEA","visibility_sm":10.0,"ceiling_ft":3800.0,"raw":"KSEA 072053Z VRB05KT 10SM SCT032 BKN038 BKN220 17/07 A3011 RMK AO2 SLP203 T01670067 58010 $"},"webcam_url":"https://atmos.uw.edu/data/images/webcam2_latest.jpg","model_version":"latest"}}
{"started_at":"2026-05-07T21:34:23Z","finished_at":"2026-05-07T21:34:25Z","duration_seconds":2.000,"status":"ok","state":{"timestamp_utc":"2026-05-07T21:34:25Z","class_index":0,"class_name":"not_out","is_out":false,"confidence":{"not_out":0.9755295515060425,"full":0.009655900299549103,"partial":0.014814554713666439},"weather":{"station":"KSEA","visibility_sm":10.0,"ceiling_ft":3800.0,"raw":"KSEA 072053Z VRB05KT 10SM SCT032 BKN038 BKN220 17/07 A3011 RMK AO2 SLP203 T01670067 58010 $"},"webcam_url":"https://atmos.uw.edu/data/images/webcam2_latest.jpg","model_version":"latest"}}
{"started_at":"2026-05-07T21:49:29Z","finished_at":"2026-05-07T21:49:31Z","duration_seconds":2.000,"status":"ok","state":{"timestamp_utc":"2026-05-07T21:49:31Z","class_index":0,"class_name":"not_out","is_out":false,"confidence":{"not_out":0.8206908702850342,"full":0.04001845419406891,"partial":0.13929058611392975},"weather":{"station":"KSEA","visibility_sm":10.0,"ceiling_ft":3800.0,"raw":"KSEA 072053Z VRB05KT 10SM SCT032 BKN038 BKN220 17/07 A3011 RMK AO2 SLP203 T01670067 58010 $"},"webcam_url":"https://atmos.uw.edu/data/images/webcam2_latest.jpg","model_version":"latest"}}
{"started_at":"2026-05-07T22:04:35Z","finished_at":"2026-05-07T22:04:36Z","duration_seconds":1.000,"status":"ok","state":{"timestamp_utc":"2026-05-07T22:04:36Z","class_index":0,"class_name":"not_out","is_out":false,"confidence":{"not_out":0.8631572127342224,"full":0.012642133049666882,"partial":0.12420063465833664},"weather":{"station":"KSEA","visibility_sm":10.0,"ceiling_ft":3800.0,"raw":"KSEA 072153Z 28006KT 10SM BKN038 BKN250 17/07 A3009 RMK AO2 SLP196 T01720072 $"},"webcam_url":"https://atmos.uw.edu/data/images/webcam2_latest.jpg","model_version":"latest"}}
{"started_at":"2026-05-07T22:19:40Z","finished_at":"2026-05-07T22:19:42Z","duration_seconds":2.000,"status":"ok","state":{"timestamp_utc":"2026-05-07T22:19:42Z","class_index":0,"class_name":"not_out","is_out":false,"confidence":{"not_out":0.947281539440155,"full":0.019899629056453705,"partial":0.03281892463564873},"weather":{"station":"KSEA","visibility_sm":10.0,"ceiling_ft":3800.0,"raw":"KSEA 072153Z 28006KT 10SM BKN038 BKN250 17/07 A3009 RMK AO2 SLP196 T01720072 $"},"webcam_url":"https://atmos.uw.edu/data/images/webcam2_latest.jpg","model_version":"latest"}}
{"started_at":"2026-05-07T22:34:46Z","finished_at":"2026-05-07T22:34:48Z","duration_seconds":2.000,"status":"ok","state":{"timestamp_utc":"2026-05-07T22:34:48Z","class_index":0,"class_name":"not_out","is_out":false,"confidence":{"not_out":0.8423565626144409,"full":0.029743220657110214,"partial":0.127900168299675},"weather":{"station":"KSEA","visibility_sm":10.0,"ceiling_ft":3800.0,"raw":"KSEA 072153Z 28006KT 10SM BKN038 BKN250 17/07 A3009 RMK AO2 SLP196 T01720072 $"},"webcam_url":"https://atmos.uw.edu/data/images/webcam2_latest.jpg","model_version":"latest"}}
{"started_at":"2026-05-07T22:49:52Z","finished_at":"2026-05-07T22:49:54Z","duration_seconds":2.000,"status":"ok","state":{"timestamp_utc":"2026-05-07T22:49:54Z","class_index":0,"class_name":"not_out","is_out":false,"confidence":{"not_out":0.5601500868797302,"full":0.028202500194311142,"partial":0.41164737939834595},"weather":{"station":"KSEA","visibility_sm":10.0,"ceiling_ft":3800.0,"raw":"KSEA 072153Z 28006KT 10SM BKN038 BKN250 17/07 A3009 RMK AO2 SLP196 T01720072 $"},"webcam_url":"https://atmos.uw.edu/data/images/webcam2_latest.jpg","model_version":"latest"}}
{"started_at":"2026-05-07T23:04:58Z","finished_at":"2026-05-07T23:05:00Z","duration_seconds":2.000,"status":"ok","state":{"timestamp_utc":"2026-05-07T23:05:00Z","class_index":2,"class_name":"partial","is_out":true,"confidence":{"not_out":0.4006277024745941,"full":0.018720410764217377,"partial":0.5806518793106079},"weather":{"station":"KSEA","visibility_sm":10.0,"ceiling_ft":22000.0,"raw":"KSEA 072253Z 27008KT 10SM FEW040 SCT045 BKN220 17/07 A3007 RMK AO2 SLP190 T01720072 $"},"webcam_url":"https://atmos.uw.edu/data/images/webcam2_latest.jpg","model_version":"latest"}}
{"started_at":"2026-05-07T23:20:04Z","finished_at":"2026-05-07T23:20:06Z","duration_seconds":2.000,"status":"ok","state":{"timestamp_utc":"2026-05-07T23:20:06Z","class_index":0,"class_name":"not_out","is_out":false,"confidence":{"not_out":0.7263686656951904,"full":0.004155288450419903,"partial":0.2694760262966156},"weather":{"station":"KSEA","visibility_sm":10.0,"ceiling_ft":22000.0,"raw":"KSEA 072253Z 27008KT 10SM FEW040 SCT045 BKN220 17/07 A3007 RMK AO2 SLP190 T01720072 $"},"webcam_url":"https://atmos.uw.edu/data/images/webcam2_latest.jpg","model_version":"latest"}}
{"started_at":"2026-05-07T23:35:09Z","finished_at":"2026-05-07T23:35:11Z","duration_seconds":2.000,"status":"ok","state":{"timestamp_utc":"2026-05-07T23:35:11Z","class_index":0,"class_name":"not_out","is_out":false,"confidence":{"not_out":0.9838531017303467,"full":0.003051075618714094,"partial":0.013095847330987453},"weather":{"station":"KSEA","visibility_sm":10.0,"ceiling_ft":22000.0,"raw":"KSEA 072253Z 27008KT 10SM FEW040 SCT045 BKN220 17/07 A3007 RMK AO2 SLP190 T01720072 $"},"webcam_url":"https://atmos.uw.edu/data/images/webcam2_latest.jpg","model_version":"latest"}}
{"started_at":"2026-05-07T23:50:15Z","finished_at":"2026-05-07T23:50:17Z","duration_seconds":2.000,"status":"ok","state":{"timestamp_utc":"2026-05-07T23:50:17Z","class_index":2,"class_name":"partial","is_out":true,"confidence":{"not_out":0.4668017327785492,"full":0.0485631562769413,"partial":0.48463502526283264},"weather":{"station":"KSEA","visibility_sm":10.0,"ceiling_ft":22000.0,"raw":"KSEA 072253Z 27008KT 10SM FEW040 SCT045 BKN220 17/07 A3007 RMK AO2 SLP190 T01720072 $"},"webcam_url":"https://atmos.uw.edu/data/images/webcam2_latest.jpg","model_version":"latest"}}
{"started_at":"2026-05-08T00:05:21Z","finished_at":"2026-05-08T00:05:23Z","duration_seconds":2.000,"status":"ok","state":{"timestamp_utc":"2026-05-08T00:05:23Z","class_index":2,"class_name":"partial","is_out":true,"confidence":{"not_out":0.30340102314949036,"full":0.03405120223760605,"partial":0.6625478267669678},"weather":{"station":"KSEA","visibility_sm":10.0,"ceiling_ft":22000.0,"raw":"KSEA 072353Z 34004KT 10SM FEW042 BKN220 17/07 A3006 RMK AO2 SLP186 T01720067 10178 20128 56016 $"},"webcam_url":"https://atmos.uw.edu/data/images/webcam2_latest.jpg","model_version":"latest"}}
{"started_at":"2026-05-08T00:20:27Z","finished_at":"2026-05-08T00:20:29Z","duration_seconds":2.000,"status":"ok","state":{"timestamp_utc":"2026-05-08T00:20:29Z","class_index":2,"class_name":"partial","is_out":true,"confidence":{"not_out":0.3347415626049042,"full":0.09280292689800262,"partial":0.5724555850028992},"weather":{"station":"KSEA","visibility_sm":10.0,"ceiling_ft":22000.0,"raw":"KSEA 072353Z 34004KT 10SM FEW042 BKN220 17/07 A3006 RMK AO2 SLP186 T01720067 10178 20128 56016 $"},"webcam_url":"https://atmos.uw.edu/data/images/webcam2_latest.jpg","model_version":"latest"}}
{"started_at":"2026-05-08T00:35:33Z","finished_at":"2026-05-08T00:35:35Z","duration_seconds":2.000,"status":"ok","state":{"timestamp_utc":"2026-05-08T00:35:35Z","class_index":2,"class_name":"partial","is_out":true,"confidence":{"not_out":0.3635822832584381,"full":0.11008059233427048,"partial":0.5263371467590332},"weather":{"station":"KSEA","visibility_sm":10.0,"ceiling_ft":22000.0,"raw":"KSEA 072353Z 34004KT 10SM FEW042 BKN220 17/07 A3006 RMK AO2 SLP186 T01720067 10178 20128 56016 $"},"webcam_url":"https://atmos.uw.edu/data/images/webcam2_latest.jpg","model_version":"latest"}}
{"started_at":"2026-05-08T00:50:38Z","finished_at":"2026-05-08T00:50:40Z","duration_seconds":2.000,"status":"ok","state":{"timestamp_utc":"2026-05-08T00:50:40Z","class_index":1,"class_name":"full","is_out":true,"confidence":{"not_out":0.03007272630929947,"full":0.7229470610618591,"partial":0.246980220079422},"weather":{"station":"KSEA","visibility_sm":10.0,"ceiling_ft":22000.0,"raw":"KSEA 072353Z 34004KT 10SM FEW042 BKN220 17/07 A3006 RMK AO2 SLP186 T01720067 10178 20128 56016 $"},"webcam_url":"https://atmos.uw.edu/data/images/webcam2_latest.jpg","model_version":"latest"}}
{"started_at":"2026-05-08T01:05:44Z","finished_at":"2026-05-08T01:05:46Z","duration_seconds":2.000,"status":"ok","state":{"timestamp_utc":"2026-05-08T01:05:45Z","class_index":2,"class_name":"partial","is_out":true,"confidence":{"not_out":0.054320432245731354,"full":0.04257459193468094,"partial":0.9031049609184265},"weather":{"station":"KSEA","visibility_sm":10.0,"ceiling_ft":20000.0,"raw":"KSEA 080053Z 00000KT 10SM FEW040 BKN200 17/07 A3006 RMK AO2 SLP184 T01670072 $"},"webcam_url":"https://atmos.uw.edu/data/images/webcam2_latest.jpg","model_version":"latest"}}
{"started_at":"2026-05-08T01:20:49Z","finished_at":"2026-05-08T01:20:51Z","duration_seconds":2.000,"status":"ok","state":{"timestamp_utc":"2026-05-08T01:20:51Z","class_index":2,"class_name":"partial","is_out":true,"confidence":{"not_out":0.02616022527217865,"full":0.021763794124126434,"partial":0.9520759582519531},"weather":{"station":"KSEA","visibility_sm":10.0,"ceiling_ft":20000.0,"raw":"KSEA 080053Z 00000KT 10SM FEW040 BKN200 17/07 A3006 RMK AO2 SLP184 T01670072 $"},"webcam_url":"https://atmos.uw.edu/data/images/webcam2_latest.jpg","model_version":"latest"}}
{"started_at":"2026-05-08T01:35:55Z","finished_at":"2026-05-08T01:35:57Z","duration_seconds":2.000,"status":"ok","state":{"timestamp_utc":"2026-05-08T01:35:57Z","class_index":2,"class_name":"partial","is_out":true,"confidence":{"not_out":0.02925238572061062,"full":0.3265140652656555,"partial":0.6442335247993469},"weather":{"station":"KSEA","visibility_sm":10.0,"ceiling_ft":20000.0,"raw":"KSEA 080053Z 00000KT 10SM FEW040 BKN200 17/07 A3006 RMK AO2 SLP184 T01670072 $"},"webcam_url":"https://atmos.uw.edu/data/images/webcam2_latest.jpg","model_version":"latest"}}
{"started_at":"2026-05-08T01:51:01Z","finished_at":"2026-05-08T01:51:02Z","duration_seconds":1.000,"status":"ok","state":{"timestamp_utc":"2026-05-08T01:51:02Z","class_index":2,"class_name":"partial","is_out":true,"confidence":{"not_out":0.027414470911026,"full":0.1039435863494873,"partial":0.8686419129371643},"weather":{"station":"KSEA","visibility_sm":10.0,"ceiling_ft":20000.0,"raw":"KSEA 080053Z 00000KT 10SM FEW040 BKN200 17/07 A3006 RMK AO2 SLP184 T01670072 $"},"webcam_url":"https://atmos.uw.edu/data/images/webcam2_latest.jpg","model_version":"latest"}}
{"started_at":"2026-05-08T02:06:06Z","finished_at":"2026-05-08T02:06:07Z","duration_seconds":1.000,"status":"ok","state":{"timestamp_utc":"2026-05-08T02:06:07Z","class_index":2,"class_name":"partial","is_out":true,"confidence":{"not_out":0.023531414568424225,"full":0.2151263952255249,"partial":0.7613421678543091},"weather":{"station":"KSEA","visibility_sm":10.0,"ceiling_ft":23000.0,"raw":"KSEA 080153Z 28003KT 10SM FEW040 BKN230 17/07 A3004 RMK AO2 SLP179 T01720072 $"},"webcam_url":"https://atmos.uw.edu/data/images/webcam2_latest.jpg","model_version":"latest"}}
{"started_at":"2026-05-08T02:21:11Z","finished_at":"2026-05-08T02:21:13Z","duration_seconds":2.000,"status":"ok","state":{"timestamp_utc":"2026-05-08T02:21:13Z","class_index":2,"class_name":"partial","is_out":true,"confidence":{"not_out":0.03538684919476509,"full":0.041825320571660995,"partial":0.9227877855300903},"weather":{"station":"KSEA","visibility_sm":10.0,"ceiling_ft":23000.0,"raw":"KSEA 080153Z 28003KT 10SM FEW040 BKN230 17/07 A3004 RMK AO2 SLP179 T01720072 $"},"webcam_url":"https://atmos.uw.edu/data/images/webcam2_latest.jpg","model_version":"latest"}}
{"started_at":"2026-05-08T02:36:17Z","finished_at":"2026-05-08T02:36:19Z","duration_seconds":2.000,"status":"ok","state":{"timestamp_utc":"2026-05-08T02:36:19Z","class_index":2,"class_name":"partial","is_out":true,"confidence":{"not_out":0.08044809103012085,"full":0.02586240880191326,"partial":0.8936895728111267},"weather":{"station":"KSEA","visibility_sm":10.0,"ceiling_ft":23000.0,"raw":"KSEA 080153Z 28003KT 10SM FEW040 BKN230 17/07 A3004 RMK AO2 SLP179 T01720072 $"},"webcam_url":"https://atmos.uw.edu/data/images/webcam2_latest.jpg","model_version":"latest"}}
{"started_at":"2026-05-08T02:51:23Z","finished_at":"2026-05-08T02:51:25Z","duration_seconds":2.000,"status":"ok","state":{"timestamp_utc":"2026-05-08T02:51:25Z","class_index":2,"class_name":"partial","is_out":true,"confidence":{"not_out":0.01684328354895115,"full":0.16813991963863373,"partial":0.8150168061256409},"weather":{"station":"KSEA","visibility_sm":10.0,"ceiling_ft":23000.0,"raw":"KSEA 080153Z 28003KT 10SM FEW040 BKN230 17/07 A3004 RMK AO2 SLP179 T01720072 $"},"webcam_url":"https://atmos.uw.edu/data/images/webcam2_latest.jpg","model_version":"latest"}}
{"started_at":"2026-05-08T03:06:29Z","finished_at":"2026-05-08T03:06:31Z","duration_seconds":2.000,"status":"ok","state":{"timestamp_utc":"2026-05-08T03:06:31Z","class_index":1,"class_name":"full","is_out":true,"confidence":{"not_out":0.06744102388620377,"full":0.6609588265419006,"partial":0.2716001570224762},"weather":{"station":"KSEA","visibility_sm":10.0,"ceiling_ft":22000.0,"raw":"KSEA 080253Z 00000KT 10SM FEW030 FEW045 BKN220 16/08 A3003 RMK AO2 SLP175 T01610078 58011 $"},"webcam_url":"https://atmos.uw.edu/data/images/webcam2_latest.jpg","model_version":"latest"}}
{"started_at":"2026-05-08T03:21:35Z","finished_at":"2026-05-08T03:21:36Z","duration_seconds":1.000,"status":"ok","state":{"timestamp_utc":"2026-05-08T03:21:36Z","class_index":0,"class_name":"not_out","is_out":false,"confidence":{"not_out":0.9409677386283875,"full":0.01197179313749075,"partial":0.04706047847867012},"weather":{"station":"KSEA","visibility_sm":10.0,"ceiling_ft":22000.0,"raw":"KSEA 080253Z 00000KT 10SM FEW030 FEW045 BKN220 16/08 A3003 RMK AO2 SLP175 T01610078 58011 $"},"webcam_url":"https://atmos.uw.edu/data/images/webcam2_latest.jpg","model_version":"latest"}}
{"started_at":"2026-05-08T03:36:40Z","finished_at":"2026-05-08T03:36:44Z","duration_seconds":4.000,"status":"ok","state":{"timestamp_utc":"2026-05-08T03:36:44Z","class_index":2,"class_name":"partial","is_out":true,"confidence":{"not_out":0.4830624461174011,"full":0.023852292448282242,"partial":0.49308520555496216},"weather":{"station":"KSEA","visibility_sm":10.0,"ceiling_ft":22000.0,"raw":"KSEA 080253Z 00000KT 10SM FEW030 FEW045 BKN220 16/08 A3003 RMK AO2 SLP175 T01610078 58011 $"},"webcam_url":"https://atmos.uw.edu/data/images/webcam2_latest.jpg","model_version":"latest"}}
{"started_at":"2026-05-08T03:51:48Z","finished_at":"2026-05-08T03:51:50Z","duration_seconds":2.000,"status":"ok","state":{"timestamp_utc":"2026-05-08T03:51:50Z","class_index":2,"class_name":"partial","is_out":true,"confidence":{"not_out":0.4830624461174011,"full":0.023852292448282242,"partial":0.49308520555496216},"weather":{"station":"KSEA","visibility_sm":10.0,"ceiling_ft":22000.0,"raw":"KSEA 080253Z 00000KT 10SM FEW030 FEW045 BKN220 16/08 A3003 RMK AO2 SLP175 T01610078 58011 $"},"webcam_url":"https://atmos.uw.edu/data/images/webcam2_latest.jpg","model_version":"latest"}}
{"started_at":"2026-05-08T04:06:54Z","finished_at":"2026-05-08T04:06:56Z","duration_seconds":2.000,"status":"ok","state":{"timestamp_utc":"2026-05-08T04:06:56Z","class_index":2,"class_name":"partial","is_out":true,"confidence":{"not_out":0.4830624461174011,"full":0.023852292448282242,"partial":0.49308520555496216},"weather":{"station":"KSEA","visibility_sm":10.0,"ceiling_ft":25000.0,"raw":"KSEA 080353Z 04005KT 10SM FEW040 SCT200 BKN250 16/07 A3003 RMK AO2 SLP176 T01610067 $"},"webcam_url":"https://atmos.uw.edu/data/images/webcam2_latest.jpg","model_version":"latest"}}
{"started_at":"2026-05-08T04:22:00Z","finished_at":"2026-05-08T04:22:02Z","duration_seconds":2.000,"status":"ok","state":{"timestamp_utc":"2026-05-08T04:22:02Z","class_index":2,"class_name":"partial","is_out":true,"confidence":{"not_out":0.4830624461174011,"full":0.023852292448282242,"partial":0.49308520555496216},"weather":{"station":"KSEA","visibility_sm":10.0,"ceiling_ft":25000.0,"raw":"KSEA 080353Z 04005KT 10SM FEW040 SCT200 BKN250 16/07 A3003 RMK AO2 SLP176 T01610067 $"},"webcam_url":"https://atmos.uw.edu/data/images/webcam2_latest.jpg","model_version":"latest"}}
{"started_at":"2026-05-08T04:37:05Z","finished_at":"2026-05-08T04:37:08Z","duration_seconds":3.000,"status":"ok","state":{"timestamp_utc":"2026-05-08T04:37:07Z","class_index":2,"class_name":"partial","is_out":true,"confidence":{"not_out":0.4830624461174011,"full":0.023852292448282242,"partial":0.49308520555496216},"weather":{"station":"KSEA","visibility_sm":10.0,"ceiling_ft":25000.0,"raw":"KSEA 080353Z 04005KT 10SM FEW040 SCT200 BKN250 16/07 A3003 RMK AO2 SLP176 T01610067 $"},"webcam_url":"https://atmos.uw.edu/data/images/webcam2_latest.jpg","model_version":"latest"}}
{"started_at":"2026-05-08T04:52:13Z","finished_at":"2026-05-08T04:52:15Z","duration_seconds":2.000,"status":"ok","state":{"timestamp_utc":"2026-05-08T04:52:15Z","class_index":2,"class_name":"partial","is_out":true,"confidence":{"not_out":0.4830624461174011,"full":0.023852292448282242,"partial":0.49308520555496216},"weather":{"station":"KSEA","visibility_sm":10.0,"ceiling_ft":25000.0,"raw":"KSEA 080353Z 04005KT 10SM FEW040 SCT200 BKN250 16/07 A3003 RMK AO2 SLP176 T01610067 $"},"webcam_url":"https://atmos.uw.edu/data/images/webcam2_latest.jpg","model_version":"latest"}}
{"started_at":"2026-05-08T05:07:19Z","finished_at":"2026-05-08T05:07:21Z","duration_seconds":2.000,"status":"ok","state":{"timestamp_utc":"2026-05-08T05:07:21Z","class_index":0,"class_name":"not_out","is_out":false,"confidence":{"not_out":0.9916873574256897,"full":0.005980887915939093,"partial":0.0023317569866776466},"weather":{"station":"KSEA","visibility_sm":10.0,"ceiling_ft":25000.0,"raw":"KSEA 080453Z 04004KT 10SM FEW040 SCT200 BKN250 16/07 A3003 RMK AO2 SLP174 T01560067 $"},"webcam_url":"https://atmos.uw.edu/data/images/webcam2_latest.jpg","model_version":"latest"}}
{"started_at":"2026-05-08T05:22:24Z","finished_at":"2026-05-08T05:22:26Z","duration_seconds":3.000,"status":"ok","state":{"timestamp_utc":"2026-05-08T05:22:26Z","class_index":0,"class_name":"not_out","is_out":false,"confidence":{"not_out":0.9927707314491272,"full":0.004880927037447691,"partial":0.002348406007513404},"weather":{"station":"KSEA","visibility_sm":10.0,"ceiling_ft":25000.0,"raw":"KSEA 080453Z 04004KT 10SM FEW040 SCT200 BKN250 16/07 A3003 RMK AO2 SLP174 T01560067 $"},"webcam_url":"https://atmos.uw.edu/data/images/webcam2_latest.jpg","model_version":"latest"}}
{"started_at":"2026-05-08T05:37:30Z","finished_at":"2026-05-08T05:37:33Z","duration_seconds":3.000,"status":"ok","state":{"timestamp_utc":"2026-05-08T05:37:33Z","class_index":0,"class_name":"not_out","is_out":false,"confidence":{"not_out":0.9928083419799805,"full":0.005397047847509384,"partial":0.001794546260498464},"weather":{"station":"KSEA","visibility_sm":10.0,"ceiling_ft":25000.0,"raw":"KSEA 080453Z 04004KT 10SM FEW040 SCT200 BKN250 16/07 A3003 RMK AO2 SLP174 T01560067 $"},"webcam_url":"https://atmos.uw.edu/data/images/webcam2_latest.jpg","model_version":"latest"}}
{"started_at":"2026-05-08T05:52:37Z","finished_at":"2026-05-08T05:52:39Z","duration_seconds":2.000,"status":"ok","state":{"timestamp_utc":"2026-05-08T05:52:39Z","class_index":0,"class_name":"not_out","is_out":false,"confidence":{"not_out":0.9938192963600159,"full":0.004504451993852854,"partial":0.001676275278441608},"weather":{"station":"KSEA","visibility_sm":10.0,"ceiling_ft":25000.0,"raw":"KSEA 080453Z 04004KT 10SM FEW040 SCT200 BKN250 16/07 A3003 RMK AO2 SLP174 T01560067 $"},"webcam_url":"https://atmos.uw.edu/data/images/webcam2_latest.jpg","model_version":"latest"}}
{"started_at":"2026-05-08T06:07:42Z","finished_at":"2026-05-08T06:07:44Z","duration_seconds":2.000,"status":"ok","state":{"timestamp_utc":"2026-05-08T06:07:44Z","class_index":0,"class_name":"not_out","is_out":false,"confidence":{"not_out":0.9919252991676331,"full":0.005917110946029425,"partial":0.002157669747248292},"weather":{"station":"KSEA","visibility_sm":10.0,"ceiling_ft":null,"raw":"KSEA 080553Z 00000KT 10SM SCT250 14/07 A3003 RMK AO2 SLP174 T01440067 10178 20144 58001 $"},"webcam_url":"https://atmos.uw.edu/data/images/webcam2_latest.jpg","model_version":"latest"}}
{"started_at":"2026-05-08T06:22:48Z","finished_at":"2026-05-08T06:22:50Z","duration_seconds":2.000,"status":"ok","state":{"timestamp_utc":"2026-05-08T06:22:50Z","class_index":0,"class_name":"not_out","is_out":false,"confidence":{"not_out":0.9929498434066772,"full":0.005441797897219658,"partial":0.0016084351809695363},"weather":{"station":"KSEA","visibility_sm":10.0,"ceiling_ft":null,"raw":"KSEA 080553Z 00000KT 10SM SCT250 14/07 A3003 RMK AO2 SLP174 T01440067 10178 20144 58001 $"},"webcam_url":"https://atmos.uw.edu/data/images/webcam2_latest.jpg","model_version":"latest"}}
{"started_at":"2026-05-08T06:37:54Z","finished_at":"2026-05-08T06:37:57Z","duration_seconds":3.000,"status":"ok","state":{"timestamp_utc":"2026-05-08T06:37:57Z","class_index":0,"class_name":"not_out","is_out":false,"confidence":{"not_out":0.9920293092727661,"full":0.005739065818488598,"partial":0.002231512451544404},"weather":{"station":"KSEA","visibility_sm":10.0,"ceiling_ft":null,"raw":"KSEA 080553Z 00000KT 10SM SCT250 14/07 A3003 RMK AO2 SLP174 T01440067 10178 20144 58001 $"},"webcam_url":"https://atmos.uw.edu/data/images/webcam2_latest.jpg","model_version":"latest"}}
{"started_at":"2026-05-08T06:53:01Z","finished_at":"2026-05-08T06:53:03Z","duration_seconds":2.000,"status":"ok","state":{"timestamp_utc":"2026-05-08T06:53:03Z","class_index":0,"class_name":"not_out","is_out":false,"confidence":{"not_out":0.993341863155365,"full":0.00514818262308836,"partial":0.0015099556185305119},"weather":{"station":"KSEA","visibility_sm":10.0,"ceiling_ft":null,"raw":"KSEA 080553Z 00000KT 10SM SCT250 14/07 A3003 RMK AO2 SLP174 T01440067 10178 20144 58001 $"},"webcam_url":"https://atmos.uw.edu/data/images/webcam2_latest.jpg","model_version":"latest"}}
{"started_at":"2026-05-08T07:08:07Z","finished_at":"2026-05-08T07:08:09Z","duration_seconds":2.000,"status":"ok","state":{"timestamp_utc":"2026-05-08T07:08:09Z","class_index":0,"class_name":"not_out","is_out":false,"confidence":{"not_out":0.9935152530670166,"full":0.004509500693529844,"partial":0.0019752313382923603},"weather":{"station":"KSEA","visibility_sm":10.0,"ceiling_ft":20000.0,"raw":"KSEA 080653Z 19003KT 10SM BKN200 BKN250 13/07 A3002 RMK AO2 SLP173 T01330072 $"},"webcam_url":"https://atmos.uw.edu/data/images/webcam2_latest.jpg","model_version":"latest"}}
{"started_at":"2026-05-08T07:23:13Z","finished_at":"2026-05-08T07:23:15Z","duration_seconds":2.000,"status":"ok","state":{"timestamp_utc":"2026-05-08T07:23:15Z","class_index":0,"class_name":"not_out","is_out":false,"confidence":{"not_out":0.9950874447822571,"full":0.0038109072484076023,"partial":0.0011016897624358535},"weather":{"station":"KSEA","visibility_sm":10.0,"ceiling_ft":20000.0,"raw":"KSEA 080653Z 19003KT 10SM BKN200 BKN250 13/07 A3002 RMK AO2 SLP173 T01330072 $"},"webcam_url":"https://atmos.uw.edu/data/images/webcam2_latest.jpg","model_version":"latest"}}
{"started_at":"2026-05-08T07:38:19Z","finished_at":"2026-05-08T07:38:21Z","duration_seconds":2.000,"status":"ok","state":{"timestamp_utc":"2026-05-08T07:38:21Z","class_index":0,"class_name":"not_out","is_out":false,"confidence":{"not_out":0.9939365983009338,"full":0.004833469167351723,"partial":0.0012299824738875031},"weather":{"station":"KSEA","visibility_sm":10.0,"ceiling_ft":20000.0,"raw":"KSEA 080653Z 19003KT 10SM BKN200 BKN250 13/07 A3002 RMK AO2 SLP173 T01330072 $"},"webcam_url":"https://atmos.uw.edu/data/images/webcam2_latest.jpg","model_version":"latest"}}
{"started_at":"2026-05-08T07:53:25Z","finished_at":"2026-05-08T07:53:27Z","duration_seconds":2.000,"status":"ok","state":{"timestamp_utc":"2026-05-08T07:53:27Z","class_index":0,"class_name":"not_out","is_out":false,"confidence":{"not_out":0.9948251247406006,"full":0.003623289056122303,"partial":0.001551661523990333},"weather":{"station":"KSEA","visibility_sm":10.0,"ceiling_ft":20000.0,"raw":"KSEA 080653Z 19003KT 10SM BKN200 BKN250 13/07 A3002 RMK AO2 SLP173 T01330072 $"},"webcam_url":"https://atmos.uw.edu/data/images/webcam2_latest.jpg","model_version":"latest"}}
{"started_at":"2026-05-08T08:08:31Z","finished_at":"2026-05-08T08:08:33Z","duration_seconds":2.000,"status":"ok","state":{"timestamp_utc":"2026-05-08T08:08:33Z","class_index":0,"class_name":"not_out","is_out":false,"confidence":{"not_out":0.994270920753479,"full":0.004007297568023205,"partial":0.0017217897111549973},"weather":{"station":"KSEA","visibility_sm":10.0,"ceiling_ft":18000.0,"raw":"KSEA 080753Z 16004KT 10SM BKN180 BKN250 11/09 A3002 RMK AO2 SLP171 T01110089 401780100 $"},"webcam_url":"https://atmos.uw.edu/data/images/webcam2_latest.jpg","model_version":"latest"}}
{"started_at":"2026-05-08T08:23:37Z","finished_at":"2026-05-08T08:23:39Z","duration_seconds":2.000,"status":"ok","state":{"timestamp_utc":"2026-05-08T08:23:39Z","class_index":0,"class_name":"not_out","is_out":false,"confidence":{"not_out":0.9937777519226074,"full":0.004521241877228022,"partial":0.0017010223818942904},"weather":{"station":"KSEA","visibility_sm":10.0,"ceiling_ft":18000.0,"raw":"KSEA 080753Z 16004KT 10SM BKN180 BKN250 11/09 A3002 RMK AO2 SLP171 T01110089 401780100 $"},"webcam_url":"https://atmos.uw.edu/data/images/webcam2_latest.jpg","model_version":"latest"}}
{"started_at":"2026-05-08T08:38:43Z","finished_at":"2026-05-08T08:38:45Z","duration_seconds":2.000,"status":"ok","state":{"timestamp_utc":"2026-05-08T08:38:45Z","class_index":0,"class_name":"not_out","is_out":false,"confidence":{"not_out":0.9932945370674133,"full":0.005231985356658697,"partial":0.0014735435834154487},"weather":{"station":"KSEA","visibility_sm":10.0,"ceiling_ft":18000.0,"raw":"KSEA 080753Z 16004KT 10SM BKN180 BKN250 11/09 A3002 RMK AO2 SLP171 T01110089 401780100 $"},"webcam_url":"https://atmos.uw.edu/data/images/webcam2_latest.jpg","model_version":"latest"}}
{"started_at":"2026-05-08T08:53:49Z","finished_at":"2026-05-08T08:53:51Z","duration_seconds":2.000,"status":"ok","state":{"timestamp_utc":"2026-05-08T08:53:51Z","class_index":0,"class_name":"not_out","is_out":false,"confidence":{"not_out":0.9922803640365601,"full":0.0060951365157961845,"partial":0.0016245708102360368},"weather":{"station":"KSEA","visibility_sm":10.0,"ceiling_ft":18000.0,"raw":"KSEA 080753Z 16004KT 10SM BKN180 BKN250 11/09 A3002 RMK AO2 SLP171 T01110089 401780100 $"},"webcam_url":"https://atmos.uw.edu/data/images/webcam2_latest.jpg","model_version":"latest"}}
{"started_at":"2026-05-08T09:08:54Z","finished_at":"2026-05-08T09:08:57Z","duration_seconds":3.000,"status":"ok","state":{"timestamp_utc":"2026-05-08T09:08:57Z","class_index":0,"class_name":"not_out","is_out":false,"confidence":{"not_out":0.9942637085914612,"full":0.004088672809302807,"partial":0.0016476510791108012},"weather":{"station":"KSEA","visibility_sm":10.0,"ceiling_ft":19000.0,"raw":"KSEA 080853Z 19004KT 10SM OVC190 12/09 A3002 RMK AO2 SLP171 T01170089 55002 $"},"webcam_url":"https://atmos.uw.edu/data/images/webcam2_latest.jpg","model_version":"latest"}}
{"started_at":"2026-05-08T09:24:01Z","finished_at":"2026-05-08T09:24:03Z","duration_seconds":2.000,"status":"ok","state":{"timestamp_utc":"2026-05-08T09:24:03Z","class_index":0,"class_name":"not_out","is_out":false,"confidence":{"not_out":0.9936823844909668,"full":0.004756338894367218,"partial":0.0015613001305609941},"weather":{"station":"KSEA","visibility_sm":10.0,"ceiling_ft":19000.0,"raw":"KSEA 080853Z 19004KT 10SM OVC190 12/09 A3002 RMK AO2 SLP171 T01170089 55002 $"},"webcam_url":"https://atmos.uw.edu/data/images/webcam2_latest.jpg","model_version":"latest"}}
{"started_at":"2026-05-08T09:39:07Z","finished_at":"2026-05-08T09:39:09Z","duration_seconds":2.000,"status":"ok","state":{"timestamp_utc":"2026-05-08T09:39:09Z","class_index":0,"class_name":"not_out","is_out":false,"confidence":{"not_out":0.9928688406944275,"full":0.005790877155959606,"partial":0.0013403581688180566},"weather":{"station":"KSEA","visibility_sm":10.0,"ceiling_ft":19000.0,"raw":"KSEA 080853Z 19004KT 10SM OVC190 12/09 A3002 RMK AO2 SLP171 T01170089 55002 $"},"webcam_url":"https://atmos.uw.edu/data/images/webcam2_latest.jpg","model_version":"latest"}}
{"started_at":"2026-05-08T09:54:12Z","finished_at":"2026-05-08T09:54:14Z","duration_seconds":2.000,"status":"ok","state":{"timestamp_utc":"2026-05-08T09:54:14Z","class_index":0,"class_name":"not_out","is_out":false,"confidence":{"not_out":0.9952729344367981,"full":0.0034171126317232847,"partial":0.0013099168427288532},"weather":{"station":"KSEA","visibility_sm":10.0,"ceiling_ft":19000.0,"raw":"KSEA 080853Z 19004KT 10SM OVC190 12/09 A3002 RMK AO2 SLP171 T01170089 55002 $"},"webcam_url":"https://atmos.uw.edu/data/images/webcam2_latest.jpg","model_version":"latest"}}
{"started_at":"2026-05-08T10:09:18Z","finished_at":"2026-05-08T10:09:20Z","duration_seconds":2.000,"status":"ok","state":{"timestamp_utc":"2026-05-08T10:09:20Z","class_index":0,"class_name":"not_out","is_out":false,"confidence":{"not_out":0.9950892329216003,"full":0.0033809030428528786,"partial":0.001529859728179872},"weather":{"station":"KSEA","visibility_sm":10.0,"ceiling_ft":25000.0,"raw":"KSEA 080953Z 18005KT 10SM SCT190 OVC250 10/08 A3002 RMK AO2 SLP172 T01000083 $"},"webcam_url":"https://atmos.uw.edu/data/images/webcam2_latest.jpg","model_version":"latest"}}
{"started_at":"2026-05-08T10:24:24Z","finished_at":"2026-05-08T10:24:27Z","duration_seconds":3.000,"status":"ok","state":{"timestamp_utc":"2026-05-08T10:24:27Z","class_index":0,"class_name":"not_out","is_out":false,"confidence":{"not_out":0.9912109375,"full":0.005995865445584059,"partial":0.0027931947261095047},"weather":{"station":"KSEA","visibility_sm":10.0,"ceiling_ft":25000.0,"raw":"KSEA 080953Z 18005KT 10SM SCT190 OVC250 10/08 A3002 RMK AO2 SLP172 T01000083 $"},"webcam_url":"https://atmos.uw.edu/data/images/webcam2_latest.jpg","model_version":"latest"}}
{"started_at":"2026-05-08T10:39:30Z","finished_at":"2026-05-08T10:39:32Z","duration_seconds":2.000,"status":"ok","state":{"timestamp_utc":"2026-05-08T10:39:32Z","class_index":0,"class_name":"not_out","is_out":false,"confidence":{"not_out":0.9943482279777527,"full":0.004588418640196323,"partial":0.0010634070495143533},"weather":{"station":"KSEA","visibility_sm":10.0,"ceiling_ft":25000.0,"raw":"KSEA 080953Z 18005KT 10SM SCT190 OVC250 10/08 A3002 RMK AO2 SLP172 T01000083 $"},"webcam_url":"https://atmos.uw.edu/data/images/webcam2_latest.jpg","model_version":"latest"}}
{"started_at":"2026-05-08T10:54:36Z","finished_at":"2026-05-08T10:54:38Z","duration_seconds":2.000,"status":"ok","state":{"timestamp_utc":"2026-05-08T10:54:38Z","class_index":0,"class_name":"not_out","is_out":false,"confidence":{"not_out":0.9923908114433289,"full":0.006156543269753456,"partial":0.0014526040758937597},"weather":{"station":"KSEA","visibility_sm":10.0,"ceiling_ft":25000.0,"raw":"KSEA 080953Z 18005KT 10SM SCT190 OVC250 10/08 A3002 RMK AO2 SLP172 T01000083 $"},"webcam_url":"https://atmos.uw.edu/data/images/webcam2_latest.jpg","model_version":"latest"}}
{"started_at":"2026-05-08T11:09:42Z","finished_at":"2026-05-08T11:09:44Z","duration_seconds":2.000,"status":"ok","state":{"timestamp_utc":"2026-05-08T11:09:44Z","class_index":0,"class_name":"not_out","is_out":false,"confidence":{"not_out":0.990105926990509,"full":0.007453517988324165,"partial":0.0024405894801020622},"weather":{"station":"KSEA","visibility_sm":10.0,"ceiling_ft":19000.0,"raw":"KSEA 081053Z 19006KT 10SM BKN190 OVC230 10/08 A3003 RMK AO2 SLP175 T01000078 $"},"webcam_url":"https://atmos.uw.edu/data/images/webcam2_latest.jpg","model_version":"latest"}}
{"started_at":"2026-05-08T11:24:48Z","finished_at":"2026-05-08T11:24:51Z","duration_seconds":3.000,"status":"ok","state":{"timestamp_utc":"2026-05-08T11:24:51Z","class_index":0,"class_name":"not_out","is_out":false,"confidence":{"not_out":0.9920603036880493,"full":0.005937575362622738,"partial":0.002002070192247629},"weather":{"station":"KSEA","visibility_sm":10.0,"ceiling_ft":19000.0,"raw":"KSEA 081053Z 19006KT 10SM BKN190 OVC230 10/08 A3003 RMK AO2 SLP175 T01000078 $"},"webcam_url":"https://atmos.uw.edu/data/images/webcam2_latest.jpg","model_version":"latest"}}
{"started_at":"2026-05-08T11:39:54Z","finished_at":"2026-05-08T11:39:57Z","duration_seconds":3.000,"status":"ok","state":{"timestamp_utc":"2026-05-08T11:39:57Z","class_index":0,"class_name":"not_out","is_out":false,"confidence":{"not_out":0.990125298500061,"full":0.0077949222177267075,"partial":0.0020797245670109987},"weather":{"station":"KSEA","visibility_sm":10.0,"ceiling_ft":19000.0,"raw":"KSEA 081053Z 19006KT 10SM BKN190 OVC230 10/08 A3003 RMK AO2 SLP175 T01000078 $"},"webcam_url":"https://atmos.uw.edu/data/images/webcam2_latest.jpg","model_version":"latest"}}
{"started_at":"2026-05-08T11:55:00Z","finished_at":"2026-05-08T11:55:03Z","duration_seconds":3.000,"status":"ok","state":{"timestamp_utc":"2026-05-08T11:55:03Z","class_index":0,"class_name":"not_out","is_out":false,"confidence":{"not_out":0.9932992458343506,"full":0.0047186994925141335,"partial":0.001982075395062566},"weather":{"station":"KSEA","visibility_sm":10.0,"ceiling_ft":19000.0,"raw":"KSEA 081053Z 19006KT 10SM BKN190 OVC230 10/08 A3003 RMK AO2 SLP175 T01000078 $"},"webcam_url":"https://atmos.uw.edu/data/images/webcam2_latest.jpg","model_version":"latest"}}
{"started_at":"2026-05-08T12:10:06Z","finished_at":"2026-05-08T12:10:08Z","duration_seconds":2.000,"status":"ok","state":{"timestamp_utc":"2026-05-08T12:10:08Z","class_index":0,"class_name":"not_out","is_out":false,"confidence":{"not_out":0.9239232540130615,"full":0.01327644381672144,"partial":0.06280026584863663},"weather":{"station":"KSEA","visibility_sm":10.0,"ceiling_ft":19000.0,"raw":"KSEA 081153Z 20006KT 10SM BKN190 BKN210 10/07 A3005 RMK AO2 SLP181 T01000072 10144 20094 53008 $"},"webcam_url":"https://atmos.uw.edu/data/images/webcam2_latest.jpg","model_version":"latest"}}
{"started_at":"2026-05-08T12:25:12Z","finished_at":"2026-05-08T12:25:14Z","duration_seconds":2.000,"status":"ok","state":{"timestamp_utc":"2026-05-08T12:25:14Z","class_index":0,"class_name":"not_out","is_out":false,"confidence":{"not_out":0.7972773909568787,"full":0.012555792927742004,"partial":0.19016680121421814},"weather":{"station":"KSEA","visibility_sm":10.0,"ceiling_ft":19000.0,"raw":"KSEA 081153Z 20006KT 10SM BKN190 BKN210 10/07 A3005 RMK AO2 SLP181 T01000072 10144 20094 53008 $"},"webcam_url":"https://atmos.uw.edu/data/images/webcam2_latest.jpg","model_version":"latest"}}
{"started_at":"2026-05-08T12:40:18Z","finished_at":"2026-05-08T12:40:20Z","duration_seconds":2.000,"status":"ok","state":{"timestamp_utc":"2026-05-08T12:40:20Z","class_index":0,"class_name":"not_out","is_out":false,"confidence":{"not_out":0.9504094123840332,"full":0.0008899901295080781,"partial":0.04870067536830902},"weather":{"station":"KSEA","visibility_sm":10.0,"ceiling_ft":19000.0,"raw":"KSEA 081153Z 20006KT 10SM BKN190 BKN210 10/07 A3005 RMK AO2 SLP181 T01000072 10144 20094 53008 $"},"webcam_url":"https://atmos.uw.edu/data/images/webcam2_latest.jpg","model_version":"latest"}}
{"started_at":"2026-05-08T12:55:24Z","finished_at":"2026-05-08T12:55:26Z","duration_seconds":2.000,"status":"ok","state":{"timestamp_utc":"2026-05-08T12:55:26Z","class_index":0,"class_name":"not_out","is_out":false,"confidence":{"not_out":0.8945155143737793,"full":0.01792791858315468,"partial":0.08755658566951752},"weather":{"station":"KSEA","visibility_sm":10.0,"ceiling_ft":19000.0,"raw":"KSEA 081153Z 20006KT 10SM BKN190 BKN210 10/07 A3005 RMK AO2 SLP181 T01000072 10144 20094 53008 $"},"webcam_url":"https://atmos.uw.edu/data/images/webcam2_latest.jpg","model_version":"latest"}}
{"started_at":"2026-05-08T13:10:29Z","finished_at":"2026-05-08T13:10:31Z","duration_seconds":2.000,"status":"ok","state":{"timestamp_utc":"2026-05-08T13:10:31Z","class_index":0,"class_name":"not_out","is_out":false,"confidence":{"not_out":0.9956130981445312,"full":0.0028828391805291176,"partial":0.001503977575339377},"weather":{"station":"KSEA","visibility_sm":10.0,"ceiling_ft":20000.0,"raw":"KSEA 081253Z 19010KT 10SM BKN200 09/07 A3006 RMK AO2 SLP184 T00940067 $"},"webcam_url":"https://atmos.uw.edu/data/images/webcam2_latest.jpg","model_version":"latest"}}
{"started_at":"2026-05-08T13:25:35Z","finished_at":"2026-05-08T13:25:37Z","duration_seconds":2.000,"status":"ok","state":{"timestamp_utc":"2026-05-08T13:25:37Z","class_index":0,"class_name":"not_out","is_out":false,"confidence":{"not_out":0.9967869520187378,"full":0.0022762464359402657,"partial":0.0009368108585476875},"weather":{"station":"KSEA","visibility_sm":10.0,"ceiling_ft":20000.0,"raw":"KSEA 081253Z 19010KT 10SM BKN200 09/07 A3006 RMK AO2 SLP184 T00940067 $"},"webcam_url":"https://atmos.uw.edu/data/images/webcam2_latest.jpg","model_version":"latest"}}
{"started_at":"2026-05-08T13:40:41Z","finished_at":"2026-05-08T13:40:43Z","duration_seconds":2.000,"status":"ok","state":{"timestamp_utc":"2026-05-08T13:40:43Z","class_index":0,"class_name":"not_out","is_out":false,"confidence":{"not_out":0.9906768798828125,"full":0.007081479765474796,"partial":0.002241667592898011},"weather":{"station":"KSEA","visibility_sm":10.0,"ceiling_ft":20000.0,"raw":"KSEA 081253Z 19010KT 10SM BKN200 09/07 A3006 RMK AO2 SLP184 T00940067 $"},"webcam_url":"https://atmos.uw.edu/data/images/webcam2_latest.jpg","model_version":"latest"}}
{"started_at":"2026-05-08T13:55:47Z","finished_at":"2026-05-08T13:55:49Z","duration_seconds":2.000,"status":"ok","state":{"timestamp_utc":"2026-05-08T13:55:49Z","class_index":0,"class_name":"not_out","is_out":false,"confidence":{"not_out":0.9889729619026184,"full":0.0007199525716714561,"partial":0.01030711829662323},"weather":{"station":"KSEA","visibility_sm":10.0,"ceiling_ft":20000.0,"raw":"KSEA 081353Z 19009KT 10SM FEW015 BKN200 BKN250 09/07 A3008 RMK AO2 SLP193 T00940067"},"webcam_url":"https://atmos.uw.edu/data/images/webcam2_latest.jpg","model_version":"latest"}}
{"started_at":"2026-05-08T14:10:53Z","finished_at":"2026-05-08T14:10:54Z","duration_seconds":1.000,"status":"ok","state":{"timestamp_utc":"2026-05-08T14:10:54Z","class_index":0,"class_name":"not_out","is_out":false,"confidence":{"not_out":0.9181808829307556,"full":0.0025913375429809093,"partial":0.07922776788473129},"weather":{"station":"KSEA","visibility_sm":10.0,"ceiling_ft":20000.0,"raw":"KSEA 081353Z 19009KT 10SM FEW015 BKN200 BKN250 09/07 A3008 RMK AO2 SLP193 T00940067"},"webcam_url":"https://atmos.uw.edu/data/images/webcam2_latest.jpg","model_version":"latest"}}
{"started_at":"2026-05-08T14:25:59Z","finished_at":"2026-05-08T14:26:01Z","duration_seconds":2.000,"status":"ok","state":{"timestamp_utc":"2026-05-08T14:26:01Z","class_index":0,"class_name":"not_out","is_out":false,"confidence":{"not_out":0.9678748250007629,"full":0.010676363483071327,"partial":0.021448802202939987},"weather":{"station":"KSEA","visibility_sm":10.0,"ceiling_ft":20000.0,"raw":"KSEA 081353Z 19009KT 10SM FEW015 BKN200 BKN250 09/07 A3008 RMK AO2 SLP193 T00940067"},"webcam_url":"https://atmos.uw.edu/data/images/webcam2_latest.jpg","model_version":"latest"}}
{"started_at":"2026-05-08T14:41:05Z","finished_at":"2026-05-08T14:41:07Z","duration_seconds":2.000,"status":"ok","state":{"timestamp_utc":"2026-05-08T14:41:07Z","class_index":0,"class_name":"not_out","is_out":false,"confidence":{"not_out":0.994125247001648,"full":0.00235322886146605,"partial":0.0035214810632169247},"weather":{"station":"KSEA","visibility_sm":10.0,"ceiling_ft":20000.0,"raw":"KSEA 081353Z 19009KT 10SM FEW015 BKN200 BKN250 09/07 A3008 RMK AO2 SLP193 T00940067"},"webcam_url":"https://atmos.uw.edu/data/images/webcam2_latest.jpg","model_version":"latest"}}
{"started_at":"2026-05-08T14:56:11Z","finished_at":"2026-05-08T14:56:13Z","duration_seconds":2.000,"status":"ok","state":{"timestamp_utc":"2026-05-08T14:56:13Z","class_index":0,"class_name":"not_out","is_out":false,"confidence":{"not_out":0.9540092349052429,"full":0.034035518765449524,"partial":0.011955330148339272},"weather":{"station":"KSEA","visibility_sm":10.0,"ceiling_ft":10000.0,"raw":"KSEA 081453Z 19009KT 10SM FEW015 SCT027 BKN100 BKN210 10/06 A3011 RMK AO2 SLP203 T01000061 53022"},"webcam_url":"https://atmos.uw.edu/data/images/webcam2_latest.jpg","model_version":"latest"}}
{"started_at":"2026-05-08T15:11:17Z","finished_at":"2026-05-08T15:11:38Z","duration_seconds":22.000,"status":"error","error":{"type":"InferenceCallFailed","message":"inference call failed (curl_exit=0, http=500): {\"detail\":\"ReadTimeout: HTTPSConnectionPool(host='atmos.uw.edu', port=443): Read timed out. (read timeout=20.0)\"}"}}
{"started_at":"2026-05-08T15:26:43Z","finished_at":"2026-05-08T15:26:45Z","duration_seconds":2.000,"status":"ok","state":{"timestamp_utc":"2026-05-08T15:26:45Z","class_index":0,"class_name":"not_out","is_out":false,"confidence":{"not_out":0.9948363304138184,"full":0.000022630081730312668,"partial":0.0051410011947155},"weather":{"station":"KSEA","visibility_sm":10.0,"ceiling_ft":10000.0,"raw":"KSEA 081453Z 19009KT 10SM FEW015 SCT027 BKN100 BKN210 10/06 A3011 RMK AO2 SLP203 T01000061 53022"},"webcam_url":"https://atmos.uw.edu/data/images/webcam2_latest.jpg","model_version":"latest"}}
{"started_at":"2026-05-08T15:41:49Z","finished_at":"2026-05-08T15:41:51Z","duration_seconds":2.000,"status":"ok","state":{"timestamp_utc":"2026-05-08T15:41:51Z","class_index":0,"class_name":"not_out","is_out":false,"confidence":{"not_out":0.999721109867096,"full":0.000007492760687455302,"partial":0.00027130485977977514},"weather":{"station":"KSEA","visibility_sm":10.0,"ceiling_ft":10000.0,"raw":"KSEA 081453Z 19009KT 10SM FEW015 SCT027 BKN100 BKN210 10/06 A3011 RMK AO2 SLP203 T01000061 53022"},"webcam_url":"https://atmos.uw.edu/data/images/webcam2_latest.jpg","model_version":"latest"}}
{"started_at":"2026-05-08T15:56:55Z","finished_at":"2026-05-08T15:56:57Z","duration_seconds":2.000,"status":"ok","state":{"timestamp_utc":"2026-05-08T15:56:57Z","class_index":0,"class_name":"not_out","is_out":false,"confidence":{"not_out":0.9989816546440125,"full":0.000010662897693691775,"partial":0.0010076365433633327},"weather":{"station":"KSEA","visibility_sm":10.0,"ceiling_ft":3500.0,"raw":"KSEA 081553Z 19010KT 10SM SCT019 BKN035 OVC200 11/06 A3011 RMK AO2 SLP203 T01110056"},"webcam_url":"https://atmos.uw.edu/data/images/webcam2_latest.jpg","model_version":"latest"}}
{"started_at":"2026-05-08T16:12:01Z","finished_at":"2026-05-08T16:12:03Z","duration_seconds":2.000,"status":"ok","state":{"timestamp_utc":"2026-05-08T16:12:03Z","class_index":0,"class_name":"not_out","is_out":false,"confidence":{"not_out":0.9975259900093079,"full":0.00001617809903109446,"partial":0.002457884605973959},"weather":{"station":"KSEA","visibility_sm":10.0,"ceiling_ft":3500.0,"raw":"KSEA 081553Z 19010KT 10SM SCT019 BKN035 OVC200 11/06 A3011 RMK AO2 SLP203 T01110056"},"webcam_url":"https://atmos.uw.edu/data/images/webcam2_latest.jpg","model_version":"latest"}}
{"started_at":"2026-05-08T16:27:07Z","finished_at":"2026-05-08T16:27:10Z","duration_seconds":3.000,"status":"ok","state":{"timestamp_utc":"2026-05-08T16:27:10Z","class_index":0,"class_name":"not_out","is_out":false,"confidence":{"not_out":0.9999239444732666,"full":0.000003943171577702742,"partial":0.00007207650924101472},"weather":{"station":"KSEA","visibility_sm":10.0,"ceiling_ft":3500.0,"raw":"KSEA 081553Z 19010KT 10SM SCT019 BKN035 OVC200 11/06 A3011 RMK AO2 SLP203 T01110056"},"webcam_url":"https://atmos.uw.edu/data/images/webcam2_latest.jpg","model_version":"latest"}}
{"started_at":"2026-05-08T16:42:14Z","finished_at":"2026-05-08T16:42:16Z","duration_seconds":2.000,"status":"ok","state":{"timestamp_utc":"2026-05-08T16:42:16Z","class_index":0,"class_name":"not_out","is_out":false,"confidence":{"not_out":0.9986553192138672,"full":0.000042427262087585405,"partial":0.0013022528728470206},"weather":{"station":"KSEA","visibility_sm":10.0,"ceiling_ft":3500.0,"raw":"KSEA 081553Z 19010KT 10SM SCT019 BKN035 OVC200 11/06 A3011 RMK AO2 SLP203 T01110056"},"webcam_url":"https://atmos.uw.edu/data/images/webcam2_latest.jpg","model_version":"latest"}}
{"started_at":"2026-05-08T16:57:20Z","finished_at":"2026-05-08T16:57:22Z","duration_seconds":2.000,"status":"ok","state":{"timestamp_utc":"2026-05-08T16:57:22Z","class_index":0,"class_name":"not_out","is_out":false,"confidence":{"not_out":0.9996292591094971,"full":0.0000011427515573814162,"partial":0.00036948523484170437},"weather":{"station":"KSEA","visibility_sm":10.0,"ceiling_ft":3000.0,"raw":"KSEA 081653Z 20008KT 10SM FEW020 BKN030 BKN200 11/06 A3012 RMK AO2 SLP207 T01060056"},"webcam_url":"https://atmos.uw.edu/data/images/webcam2_latest.jpg","model_version":"latest"}}
{"started_at":"2026-05-08T17:12:26Z","finished_at":"2026-05-08T17:12:28Z","duration_seconds":2.000,"status":"ok","state":{"timestamp_utc":"2026-05-08T17:12:28Z","class_index":0,"class_name":"not_out","is_out":false,"confidence":{"not_out":0.9906684756278992,"full":0.000025433539121877402,"partial":0.009306197986006737},"weather":{"station":"KSEA","visibility_sm":10.0,"ceiling_ft":2700.0,"raw":"KSEA 081700Z 19008KT 10SM SCT022 BKN027 BKN200 11/06 A3012 RMK AO2 T01110061"},"webcam_url":"https://atmos.uw.edu/data/images/webcam2_latest.jpg","model_version":"latest"}}
{"started_at":"2026-05-08T17:27:33Z","finished_at":"2026-05-08T17:27:35Z","duration_seconds":2.000,"status":"ok","state":{"timestamp_utc":"2026-05-08T17:27:35Z","class_index":0,"class_name":"not_out","is_out":false,"confidence":{"not_out":0.9777414202690125,"full":0.000016608139048912562,"partial":0.022242004051804543},"weather":{"station":"KSEA","visibility_sm":10.0,"ceiling_ft":2700.0,"raw":"KSEA 081700Z 19008KT 10SM SCT022 BKN027 BKN200 11/06 A3012 RMK AO2 T01110061"},"webcam_url":"https://atmos.uw.edu/data/images/webcam2_latest.jpg","model_version":"latest"}}
{"started_at":"2026-05-08T17:42:38Z","finished_at":"2026-05-08T17:42:40Z","duration_seconds":2.000,"status":"ok","state":{"timestamp_utc":"2026-05-08T17:42:40Z","class_index":0,"class_name":"not_out","is_out":false,"confidence":{"not_out":0.9773312211036682,"full":0.000012529275409178808,"partial":0.022656140848994255},"weather":{"station":"KSEA","visibility_sm":10.0,"ceiling_ft":2700.0,"raw":"KSEA 081700Z 19008KT 10SM SCT022 BKN027 BKN200 11/06 A3012 RMK AO2 T01110061"},"webcam_url":"https://atmos.uw.edu/data/images/webcam2_latest.jpg","model_version":"latest"}}
{"started_at":"2026-05-08T17:57:44Z","finished_at":"2026-05-08T17:57:46Z","duration_seconds":2.000,"status":"ok","state":{"timestamp_utc":"2026-05-08T17:57:46Z","class_index":0,"class_name":"not_out","is_out":false,"confidence":{"not_out":0.9853106737136841,"full":0.000014468817425949965,"partial":0.014674869365990162},"weather":{"station":"KSEA","visibility_sm":10.0,"ceiling_ft":2700.0,"raw":"KSEA 081753Z 22010KT 10SM BKN027 OVC200 12/06 A3014 RMK AO2 SLP213 T01220056 10122 20094 53010"},"webcam_url":"https://atmos.uw.edu/data/images/webcam2_latest.jpg","model_version":"latest"}}
{"started_at":"2026-05-08T18:12:50Z","finished_at":"2026-05-08T18:12:52Z","duration_seconds":2.000,"status":"ok","state":{"timestamp_utc":"2026-05-08T18:12:52Z","class_index":0,"class_name":"not_out","is_out":false,"confidence":{"not_out":0.8759629130363464,"full":0.000035194589145248756,"partial":0.12400186061859131},"weather":{"station":"KSEA","visibility_sm":10.0,"ceiling_ft":2700.0,"raw":"KSEA 081753Z 22010KT 10SM BKN027 OVC200 12/06 A3014 RMK AO2 SLP213 T01220056 10122 20094 53010"},"webcam_url":"https://atmos.uw.edu/data/images/webcam2_latest.jpg","model_version":"latest"}}
{"started_at":"2026-05-08T18:27:56Z","finished_at":"2026-05-08T18:27:58Z","duration_seconds":3.000,"status":"ok","state":{"timestamp_utc":"2026-05-08T18:27:58Z","class_index":0,"class_name":"not_out","is_out":false,"confidence":{"not_out":0.992060661315918,"full":0.000007399849891953636,"partial":0.007931831292808056},"weather":{"station":"KSEA","visibility_sm":10.0,"ceiling_ft":2700.0,"raw":"KSEA 081753Z 22010KT 10SM BKN027 OVC200 12/06 A3014 RMK AO2 SLP213 T01220056 10122 20094 53010"},"webcam_url":"https://atmos.uw.edu/data/images/webcam2_latest.jpg","model_version":"latest"}}
{"started_at":"2026-05-08T18:43:03Z","finished_at":"2026-05-08T18:43:05Z","duration_seconds":2.000,"status":"ok","state":{"timestamp_utc":"2026-05-08T18:43:05Z","class_index":0,"class_name":"not_out","is_out":false,"confidence":{"not_out":0.9823684096336365,"full":0.000016960491848294623,"partial":0.01761454902589321},"weather":{"station":"KSEA","visibility_sm":10.0,"ceiling_ft":2700.0,"raw":"KSEA 081753Z 22010KT 10SM BKN027 OVC200 12/06 A3014 RMK AO2 SLP213 T01220056 10122 20094 53010"},"webcam_url":"https://atmos.uw.edu/data/images/webcam2_latest.jpg","model_version":"latest"}}
{"started_at":"2026-05-08T18:58:09Z","finished_at":"2026-05-08T18:58:11Z","duration_seconds":2.000,"status":"ok","state":{"timestamp_utc":"2026-05-08T18:58:11Z","class_index":0,"class_name":"not_out","is_out":false,"confidence":{"not_out":0.9611926674842834,"full":0.000014771507267141715,"partial":0.03879254311323166},"weather":{"station":"KSEA","visibility_sm":10.0,"ceiling_ft":3500.0,"raw":"KSEA 081853Z 22014KT 10SM SCT029 BKN035 12/05 A3016 RMK AO2 SLP219 T01220050"},"webcam_url":"https://atmos.uw.edu/data/images/webcam2_latest.jpg","model_version":"latest"}}
{"started_at":"2026-05-08T19:13:16Z","finished_at":"2026-05-08T19:13:18Z","duration_seconds":2.000,"status":"ok","state":{"timestamp_utc":"2026-05-08T19:13:18Z","class_index":0,"class_name":"not_out","is_out":false,"confidence":{"not_out":0.9236527681350708,"full":0.00008275274012703449,"partial":0.07626442611217499},"weather":{"station":"KSEA","visibility_sm":10.0,"ceiling_ft":3500.0,"raw":"KSEA 081853Z 22014KT 10SM SCT029 BKN035 12/05 A3016 RMK AO2 SLP219 T01220050"},"webcam_url":"https://atmos.uw.edu/data/images/webcam2_latest.jpg","model_version":"latest"}}
{"started_at":"2026-05-08T19:28:22Z","finished_at":"2026-05-08T19:28:24Z","duration_seconds":2.000,"status":"ok","state":{"timestamp_utc":"2026-05-08T19:28:24Z","class_index":0,"class_name":"not_out","is_out":false,"confidence":{"not_out":0.9081677794456482,"full":0.000020932722691213712,"partial":0.09181130677461624},"weather":{"station":"KSEA","visibility_sm":10.0,"ceiling_ft":3500.0,"raw":"KSEA 081853Z 22014KT 10SM SCT029 BKN035 12/05 A3016 RMK AO2 SLP219 T01220050"},"webcam_url":"https://atmos.uw.edu/data/images/webcam2_latest.jpg","model_version":"latest"}}
{"started_at":"2026-05-08T19:43:28Z","finished_at":"2026-05-08T19:43:30Z","duration_seconds":2.000,"status":"ok","state":{"timestamp_utc":"2026-05-08T19:43:30Z","class_index":0,"class_name":"not_out","is_out":false,"confidence":{"not_out":0.9620953798294067,"full":0.00004062973675900139,"partial":0.037863969802856445},"weather":{"station":"KSEA","visibility_sm":10.0,"ceiling_ft":3500.0,"raw":"KSEA 081853Z 22014KT 10SM SCT029 BKN035 12/05 A3016 RMK AO2 SLP219 T01220050"},"webcam_url":"https://atmos.uw.edu/data/images/webcam2_latest.jpg","model_version":"latest"}}
{"started_at":"2026-05-08T19:58:34Z","finished_at":"2026-05-08T19:58:36Z","duration_seconds":2.000,"status":"ok","state":{"timestamp_utc":"2026-05-08T19:58:36Z","class_index":0,"class_name":"not_out","is_out":false,"confidence":{"not_out":0.8617885112762451,"full":0.0005100347916595638,"partial":0.13770145177841187},"weather":{"station":"KSEA","visibility_sm":10.0,"ceiling_ft":14000.0,"raw":"KSEA 081953Z 21013G20KT 10SM SCT032 BKN140 14/05 A3016 RMK AO2 SLP221 T01390050"},"webcam_url":"https://atmos.uw.edu/data/images/webcam2_latest.jpg","model_version":"latest"}}
{"started_at":"2026-05-08T20:13:40Z","finished_at":"2026-05-08T20:13:43Z","duration_seconds":3.000,"status":"ok","state":{"timestamp_utc":"2026-05-08T20:13:43Z","class_index":0,"class_name":"not_out","is_out":false,"confidence":{"not_out":0.9461838006973267,"full":0.00014548683247994632,"partial":0.05367070436477661},"weather":{"station":"KSEA","visibility_sm":10.0,"ceiling_ft":14000.0,"raw":"KSEA 081953Z 21013G20KT 10SM SCT032 BKN140 14/05 A3016 RMK AO2 SLP221 T01390050"},"webcam_url":"https://atmos.uw.edu/data/images/webcam2_latest.jpg","model_version":"latest"}}
{"started_at":"2026-05-08T20:28:47Z","finished_at":"2026-05-08T20:28:49Z","duration_seconds":2.000,"status":"ok","state":{"timestamp_utc":"2026-05-08T20:28:49Z","class_index":0,"class_name":"not_out","is_out":false,"confidence":{"not_out":0.7520928978919983,"full":0.0014687437796965241,"partial":0.24643830955028534},"weather":{"station":"KSEA","visibility_sm":10.0,"ceiling_ft":14000.0,"raw":"KSEA 081953Z 21013G20KT 10SM SCT032 BKN140 14/05 A3016 RMK AO2 SLP221 T01390050"},"webcam_url":"https://atmos.uw.edu/data/images/webcam2_latest.jpg","model_version":"latest"}}
{"started_at":"2026-05-08T20:43:54Z","finished_at":"2026-05-08T20:43:56Z","duration_seconds":2.000,"status":"ok","state":{"timestamp_utc":"2026-05-08T20:43:56Z","class_index":0,"class_name":"not_out","is_out":false,"confidence":{"not_out":0.849841833114624,"full":0.0009492693934589624,"partial":0.14920887351036072},"weather":{"station":"KSEA","visibility_sm":10.0,"ceiling_ft":14000.0,"raw":"KSEA 081953Z 21013G20KT 10SM SCT032 BKN140 14/05 A3016 RMK AO2 SLP221 T01390050"},"webcam_url":"https://atmos.uw.edu/data/images/webcam2_latest.jpg","model_version":"latest"}}
{"started_at":"2026-05-08T20:58:59Z","finished_at":"2026-05-08T20:59:01Z","duration_seconds":2.000,"status":"ok","state":{"timestamp_utc":"2026-05-08T20:59:01Z","class_index":0,"class_name":"not_out","is_out":false,"confidence":{"not_out":0.8875439167022705,"full":0.00024860157282091677,"partial":0.11220745742321014},"weather":{"station":"KSEA","visibility_sm":10.0,"ceiling_ft":12000.0,"raw":"KSEA 082053Z 20013KT 10SM SCT035 BKN120 BKN250 16/06 A3017 RMK AO2 SLP222 T01560056 51009"},"webcam_url":"https://atmos.uw.edu/data/images/webcam2_latest.jpg","model_version":"latest"}}
{"started_at":"2026-05-08T21:14:05Z","finished_at":"2026-05-08T21:14:07Z","duration_seconds":2.000,"status":"ok","state":{"timestamp_utc":"2026-05-08T21:14:07Z","class_index":0,"class_name":"not_out","is_out":false,"confidence":{"not_out":0.9350811243057251,"full":0.0022048926912248135,"partial":0.06271400302648544},"weather":{"station":"KSEA","visibility_sm":10.0,"ceiling_ft":12000.0,"raw":"KSEA 082053Z 20013KT 10SM SCT035 BKN120 BKN250 16/06 A3017 RMK AO2 SLP222 T01560056 51009"},"webcam_url":"https://atmos.uw.edu/data/images/webcam2_latest.jpg","model_version":"latest"}}
{"started_at":"2026-05-08T21:29:11Z","finished_at":"2026-05-08T21:29:13Z","duration_seconds":2.000,"status":"ok","state":{"timestamp_utc":"2026-05-08T21:29:13Z","class_index":0,"class_name":"not_out","is_out":false,"confidence":{"not_out":0.9340613484382629,"full":0.0030640549957752228,"partial":0.06287450343370438},"weather":{"station":"KSEA","visibility_sm":10.0,"ceiling_ft":12000.0,"raw":"KSEA 082053Z 20013KT 10SM SCT035 BKN120 BKN250 16/06 A3017 RMK AO2 SLP222 T01560056 51009"},"webcam_url":"https://atmos.uw.edu/data/images/webcam2_latest.jpg","model_version":"latest"}}
{"started_at":"2026-05-08T21:44:17Z","finished_at":"2026-05-08T21:44:19Z","duration_seconds":2.000,"status":"ok","state":{"timestamp_utc":"2026-05-08T21:44:19Z","class_index":0,"class_name":"not_out","is_out":false,"confidence":{"not_out":0.9638283848762512,"full":0.021562445908784866,"partial":0.014609163627028465},"weather":{"station":"KSEA","visibility_sm":10.0,"ceiling_ft":12000.0,"raw":"KSEA 082053Z 20013KT 10SM SCT035 BKN120 BKN250 16/06 A3017 RMK AO2 SLP222 T01560056 51009"},"webcam_url":"https://atmos.uw.edu/data/images/webcam2_latest.jpg","model_version":"latest"}}
{"started_at":"2026-05-08T21:59:22Z","finished_at":"2026-05-08T21:59:25Z","duration_seconds":2.000,"status":"ok","state":{"timestamp_utc":"2026-05-08T21:59:25Z","class_index":0,"class_name":"not_out","is_out":false,"confidence":{"not_out":0.9836671352386475,"full":0.0008175416733138263,"partial":0.015515286475419998},"weather":{"station":"KSEA","visibility_sm":10.0,"ceiling_ft":3800.0,"raw":"KSEA 082153Z 21012G18KT 10SM BKN038 BKN110 16/05 A3017 RMK AO2 SLP224 T01610050"},"webcam_url":"https://atmos.uw.edu/data/images/webcam2_latest.jpg","model_version":"latest"}}
{"started_at":"2026-05-08T22:14:28Z","finished_at":"2026-05-08T22:14:30Z","duration_seconds":2.000,"status":"ok","state":{"timestamp_utc":"2026-05-08T22:14:30Z","class_index":0,"class_name":"not_out","is_out":false,"confidence":{"not_out":0.9630863070487976,"full":0.00550646148622036,"partial":0.031407248228788376},"weather":{"station":"KSEA","visibility_sm":10.0,"ceiling_ft":3800.0,"raw":"KSEA 082153Z 21012G18KT 10SM BKN038 BKN110 16/05 A3017 RMK AO2 SLP224 T01610050"},"webcam_url":"https://atmos.uw.edu/data/images/webcam2_latest.jpg","model_version":"latest"}}
{"started_at":"2026-05-08T22:29:34Z","finished_at":"2026-05-08T22:29:36Z","duration_seconds":2.000,"status":"ok","state":{"timestamp_utc":"2026-05-08T22:29:36Z","class_index":0,"class_name":"not_out","is_out":false,"confidence":{"not_out":0.9161496758460999,"full":0.01268030982464552,"partial":0.07117000967264175},"weather":{"station":"KSEA","visibility_sm":10.0,"ceiling_ft":3800.0,"raw":"KSEA 082153Z 21012G18KT 10SM BKN038 BKN110 16/05 A3017 RMK AO2 SLP224 T01610050"},"webcam_url":"https://atmos.uw.edu/data/images/webcam2_latest.jpg","model_version":"latest"}}
{"started_at":"2026-05-08T22:44:40Z","finished_at":"2026-05-08T22:44:42Z","duration_seconds":2.000,"status":"ok","state":{"timestamp_utc":"2026-05-08T22:44:42Z","class_index":0,"class_name":"not_out","is_out":false,"confidence":{"not_out":0.9078944325447083,"full":0.03737641125917435,"partial":0.05472914129495621},"weather":{"station":"KSEA","visibility_sm":10.0,"ceiling_ft":3800.0,"raw":"KSEA 082153Z 21012G18KT 10SM BKN038 BKN110 16/05 A3017 RMK AO2 SLP224 T01610050"},"webcam_url":"https://atmos.uw.edu/data/images/webcam2_latest.jpg","model_version":"latest"}}
{"started_at":"2026-05-08T22:59:46Z","finished_at":"2026-05-08T22:59:48Z","duration_seconds":2.000,"status":"ok","state":{"timestamp_utc":"2026-05-08T22:59:48Z","class_index":0,"class_name":"not_out","is_out":false,"confidence":{"not_out":0.8549342751502991,"full":0.04600740969181061,"partial":0.09905841201543808},"weather":{"station":"KSEA","visibility_sm":10.0,"ceiling_ft":9000.0,"raw":"KSEA 082253Z 22009KT 10SM FEW042 BKN090 16/06 A3017 RMK AO2 SLP224 T01610056"},"webcam_url":"https://atmos.uw.edu/data/images/webcam2_latest.jpg","model_version":"latest"}}
{"started_at":"2026-05-08T23:14:52Z","finished_at":"2026-05-08T23:14:54Z","duration_seconds":2.000,"status":"ok","state":{"timestamp_utc":"2026-05-08T23:14:54Z","class_index":1,"class_name":"full","is_out":true,"confidence":{"not_out":0.4589380919933319,"full":0.48126766085624695,"partial":0.059794310480356216},"weather":{"station":"KSEA","visibility_sm":10.0,"ceiling_ft":9000.0,"raw":"KSEA 082253Z 22009KT 10SM FEW042 BKN090 16/06 A3017 RMK AO2 SLP224 T01610056"},"webcam_url":"https://atmos.uw.edu/data/images/webcam2_latest.jpg","model_version":"latest"}}
{"started_at":"2026-05-08T23:29:57Z","finished_at":"2026-05-08T23:29:59Z","duration_seconds":2.000,"status":"ok","state":{"timestamp_utc":"2026-05-08T23:29:59Z","class_index":1,"class_name":"full","is_out":true,"confidence":{"not_out":0.09191213548183441,"full":0.8927784562110901,"partial":0.01530933752655983},"weather":{"station":"KSEA","visibility_sm":10.0,"ceiling_ft":9000.0,"raw":"KSEA 082253Z 22009KT 10SM FEW042 BKN090 16/06 A3017 RMK AO2 SLP224 T01610056"},"webcam_url":"https://atmos.uw.edu/data/images/webcam2_latest.jpg","model_version":"latest"}}
{"started_at":"2026-05-08T23:45:04Z","finished_at":"2026-05-08T23:45:08Z","duration_seconds":4.000,"status":"ok","state":{"timestamp_utc":"2026-05-08T23:45:08Z","class_index":1,"class_name":"full","is_out":true,"confidence":{"not_out":0.09129644185304642,"full":0.8984276056289673,"partial":0.010275905020534992},"weather":{"station":"KSEA","visibility_sm":10.0,"ceiling_ft":9000.0,"raw":"KSEA 082253Z 22009KT 10SM FEW042 BKN090 16/06 A3017 RMK AO2 SLP224 T01610056"},"webcam_url":"https://atmos.uw.edu/data/images/webcam2_latest.jpg","model_version":"latest"}}
{"started_at":"2026-05-09T00:00:18Z","finished_at":"2026-05-09T00:00:20Z","duration_seconds":2.000,"status":"ok","state":{"timestamp_utc":"2026-05-09T00:00:20Z","class_index":0,"class_name":"not_out","is_out":false,"confidence":{"not_out":0.5479646921157837,"full":0.4263319671154022,"partial":0.02570333518087864},"weather":{"station":"KSEA","visibility_sm":10.0,"ceiling_ft":null,"raw":"KSEA 082353Z 23007G16KT 10SM SCT045 SCT095 16/06 A3018 RMK AO2 SLP225 T01560056 10167 20117 51002"},"webcam_url":"https://atmos.uw.edu/data/images/webcam2_latest.jpg","model_version":"latest"}}
{"started_at":"2026-05-09T00:15:24Z","finished_at":"2026-05-09T00:15:25Z","duration_seconds":1.000,"status":"ok","state":{"timestamp_utc":"2026-05-09T00:15:25Z","class_index":1,"class_name":"full","is_out":true,"confidence":{"not_out":0.18467247486114502,"full":0.7503088712692261,"partial":0.0650186762213707},"weather":{"station":"KSEA","visibility_sm":10.0,"ceiling_ft":null,"raw":"KSEA 082353Z 23007G16KT 10SM SCT045 SCT095 16/06 A3018 RMK AO2 SLP225 T01560056 10167 20117 51002"},"webcam_url":"https://atmos.uw.edu/data/images/webcam2_latest.jpg","model_version":"latest"}}
{"started_at":"2026-05-09T00:30:29Z","finished_at":"2026-05-09T00:30:31Z","duration_seconds":2.000,"status":"ok","state":{"timestamp_utc":"2026-05-09T00:30:31Z","class_index":1,"class_name":"full","is_out":true,"confidence":{"not_out":0.16645173728466034,"full":0.7951313853263855,"partial":0.038416940718889236},"weather":{"station":"KSEA","visibility_sm":10.0,"ceiling_ft":null,"raw":"KSEA 082353Z 23007G16KT 10SM SCT045 SCT095 16/06 A3018 RMK AO2 SLP225 T01560056 10167 20117 51002"},"webcam_url":"https://atmos.uw.edu/data/images/webcam2_latest.jpg","model_version":"latest"}}
{"started_at":"2026-05-09T00:45:35Z","finished_at":"2026-05-09T00:45:37Z","duration_seconds":2.000,"status":"ok","state":{"timestamp_utc":"2026-05-09T00:45:37Z","class_index":1,"class_name":"full","is_out":true,"confidence":{"not_out":0.056682709604501724,"full":0.9312419295310974,"partial":0.012075313366949558},"weather":{"station":"KSEA","visibility_sm":10.0,"ceiling_ft":null,"raw":"KSEA 082353Z 23007G16KT 10SM SCT045 SCT095 16/06 A3018 RMK AO2 SLP225 T01560056 10167 20117 51002"},"webcam_url":"https://atmos.uw.edu/data/images/webcam2_latest.jpg","model_version":"latest"}}
{"started_at":"2026-05-09T01:00:40Z","finished_at":"2026-05-09T01:00:45Z","duration_seconds":5.000,"status":"ok","state":{"timestamp_utc":"2026-05-09T01:00:45Z","class_index":1,"class_name":"full","is_out":true,"confidence":{"not_out":0.16891415417194366,"full":0.7965102195739746,"partial":0.03457561135292053},"weather":{"station":"KSEA","visibility_sm":10.0,"ceiling_ft":9500.0,"raw":"KSEA 090053Z 22006KT 10SM FEW040 BKN095 16/06 A3018 RMK AO2 SLP225 T01560061"},"webcam_url":"https://atmos.uw.edu/data/images/webcam2_latest.jpg","model_version":"latest"}}
{"started_at":"2026-05-09T01:15:49Z","finished_at":"2026-05-09T01:15:51Z","duration_seconds":2.000,"status":"ok","state":{"timestamp_utc":"2026-05-09T01:15:51Z","class_index":1,"class_name":"full","is_out":true,"confidence":{"not_out":0.13226492702960968,"full":0.831904411315918,"partial":0.03583071008324623},"weather":{"station":"KSEA","visibility_sm":10.0,"ceiling_ft":9500.0,"raw":"KSEA 090053Z 22006KT 10SM FEW040 BKN095 16/06 A3018 RMK AO2 SLP225 T01560061"},"webcam_url":"https://atmos.uw.edu/data/images/webcam2_latest.jpg","model_version":"latest"}}
{"started_at":"2026-05-09T01:30:55Z","finished_at":"2026-05-09T01:30:57Z","duration_seconds":2.000,"status":"ok","state":{"timestamp_utc":"2026-05-09T01:30:57Z","class_index":1,"class_name":"full","is_out":true,"confidence":{"not_out":0.05742880702018738,"full":0.9222934246063232,"partial":0.020277731120586395},"weather":{"station":"KSEA","visibility_sm":10.0,"ceiling_ft":9500.0,"raw":"KSEA 090053Z 22006KT 10SM FEW040 BKN095 16/06 A3018 RMK AO2 SLP225 T01560061"},"webcam_url":"https://atmos.uw.edu/data/images/webcam2_latest.jpg","model_version":"latest"}}
{"started_at":"2026-05-09T01:46:00Z","finished_at":"2026-05-09T01:46:03Z","duration_seconds":3.000,"status":"ok","state":{"timestamp_utc":"2026-05-09T01:46:03Z","class_index":1,"class_name":"full","is_out":true,"confidence":{"not_out":0.014081171713769436,"full":0.7482950687408447,"partial":0.23762375116348267},"weather":{"station":"KSEA","visibility_sm":10.0,"ceiling_ft":9500.0,"raw":"KSEA 090053Z 22006KT 10SM FEW040 BKN095 16/06 A3018 RMK AO2 SLP225 T01560061"},"webcam_url":"https://atmos.uw.edu/data/images/webcam2_latest.jpg","model_version":"latest"}}
{"started_at":"2026-05-09T02:01:06Z","finished_at":"2026-05-09T02:01:08Z","duration_seconds":2.000,"status":"ok","state":{"timestamp_utc":"2026-05-09T02:01:08Z","class_index":2,"class_name":"partial","is_out":true,"confidence":{"not_out":0.01731479912996292,"full":0.46193739771842957,"partial":0.5207477807998657},"weather":{"station":"KSEA","visibility_sm":10.0,"ceiling_ft":null,"raw":"KSEA 090153Z 23010KT 10SM FEW040 FEW090 16/06 A3017 RMK AO2 SLP223 T01560061"},"webcam_url":"https://atmos.uw.edu/data/images/webcam2_latest.jpg","model_version":"latest"}}
{"started_at":"2026-05-09T02:16:12Z","finished_at":"2026-05-09T02:16:14Z","duration_seconds":2.000,"status":"ok","state":{"timestamp_utc":"2026-05-09T02:16:14Z","class_index":2,"class_name":"partial","is_out":true,"confidence":{"not_out":0.024977952241897583,"full":0.41266411542892456,"partial":0.5623579621315002},"weather":{"station":"KSEA","visibility_sm":10.0,"ceiling_ft":null,"raw":"KSEA 090153Z 23010KT 10SM FEW040 FEW090 16/06 A3017 RMK AO2 SLP223 T01560061"},"webcam_url":"https://atmos.uw.edu/data/images/webcam2_latest.jpg","model_version":"latest"}}
{"started_at":"2026-05-09T02:31:18Z","finished_at":"2026-05-09T02:31:20Z","duration_seconds":2.000,"status":"ok","state":{"timestamp_utc":"2026-05-09T02:31:20Z","class_index":2,"class_name":"partial","is_out":true,"confidence":{"not_out":0.009553727693855762,"full":0.27000999450683594,"partial":0.7204362750053406},"weather":{"station":"KSEA","visibility_sm":10.0,"ceiling_ft":null,"raw":"KSEA 090153Z 23010KT 10SM FEW040 FEW090 16/06 A3017 RMK AO2 SLP223 T01560061"},"webcam_url":"https://atmos.uw.edu/data/images/webcam2_latest.jpg","model_version":"latest"}}
{"started_at":"2026-05-09T02:46:24Z","finished_at":"2026-05-09T02:46:26Z","duration_seconds":2.000,"status":"ok","state":{"timestamp_utc":"2026-05-09T02:46:26Z","class_index":2,"class_name":"partial","is_out":true,"confidence":{"not_out":0.017057420685887337,"full":0.17603278160095215,"partial":0.8069097399711609},"weather":{"station":"KSEA","visibility_sm":10.0,"ceiling_ft":null,"raw":"KSEA 090153Z 23010KT 10SM FEW040 FEW090 16/06 A3017 RMK AO2 SLP223 T01560061"},"webcam_url":"https://atmos.uw.edu/data/images/webcam2_latest.jpg","model_version":"latest"}}
{"started_at":"2026-05-09T03:01:30Z","finished_at":"2026-05-09T03:01:33Z","duration_seconds":3.000,"status":"ok","state":{"timestamp_utc":"2026-05-09T03:01:33Z","class_index":2,"class_name":"partial","is_out":true,"confidence":{"not_out":0.019780606031417847,"full":0.10903223603963852,"partial":0.871187150478363},"weather":{"station":"KSEA","visibility_sm":10.0,"ceiling_ft":null,"raw":"KSEA 090253Z 24006KT 10SM FEW040 FEW085 14/07 A3017 RMK AO2 SLP223 T01440072 55001"},"webcam_url":"https://atmos.uw.edu/data/images/webcam2_latest.jpg","model_version":"latest"}}
{"started_at":"2026-05-09T03:16:37Z","finished_at":"2026-05-09T03:16:39Z","duration_seconds":2.000,"status":"ok","state":{"timestamp_utc":"2026-05-09T03:16:39Z","class_index":2,"class_name":"partial","is_out":true,"confidence":{"not_out":0.006216948851943016,"full":0.010979126207530499,"partial":0.9828039407730103},"weather":{"station":"KSEA","visibility_sm":10.0,"ceiling_ft":null,"raw":"KSEA 090253Z 24006KT 10SM FEW040 FEW085 14/07 A3017 RMK AO2 SLP223 T01440072 55001"},"webcam_url":"https://atmos.uw.edu/data/images/webcam2_latest.jpg","model_version":"latest"}}
{"started_at":"2026-05-09T03:31:43Z","finished_at":"2026-05-09T03:31:44Z","duration_seconds":1.000,"status":"ok","state":{"timestamp_utc":"2026-05-09T03:31:44Z","class_index":2,"class_name":"partial","is_out":true,"confidence":{"not_out":0.01724305748939514,"full":0.015993621200323105,"partial":0.9667633175849915},"weather":{"station":"KSEA","visibility_sm":10.0,"ceiling_ft":null,"raw":"KSEA 090253Z 24006KT 10SM FEW040 FEW085 14/07 A3017 RMK AO2 SLP223 T01440072 55001"},"webcam_url":"https://atmos.uw.edu/data/images/webcam2_latest.jpg","model_version":"latest"}}
{"started_at":"2026-05-09T03:46:48Z","finished_at":"2026-05-09T03:46:51Z","duration_seconds":3.000,"status":"ok","state":{"timestamp_utc":"2026-05-09T03:46:51Z","class_index":2,"class_name":"partial","is_out":true,"confidence":{"not_out":0.0584249310195446,"full":0.001763228909112513,"partial":0.9398118257522583},"weather":{"station":"KSEA","visibility_sm":10.0,"ceiling_ft":null,"raw":"KSEA 090253Z 24006KT 10SM FEW040 FEW085 14/07 A3017 RMK AO2 SLP223 T01440072 55001"},"webcam_url":"https://atmos.uw.edu/data/images/webcam2_latest.jpg","model_version":"latest"}}
{"started_at":"2026-05-09T04:01:54Z","finished_at":"2026-05-09T04:01:56Z","duration_seconds":2.000,"status":"ok","state":{"timestamp_utc":"2026-05-09T04:01:56Z","class_index":2,"class_name":"partial","is_out":true,"confidence":{"not_out":0.4152812361717224,"full":0.004166451282799244,"partial":0.5805523991584778},"weather":{"station":"KSEA","visibility_sm":10.0,"ceiling_ft":null,"raw":"KSEA 090353Z 23006KT 10SM FEW035 FEW080 13/07 A3019 RMK AO2 SLP230 T01330072"},"webcam_url":"https://atmos.uw.edu/data/images/webcam2_latest.jpg","model_version":"latest"}}
{"started_at":"2026-05-09T04:17:00Z","finished_at":"2026-05-09T04:17:02Z","duration_seconds":2.000,"status":"ok","state":{"timestamp_utc":"2026-05-09T04:17:02Z","class_index":0,"class_name":"not_out","is_out":false,"confidence":{"not_out":0.9968034029006958,"full":0.001575313857756555,"partial":0.0016213256167247891},"weather":{"station":"KSEA","visibility_sm":10.0,"ceiling_ft":null,"raw":"KSEA 090353Z 23006KT 10SM FEW035 FEW080 13/07 A3019 RMK AO2 SLP230 T01330072"},"webcam_url":"https://atmos.uw.edu/data/images/webcam2_latest.jpg","model_version":"latest"}}
{"started_at":"2026-05-09T04:32:05Z","finished_at":"2026-05-09T04:32:07Z","duration_seconds":2.000,"status":"ok","state":{"timestamp_utc":"2026-05-09T04:32:07Z","class_index":0,"class_name":"not_out","is_out":false,"confidence":{"not_out":0.9951064586639404,"full":0.001371025457046926,"partial":0.0035224531311541796},"weather":{"station":"KSEA","visibility_sm":10.0,"ceiling_ft":null,"raw":"KSEA 090353Z 23006KT 10SM FEW035 FEW080 13/07 A3019 RMK AO2 SLP230 T01330072"},"webcam_url":"https://atmos.uw.edu/data/images/webcam2_latest.jpg","model_version":"latest"}}
{"started_at":"2026-05-09T04:47:11Z","finished_at":"2026-05-09T04:47:13Z","duration_seconds":2.000,"status":"ok","state":{"timestamp_utc":"2026-05-09T04:47:13Z","class_index":0,"class_name":"not_out","is_out":false,"confidence":{"not_out":0.996802568435669,"full":0.0011689827078953385,"partial":0.0020283760968595743},"weather":{"station":"KSEA","visibility_sm":10.0,"ceiling_ft":null,"raw":"KSEA 090353Z 23006KT 10SM FEW035 FEW080 13/07 A3019 RMK AO2 SLP230 T01330072"},"webcam_url":"https://atmos.uw.edu/data/images/webcam2_latest.jpg","model_version":"latest"}}
{"started_at":"2026-05-09T05:02:17Z","finished_at":"2026-05-09T05:02:19Z","duration_seconds":2.000,"status":"ok","state":{"timestamp_utc":"2026-05-09T05:02:19Z","class_index":0,"class_name":"not_out","is_out":false,"confidence":{"not_out":0.9960876703262329,"full":0.001789512112736702,"partial":0.0021228871773928404},"weather":{"station":"KSEA","visibility_sm":10.0,"ceiling_ft":null,"raw":"KSEA 090453Z 19005KT 10SM FEW035 FEW075 12/07 A3020 RMK AO2 SLP233 T01220072"},"webcam_url":"https://atmos.uw.edu/data/images/webcam2_latest.jpg","model_version":"latest"}}
{"started_at":"2026-05-09T05:17:23Z","finished_at":"2026-05-09T05:17:25Z","duration_seconds":2.000,"status":"ok","state":{"timestamp_utc":"2026-05-09T05:17:25Z","class_index":0,"class_name":"not_out","is_out":false,"confidence":{"not_out":0.9969502091407776,"full":0.0009723500697873533,"partial":0.002077464945614338},"weather":{"station":"KSEA","visibility_sm":10.0,"ceiling_ft":null,"raw":"KSEA 090453Z 19005KT 10SM FEW035 FEW075 12/07 A3020 RMK AO2 SLP233 T01220072"},"webcam_url":"https://atmos.uw.edu/data/images/webcam2_latest.jpg","model_version":"latest"}}
{"started_at":"2026-05-09T05:32:29Z","finished_at":"2026-05-09T05:32:32Z","duration_seconds":3.000,"status":"ok","state":{"timestamp_utc":"2026-05-09T05:32:32Z","class_index":0,"class_name":"not_out","is_out":false,"confidence":{"not_out":0.9969028830528259,"full":0.0014432072639465332,"partial":0.0016539328498765826},"weather":{"station":"KSEA","visibility_sm":10.0,"ceiling_ft":null,"raw":"KSEA 090453Z 19005KT 10SM FEW035 FEW075 12/07 A3020 RMK AO2 SLP233 T01220072"},"webcam_url":"https://atmos.uw.edu/data/images/webcam2_latest.jpg","model_version":"latest"}}
{"started_at":"2026-05-09T05:47:36Z","finished_at":"2026-05-09T05:47:38Z","duration_seconds":2.000,"status":"ok","state":{"timestamp_utc":"2026-05-09T05:47:38Z","class_index":0,"class_name":"not_out","is_out":false,"confidence":{"not_out":0.9973209500312805,"full":0.001240135752595961,"partial":0.0014389146817848086},"weather":{"station":"KSEA","visibility_sm":10.0,"ceiling_ft":null,"raw":"KSEA 090453Z 19005KT 10SM FEW035 FEW075 12/07 A3020 RMK AO2 SLP233 T01220072"},"webcam_url":"https://atmos.uw.edu/data/images/webcam2_latest.jpg","model_version":"latest"}}
{"started_at":"2026-05-09T06:02:42Z","finished_at":"2026-05-09T06:02:44Z","duration_seconds":2.000,"status":"ok","state":{"timestamp_utc":"2026-05-09T06:02:44Z","class_index":0,"class_name":"not_out","is_out":false,"confidence":{"not_out":0.9966176152229309,"full":0.0011601399164646864,"partial":0.002222304465249181},"weather":{"station":"KSEA","visibility_sm":10.0,"ceiling_ft":null,"raw":"KSEA 090553Z 20006KT 10SM FEW035 FEW075 12/08 A3021 RMK AO2 SLP235 T01170078 10167 20111 51012"},"webcam_url":"https://atmos.uw.edu/data/images/webcam2_latest.jpg","model_version":"latest"}}
{"started_at":"2026-05-09T06:17:48Z","finished_at":"2026-05-09T06:17:50Z","duration_seconds":2.000,"status":"ok","state":{"timestamp_utc":"2026-05-09T06:17:50Z","class_index":0,"class_name":"not_out","is_out":false,"confidence":{"not_out":0.9958930015563965,"full":0.0011200329754501581,"partial":0.002987013664096594},"weather":{"station":"KSEA","visibility_sm":10.0,"ceiling_ft":null,"raw":"KSEA 090553Z 20006KT 10SM FEW035 FEW075 12/08 A3021 RMK AO2 SLP235 T01170078 10167 20111 51012"},"webcam_url":"https://atmos.uw.edu/data/images/webcam2_latest.jpg","model_version":"latest"}}
{"started_at":"2026-05-09T06:32:54Z","finished_at":"2026-05-09T06:32:56Z","duration_seconds":2.000,"status":"ok","state":{"timestamp_utc":"2026-05-09T06:32:56Z","class_index":0,"class_name":"not_out","is_out":false,"confidence":{"not_out":0.9961398243904114,"full":0.001544315367937088,"partial":0.002315872348845005},"weather":{"station":"KSEA","visibility_sm":10.0,"ceiling_ft":null,"raw":"KSEA 090553Z 20006KT 10SM FEW035 FEW075 12/08 A3021 RMK AO2 SLP235 T01170078 10167 20111 51012"},"webcam_url":"https://atmos.uw.edu/data/images/webcam2_latest.jpg","model_version":"latest"}}
{"started_at":"2026-05-09T06:48:00Z","finished_at":"2026-05-09T06:48:03Z","duration_seconds":3.000,"status":"ok","state":{"timestamp_utc":"2026-05-09T06:48:03Z","class_index":0,"class_name":"not_out","is_out":false,"confidence":{"not_out":0.997057318687439,"full":0.0011257983278483152,"partial":0.0018168709939345717},"weather":{"station":"KSEA","visibility_sm":10.0,"ceiling_ft":1600.0,"raw":"KSEA 090645Z 21005KT 10SM BKN016 11/08 A3021 RMK AO2 T01110083"},"webcam_url":"https://atmos.uw.edu/data/images/webcam2_latest.jpg","model_version":"latest"}}
{"started_at":"2026-05-09T07:03:07Z","finished_at":"2026-05-09T07:03:09Z","duration_seconds":2.000,"status":"ok","state":{"timestamp_utc":"2026-05-09T07:03:09Z","class_index":0,"class_name":"not_out","is_out":false,"confidence":{"not_out":0.9965720176696777,"full":0.0012118046870455146,"partial":0.0022161731030792},"weather":{"station":"KSEA","visibility_sm":10.0,"ceiling_ft":1600.0,"raw":"KSEA 090653Z 21006KT 10SM BKN016 11/08 A3021 RMK AO2 SLP237 T01110083"},"webcam_url":"https://atmos.uw.edu/data/images/webcam2_latest.jpg","model_version":"latest"}}
{"started_at":"2026-05-09T07:18:12Z","finished_at":"2026-05-09T07:18:15Z","duration_seconds":3.000,"status":"ok","state":{"timestamp_utc":"2026-05-09T07:18:15Z","class_index":0,"class_name":"not_out","is_out":false,"confidence":{"not_out":0.9973607659339905,"full":0.001088976045139134,"partial":0.0015502849128097296},"weather":{"station":"KSEA","visibility_sm":10.0,"ceiling_ft":1600.0,"raw":"KSEA 090653Z 21006KT 10SM BKN016 11/08 A3021 RMK AO2 SLP237 T01110083"},"webcam_url":"https://atmos.uw.edu/data/images/webcam2_latest.jpg","model_version":"latest"}}
{"started_at":"2026-05-09T07:33:18Z","finished_at":"2026-05-09T07:33:20Z","duration_seconds":2.000,"status":"ok","state":{"timestamp_utc":"2026-05-09T07:33:20Z","class_index":0,"class_name":"not_out","is_out":false,"confidence":{"not_out":0.9979392886161804,"full":0.0008216620772145689,"partial":0.0012389683397486806},"weather":{"station":"KSEA","visibility_sm":10.0,"ceiling_ft":1600.0,"raw":"KSEA 090653Z 21006KT 10SM BKN016 11/08 A3021 RMK AO2 SLP237 T01110083"},"webcam_url":"https://atmos.uw.edu/data/images/webcam2_latest.jpg","model_version":"latest"}}
{"started_at":"2026-05-09T07:48:24Z","finished_at":"2026-05-09T07:48:27Z","duration_seconds":3.000,"status":"ok","state":{"timestamp_utc":"2026-05-09T07:48:27Z","class_index":0,"class_name":"not_out","is_out":false,"confidence":{"not_out":0.9978029131889343,"full":0.0007633075001649559,"partial":0.0014338328037410975},"weather":{"station":"KSEA","visibility_sm":10.0,"ceiling_ft":1600.0,"raw":"KSEA 090653Z 21006KT 10SM BKN016 11/08 A3021 RMK AO2 SLP237 T01110083"},"webcam_url":"https://atmos.uw.edu/data/images/webcam2_latest.jpg","model_version":"latest"}}
{"started_at":"2026-05-09T08:03:31Z","finished_at":"2026-05-09T08:03:32Z","duration_seconds":1.000,"status":"ok","state":{"timestamp_utc":"2026-05-09T08:03:32Z","class_index":0,"class_name":"not_out","is_out":false,"confidence":{"not_out":0.9974965453147888,"full":0.0008535665110684931,"partial":0.0016498623881489038},"weather":{"station":"KSEA","visibility_sm":10.0,"ceiling_ft":1600.0,"raw":"KSEA 090753Z 20006KT 10SM BKN016 OVC060 12/09 A3022 RMK AO2 SLP240 T01170089 401670094"},"webcam_url":"https://atmos.uw.edu/data/images/webcam2_latest.jpg","model_version":"latest"}}
{"started_at":"2026-05-09T08:18:36Z","finished_at":"2026-05-09T08:18:38Z","duration_seconds":2.000,"status":"ok","state":{"timestamp_utc":"2026-05-09T08:18:38Z","class_index":0,"class_name":"not_out","is_out":false,"confidence":{"not_out":0.9973067045211792,"full":0.0010257787071168423,"partial":0.0016675592632964253},"weather":{"station":"KSEA","visibility_sm":10.0,"ceiling_ft":1600.0,"raw":"KSEA 090753Z 20006KT 10SM BKN016 OVC060 12/09 A3022 RMK AO2 SLP240 T01170089 401670094"},"webcam_url":"https://atmos.uw.edu/data/images/webcam2_latest.jpg","model_version":"latest"}}
{"started_at":"2026-05-09T08:33:42Z","finished_at":"2026-05-09T08:33:44Z","duration_seconds":2.000,"status":"ok","state":{"timestamp_utc":"2026-05-09T08:33:44Z","class_index":0,"class_name":"not_out","is_out":false,"confidence":{"not_out":0.9970065951347351,"full":0.0013384157791733742,"partial":0.0016550319269299507},"weather":{"station":"KSEA","visibility_sm":10.0,"ceiling_ft":1600.0,"raw":"KSEA 090753Z 20006KT 10SM BKN016 OVC060 12/09 A3022 RMK AO2 SLP240 T01170089 401670094"},"webcam_url":"https://atmos.uw.edu/data/images/webcam2_latest.jpg","model_version":"latest"}}
{"started_at":"2026-05-09T08:48:48Z","finished_at":"2026-05-09T08:48:50Z","duration_seconds":2.000,"status":"ok","state":{"timestamp_utc":"2026-05-09T08:48:50Z","class_index":0,"class_name":"not_out","is_out":false,"confidence":{"not_out":0.9982351064682007,"full":0.0007368294172920287,"partial":0.001028052531182766},"weather":{"station":"KSEA","visibility_sm":10.0,"ceiling_ft":1600.0,"raw":"KSEA 090753Z 20006KT 10SM BKN016 OVC060 12/09 A3022 RMK AO2 SLP240 T01170089 401670094"},"webcam_url":"https://atmos.uw.edu/data/images/webcam2_latest.jpg","model_version":"latest"}}
{"started_at":"2026-05-09T09:03:54Z","finished_at":"2026-05-09T09:03:56Z","duration_seconds":2.000,"status":"ok","state":{"timestamp_utc":"2026-05-09T09:03:56Z","class_index":0,"class_name":"not_out","is_out":false,"confidence":{"not_out":0.9973932504653931,"full":0.0010718742851167917,"partial":0.0015348020242527127},"weather":{"station":"KSEA","visibility_sm":10.0,"ceiling_ft":2300.0,"raw":"KSEA 090853Z 22005KT 10SM SCT013 OVC023 12/09 A3022 RMK AO2 SLP240 T01170089 51005"},"webcam_url":"https://atmos.uw.edu/data/images/webcam2_latest.jpg","model_version":"latest"}}
{"started_at":"2026-05-09T09:19:00Z","finished_at":"2026-05-09T09:19:02Z","duration_seconds":2.000,"status":"ok","state":{"timestamp_utc":"2026-05-09T09:19:02Z","class_index":0,"class_name":"not_out","is_out":false,"confidence":{"not_out":0.996971607208252,"full":0.001131359371356666,"partial":0.0018970622913911939},"weather":{"station":"KSEA","visibility_sm":10.0,"ceiling_ft":2300.0,"raw":"KSEA 090853Z 22005KT 10SM SCT013 OVC023 12/09 A3022 RMK AO2 SLP240 T01170089 51005"},"webcam_url":"https://atmos.uw.edu/data/images/webcam2_latest.jpg","model_version":"latest"}}
{"started_at":"2026-05-09T09:34:06Z","finished_at":"2026-05-09T09:34:08Z","duration_seconds":2.000,"status":"ok","state":{"timestamp_utc":"2026-05-09T09:34:08Z","class_index":0,"class_name":"not_out","is_out":false,"confidence":{"not_out":0.9974212646484375,"full":0.0006991411210037768,"partial":0.0018795867217704654},"weather":{"station":"KSEA","visibility_sm":10.0,"ceiling_ft":2300.0,"raw":"KSEA 090853Z 22005KT 10SM SCT013 OVC023 12/09 A3022 RMK AO2 SLP240 T01170089 51005"},"webcam_url":"https://atmos.uw.edu/data/images/webcam2_latest.jpg","model_version":"latest"}}
{"started_at":"2026-05-09T09:49:11Z","finished_at":"2026-05-09T09:49:14Z","duration_seconds":3.000,"status":"ok","state":{"timestamp_utc":"2026-05-09T09:49:14Z","class_index":0,"class_name":"not_out","is_out":false,"confidence":{"not_out":0.9976987242698669,"full":0.0008885142742656171,"partial":0.0014127385802567005},"weather":{"station":"KSEA","visibility_sm":10.0,"ceiling_ft":2300.0,"raw":"KSEA 090853Z 22005KT 10SM SCT013 OVC023 12/09 A3022 RMK AO2 SLP240 T01170089 51005"},"webcam_url":"https://atmos.uw.edu/data/images/webcam2_latest.jpg","model_version":"latest"}}
{"started_at":"2026-05-09T10:04:18Z","finished_at":"2026-05-09T10:04:19Z","duration_seconds":1.000,"status":"ok","state":{"timestamp_utc":"2026-05-09T10:04:19Z","class_index":0,"class_name":"not_out","is_out":false,"confidence":{"not_out":0.9973942041397095,"full":0.0009551821858622134,"partial":0.0016505831154063344},"weather":{"station":"KSEA","visibility_sm":10.0,"ceiling_ft":2500.0,"raw":"KSEA 090953Z 20004KT 10SM FEW013 BKN025 11/09 A3021 RMK AO2 SLP238 T01110089"},"webcam_url":"https://atmos.uw.edu/data/images/webcam2_latest.jpg","model_version":"latest"}}
{"started_at":"2026-05-09T10:19:23Z","finished_at":"2026-05-09T10:19:25Z","duration_seconds":2.000,"status":"ok","state":{"timestamp_utc":"2026-05-09T10:19:25Z","class_index":0,"class_name":"not_out","is_out":false,"confidence":{"not_out":0.9973803162574768,"full":0.0010592759354040027,"partial":0.0015603868523612618},"weather":{"station":"KSEA","visibility_sm":10.0,"ceiling_ft":2500.0,"raw":"KSEA 090953Z 20004KT 10SM FEW013 BKN025 11/09 A3021 RMK AO2 SLP238 T01110089"},"webcam_url":"https://atmos.uw.edu/data/images/webcam2_latest.jpg","model_version":"latest"}}
{"started_at":"2026-05-09T10:34:28Z","finished_at":"2026-05-09T10:34:32Z","duration_seconds":4.000,"status":"ok","state":{"timestamp_utc":"2026-05-09T10:34:32Z","class_index":0,"class_name":"not_out","is_out":false,"confidence":{"not_out":0.9965391159057617,"full":0.0011499430984258652,"partial":0.0023109924513846636},"weather":{"station":"KSEA","visibility_sm":10.0,"ceiling_ft":null,"raw":"KSEA 091019Z 21003KT 10SM SCT027 11/08 A3021 RMK AO2 T01060083"},"webcam_url":"https://atmos.uw.edu/data/images/webcam2_latest.jpg","model_version":"latest"}}
{"started_at":"2026-05-09T10:49:35Z","finished_at":"2026-05-09T10:49:38Z","duration_seconds":3.000,"status":"ok","state":{"timestamp_utc":"2026-05-09T10:49:38Z","class_index":0,"class_name":"not_out","is_out":false,"confidence":{"not_out":0.9937647581100464,"full":0.0013652105117216706,"partial":0.004870076663792133},"weather":{"station":"KSEA","visibility_sm":10.0,"ceiling_ft":null,"raw":"KSEA 091019Z 21003KT 10SM SCT027 11/08 A3021 RMK AO2 T01060083"},"webcam_url":"https://atmos.uw.edu/data/images/webcam2_latest.jpg","model_version":"latest"}}
{"started_at":"2026-05-09T11:04:42Z","finished_at":"2026-05-09T11:04:44Z","duration_seconds":2.000,"status":"ok","state":{"timestamp_utc":"2026-05-09T11:04:44Z","class_index":0,"class_name":"not_out","is_out":false,"confidence":{"not_out":0.9930330514907837,"full":0.001315011759288609,"partial":0.005651821848005056},"weather":{"station":"KSEA","visibility_sm":10.0,"ceiling_ft":null,"raw":"KSEA 091053Z 00000KT 10SM FEW027 11/09 A3021 RMK AO2 SLP235 T01060089"},"webcam_url":"https://atmos.uw.edu/data/images/webcam2_latest.jpg","model_version":"latest"}}
{"started_at":"2026-05-09T11:19:48Z","finished_at":"2026-05-09T11:19:50Z","duration_seconds":2.000,"status":"ok","state":{"timestamp_utc":"2026-05-09T11:19:50Z","class_index":0,"class_name":"not_out","is_out":false,"confidence":{"not_out":0.9889740943908691,"full":0.0014382620574906468,"partial":0.009587576612830162},"weather":{"station":"KSEA","visibility_sm":10.0,"ceiling_ft":null,"raw":"KSEA 091053Z 00000KT 10SM FEW027 11/09 A3021 RMK AO2 SLP235 T01060089"},"webcam_url":"https://atmos.uw.edu/data/images/webcam2_latest.jpg","model_version":"latest"}}
{"started_at":"2026-05-09T11:34:53Z","finished_at":"2026-05-09T11:34:55Z","duration_seconds":2.000,"status":"ok","state":{"timestamp_utc":"2026-05-09T11:34:55Z","class_index":0,"class_name":"not_out","is_out":false,"confidence":{"not_out":0.989371657371521,"full":0.0014065125724300742,"partial":0.009221861138939857},"weather":{"station":"KSEA","visibility_sm":10.0,"ceiling_ft":null,"raw":"KSEA 091053Z 00000KT 10SM FEW027 11/09 A3021 RMK AO2 SLP235 T01060089"},"webcam_url":"https://atmos.uw.edu/data/images/webcam2_latest.jpg","model_version":"latest"}}
{"started_at":"2026-05-09T11:49:59Z","finished_at":"2026-05-09T11:50:01Z","duration_seconds":2.000,"status":"ok","state":{"timestamp_utc":"2026-05-09T11:50:01Z","class_index":0,"class_name":"not_out","is_out":false,"confidence":{"not_out":0.984655499458313,"full":0.002459295792505145,"partial":0.012885143049061298},"weather":{"station":"KSEA","visibility_sm":10.0,"ceiling_ft":null,"raw":"KSEA 091053Z 00000KT 10SM FEW027 11/09 A3021 RMK AO2 SLP235 T01060089"},"webcam_url":"https://atmos.uw.edu/data/images/webcam2_latest.jpg","model_version":"latest"}}
{"started_at":"2026-05-09T12:05:05Z","finished_at":"2026-05-09T12:05:06Z","duration_seconds":1.000,"status":"ok","state":{"timestamp_utc":"2026-05-09T12:05:06Z","class_index":2,"class_name":"partial","is_out":true,"confidence":{"not_out":0.447866290807724,"full":0.054252512753009796,"partial":0.4978812038898468},"weather":{"station":"KSEA","visibility_sm":10.0,"ceiling_ft":null,"raw":"KSEA 091153Z 00000KT 10SM FEW025 10/08 A3020 RMK AO2 SLP233 T01000083 10117 20100 56007"},"webcam_url":"https://atmos.uw.edu/data/images/webcam2_latest.jpg","model_version":"latest"}}
{"started_at":"2026-05-09T12:20:10Z","finished_at":"2026-05-09T12:20:13Z","duration_seconds":3.000,"status":"ok","state":{"timestamp_utc":"2026-05-09T12:20:13Z","class_index":1,"class_name":"full","is_out":true,"confidence":{"not_out":0.026018325239419937,"full":0.6313620209693909,"partial":0.3426196575164795},"weather":{"station":"KSEA","visibility_sm":10.0,"ceiling_ft":null,"raw":"KSEA 091153Z 00000KT 10SM FEW025 10/08 A3020 RMK AO2 SLP233 T01000083 10117 20100 56007"},"webcam_url":"https://atmos.uw.edu/data/images/webcam2_latest.jpg","model_version":"latest"}}
{"started_at":"2026-05-09T12:35:17Z","finished_at":"2026-05-09T12:35:19Z","duration_seconds":2.000,"status":"ok","state":{"timestamp_utc":"2026-05-09T12:35:19Z","class_index":1,"class_name":"full","is_out":true,"confidence":{"not_out":0.03808743879199028,"full":0.901553750038147,"partial":0.06035880371928215},"weather":{"station":"KSEA","visibility_sm":10.0,"ceiling_ft":null,"raw":"KSEA 091153Z 00000KT 10SM FEW025 10/08 A3020 RMK AO2 SLP233 T01000083 10117 20100 56007"},"webcam_url":"https://atmos.uw.edu/data/images/webcam2_latest.jpg","model_version":"latest"}}
{"started_at":"2026-05-09T12:50:22Z","finished_at":"2026-05-09T12:50:25Z","duration_seconds":3.000,"status":"ok","state":{"timestamp_utc":"2026-05-09T12:50:25Z","class_index":1,"class_name":"full","is_out":true,"confidence":{"not_out":0.016123680397868156,"full":0.9696140289306641,"partial":0.01426228042691946},"weather":{"station":"KSEA","visibility_sm":10.0,"ceiling_ft":null,"raw":"KSEA 091153Z 00000KT 10SM FEW025 10/08 A3020 RMK AO2 SLP233 T01000083 10117 20100 56007"},"webcam_url":"https://atmos.uw.edu/data/images/webcam2_latest.jpg","model_version":"latest"}}
{"started_at":"2026-05-09T13:05:28Z","finished_at":"2026-05-09T13:05:31Z","duration_seconds":3.000,"status":"ok","state":{"timestamp_utc":"2026-05-09T13:05:31Z","class_index":1,"class_name":"full","is_out":true,"confidence":{"not_out":0.057279329746961594,"full":0.9024685621261597,"partial":0.04025208577513695},"weather":{"station":"KSEA","visibility_sm":10.0,"ceiling_ft":null,"raw":"KSEA 091253Z 00000KT 10SM FEW002 FEW025 09/08 A3020 RMK AO2 SLP231 T00940078"},"webcam_url":"https://atmos.uw.edu/data/images/webcam2_latest.jpg","model_version":"latest"}}
{"started_at":"2026-05-09T13:20:34Z","finished_at":"2026-05-09T13:20:39Z","duration_seconds":5.000,"status":"ok","state":{"timestamp_utc":"2026-05-09T13:20:39Z","class_index":1,"class_name":"full","is_out":true,"confidence":{"not_out":0.14187413454055786,"full":0.6144203543663025,"partial":0.24370548129081726},"weather":{"station":"KSEA","visibility_sm":10.0,"ceiling_ft":null,"raw":"KSEA 091253Z 00000KT 10SM FEW002 FEW025 09/08 A3020 RMK AO2 SLP231 T00940078"},"webcam_url":"https://atmos.uw.edu/data/images/webcam2_latest.jpg","model_version":"latest"}}
{"started_at":"2026-05-09T13:35:43Z","finished_at":"2026-05-09T13:35:45Z","duration_seconds":2.000,"status":"ok","state":{"timestamp_utc":"2026-05-09T13:35:45Z","class_index":2,"class_name":"partial","is_out":true,"confidence":{"not_out":0.03877353295683861,"full":0.08719296008348465,"partial":0.8740334510803223},"weather":{"station":"KSEA","visibility_sm":10.0,"ceiling_ft":null,"raw":"KSEA 091253Z 00000KT 10SM FEW002 FEW025 09/08 A3020 RMK AO2 SLP231 T00940078"},"webcam_url":"https://atmos.uw.edu/data/images/webcam2_latest.jpg","model_version":"latest"}}
{"started_at":"2026-05-09T13:50:49Z","finished_at":"2026-05-09T13:50:51Z","duration_seconds":2.000,"status":"ok","state":{"timestamp_utc":"2026-05-09T13:50:51Z","class_index":1,"class_name":"full","is_out":true,"confidence":{"not_out":0.01630374975502491,"full":0.7239081263542175,"partial":0.2597881555557251},"weather":{"station":"KSEA","visibility_sm":10.0,"ceiling_ft":null,"raw":"KSEA 091253Z 00000KT 10SM FEW002 FEW025 09/08 A3020 RMK AO2 SLP231 T00940078"},"webcam_url":"https://atmos.uw.edu/data/images/webcam2_latest.jpg","model_version":"latest"}}
{"started_at":"2026-05-09T14:05:55Z","finished_at":"2026-05-09T14:05:57Z","duration_seconds":2.000,"status":"ok","state":{"timestamp_utc":"2026-05-09T14:05:57Z","class_index":2,"class_name":"partial","is_out":true,"confidence":{"not_out":0.005654856096953154,"full":0.396116703748703,"partial":0.5982284545898438},"weather":{"station":"KSEA","visibility_sm":10.0,"ceiling_ft":null,"raw":"KSEA 091353Z 00000KT 10SM FEW002 FEW025 11/09 A3020 RMK AO2 SLP232 T01060089"},"webcam_url":"https://atmos.uw.edu/data/images/webcam2_latest.jpg","model_version":"latest"}}
{"started_at":"2026-05-09T14:21:01Z","finished_at":"2026-05-09T14:21:03Z","duration_seconds":2.000,"status":"ok","state":{"timestamp_utc":"2026-05-09T14:21:03Z","class_index":2,"class_name":"partial","is_out":true,"confidence":{"not_out":0.006491706240922213,"full":0.45252323150634766,"partial":0.540985107421875},"weather":{"station":"KSEA","visibility_sm":10.0,"ceiling_ft":null,"raw":"KSEA 091353Z 00000KT 10SM FEW002 FEW025 11/09 A3020 RMK AO2 SLP232 T01060089"},"webcam_url":"https://atmos.uw.edu/data/images/webcam2_latest.jpg","model_version":"latest"}}
{"started_at":"2026-05-09T14:36:07Z","finished_at":"2026-05-09T14:36:08Z","duration_seconds":1.000,"status":"ok","state":{"timestamp_utc":"2026-05-09T14:36:08Z","class_index":2,"class_name":"partial","is_out":true,"confidence":{"not_out":0.00398272043094039,"full":0.15577059984207153,"partial":0.8402466773986816},"weather":{"station":"KSEA","visibility_sm":10.0,"ceiling_ft":null,"raw":"KSEA 091353Z 00000KT 10SM FEW002 FEW025 11/09 A3020 RMK AO2 SLP232 T01060089"},"webcam_url":"https://atmos.uw.edu/data/images/webcam2_latest.jpg","model_version":"latest"}}
{"started_at":"2026-05-09T14:51:12Z","finished_at":"2026-05-09T14:51:17Z","duration_seconds":5.000,"status":"ok","state":{"timestamp_utc":"2026-05-09T14:51:17Z","class_index":2,"class_name":"partial","is_out":true,"confidence":{"not_out":0.004432380199432373,"full":0.4553433358669281,"partial":0.5402242541313171},"weather":{"station":"KSEA","visibility_sm":10.0,"ceiling_ft":null,"raw":"KSEA 091353Z 00000KT 10SM FEW002 FEW025 11/09 A3020 RMK AO2 SLP232 T01060089"},"webcam_url":"https://atmos.uw.edu/data/images/webcam2_latest.jpg","model_version":"latest"}}
{"started_at":"2026-05-09T15:06:21Z","finished_at":"2026-05-09T15:06:23Z","duration_seconds":2.000,"status":"ok","state":{"timestamp_utc":"2026-05-09T15:06:23Z","class_index":2,"class_name":"partial","is_out":true,"confidence":{"not_out":0.007522010710090399,"full":0.4258866012096405,"partial":0.5665914416313171},"weather":{"station":"KSEA","visibility_sm":10.0,"ceiling_ft":2500.0,"raw":"KSEA 091453Z 06003KT 10SM SCT005 BKN025 12/09 A3020 RMK AO2 SLP232 T01220089 56001"},"webcam_url":"https://atmos.uw.edu/data/images/webcam2_latest.jpg","model_version":"latest"}}
{"started_at":"2026-05-09T15:21:27Z","finished_at":"2026-05-09T15:21:29Z","duration_seconds":2.000,"status":"ok","state":{"timestamp_utc":"2026-05-09T15:21:29Z","class_index":1,"class_name":"full","is_out":true,"confidence":{"not_out":0.020420344546437263,"full":0.9119641184806824,"partial":0.06761560589075089},"weather":{"station":"KSEA","visibility_sm":10.0,"ceiling_ft":2500.0,"raw":"KSEA 091453Z 06003KT 10SM SCT005 BKN025 12/09 A3020 RMK AO2 SLP232 T01220089 56001"},"webcam_url":"https://atmos.uw.edu/data/images/webcam2_latest.jpg","model_version":"latest"}}
{"started_at":"2026-05-09T15:36:33Z","finished_at":"2026-05-09T15:36:35Z","duration_seconds":2.000,"status":"ok","state":{"timestamp_utc":"2026-05-09T15:36:35Z","class_index":1,"class_name":"full","is_out":true,"confidence":{"not_out":0.005898727104067802,"full":0.9031273126602173,"partial":0.09097389131784439},"weather":{"station":"KSEA","visibility_sm":10.0,"ceiling_ft":25000.0,"raw":"KSEA 091523Z 00000KT 10SM FEW005 SCT025 BKN250 13/09 A3018 RMK AO2 T01280089"},"webcam_url":"https://atmos.uw.edu/data/images/webcam2_latest.jpg","model_version":"latest"}}
{"started_at":"2026-05-09T15:51:39Z","finished_at":"2026-05-09T15:51:41Z","duration_seconds":2.000,"status":"ok","state":{"timestamp_utc":"2026-05-09T15:51:41Z","class_index":1,"class_name":"full","is_out":true,"confidence":{"not_out":0.010601663030683994,"full":0.8907391428947449,"partial":0.0986592248082161},"weather":{"station":"KSEA","visibility_sm":10.0,"ceiling_ft":25000.0,"raw":"KSEA 091523Z 00000KT 10SM FEW005 SCT025 BKN250 13/09 A3018 RMK AO2 T01280089"},"webcam_url":"https://atmos.uw.edu/data/images/webcam2_latest.jpg","model_version":"latest"}}
{"started_at":"2026-05-09T16:06:45Z","finished_at":"2026-05-09T16:06:47Z","duration_seconds":2.000,"status":"ok","state":{"timestamp_utc":"2026-05-09T16:06:47Z","class_index":2,"class_name":"partial","is_out":true,"confidence":{"not_out":0.028026033192873,"full":0.18471118807792664,"partial":0.7872627973556519},"weather":{"station":"KSEA","visibility_sm":10.0,"ceiling_ft":null,"raw":"KSEA 091553Z 17003KT 10SM FEW014 SCT025 SCT250 13/09 A3018 RMK AO2 SLP227 T01330089"},"webcam_url":"https://atmos.uw.edu/data/images/webcam2_latest.jpg","model_version":"latest"}}
{"started_at":"2026-05-09T16:21:51Z","finished_at":"2026-05-09T16:21:53Z","duration_seconds":2.000,"status":"ok","state":{"timestamp_utc":"2026-05-09T16:21:53Z","class_index":1,"class_name":"full","is_out":true,"confidence":{"not_out":0.039859380573034286,"full":0.558143675327301,"partial":0.4019969701766968},"weather":{"station":"KSEA","visibility_sm":10.0,"ceiling_ft":null,"raw":"KSEA 091553Z 17003KT 10SM FEW014 SCT025 SCT250 13/09 A3018 RMK AO2 SLP227 T01330089"},"webcam_url":"https://atmos.uw.edu/data/images/webcam2_latest.jpg","model_version":"latest"}}
{"started_at":"2026-05-09T16:36:57Z","finished_at":"2026-05-09T16:36:59Z","duration_seconds":2.000,"status":"ok","state":{"timestamp_utc":"2026-05-09T16:36:59Z","class_index":1,"class_name":"full","is_out":true,"confidence":{"not_out":0.010009353049099445,"full":0.7916563153266907,"partial":0.19833435118198395},"weather":{"station":"KSEA","visibility_sm":10.0,"ceiling_ft":null,"raw":"KSEA 091553Z 17003KT 10SM FEW014 SCT025 SCT250 13/09 A3018 RMK AO2 SLP227 T01330089"},"webcam_url":"https://atmos.uw.edu/data/images/webcam2_latest.jpg","model_version":"latest"}}
{"started_at":"2026-05-09T16:52:03Z","finished_at":"2026-05-09T16:52:05Z","duration_seconds":2.000,"status":"ok","state":{"timestamp_utc":"2026-05-09T16:52:05Z","class_index":2,"class_name":"partial","is_out":true,"confidence":{"not_out":0.029169151559472084,"full":0.43340325355529785,"partial":0.5374276638031006},"weather":{"station":"KSEA","visibility_sm":10.0,"ceiling_ft":null,"raw":"KSEA 091553Z 17003KT 10SM FEW014 SCT025 SCT250 13/09 A3018 RMK AO2 SLP227 T01330089"},"webcam_url":"https://atmos.uw.edu/data/images/webcam2_latest.jpg","model_version":"latest"}}
{"started_at":"2026-05-09T17:07:09Z","finished_at":"2026-05-09T17:07:11Z","duration_seconds":2.000,"status":"ok","state":{"timestamp_utc":"2026-05-09T17:07:11Z","class_index":2,"class_name":"partial","is_out":true,"confidence":{"not_out":0.04579296335577965,"full":0.009564929641783237,"partial":0.9446421265602112},"weather":{"station":"KSEA","visibility_sm":10.0,"ceiling_ft":25000.0,"raw":"KSEA 091653Z 27005KT 10SM SCT016 BKN250 14/10 A3017 RMK AO2 SLP222 T01440100"},"webcam_url":"https://atmos.uw.edu/data/images/webcam2_latest.jpg","model_version":"latest"}}
{"started_at":"2026-05-09T17:22:14Z","finished_at":"2026-05-09T17:22:17Z","duration_seconds":3.000,"status":"ok","state":{"timestamp_utc":"2026-05-09T17:22:17Z","class_index":2,"class_name":"partial","is_out":true,"confidence":{"not_out":0.029843678697943687,"full":0.025222351774573326,"partial":0.9449340105056763},"weather":{"station":"KSEA","visibility_sm":10.0,"ceiling_ft":25000.0,"raw":"KSEA 091653Z 27005KT 10SM SCT016 BKN250 14/10 A3017 RMK AO2 SLP222 T01440100"},"webcam_url":"https://atmos.uw.edu/data/images/webcam2_latest.jpg","model_version":"latest"}}
{"started_at":"2026-05-09T17:37:20Z","finished_at":"2026-05-09T17:37:23Z","duration_seconds":3.000,"status":"ok","state":{"timestamp_utc":"2026-05-09T17:37:23Z","class_index":0,"class_name":"not_out","is_out":false,"confidence":{"not_out":0.5469653010368347,"full":0.3149974048137665,"partial":0.13803736865520477},"weather":{"station":"KSEA","visibility_sm":10.0,"ceiling_ft":25000.0,"raw":"KSEA 091653Z 27005KT 10SM SCT016 BKN250 14/10 A3017 RMK AO2 SLP222 T01440100"},"webcam_url":"https://atmos.uw.edu/data/images/webcam2_latest.jpg","model_version":"latest"}}
{"started_at":"2026-05-09T17:52:26Z","finished_at":"2026-05-09T17:52:29Z","duration_seconds":3.000,"status":"ok","state":{"timestamp_utc":"2026-05-09T17:52:29Z","class_index":1,"class_name":"full","is_out":true,"confidence":{"not_out":0.2041284441947937,"full":0.7503600120544434,"partial":0.04551152512431145},"weather":{"station":"KSEA","visibility_sm":10.0,"ceiling_ft":25000.0,"raw":"KSEA 091653Z 27005KT 10SM SCT016 BKN250 14/10 A3017 RMK AO2 SLP222 T01440100"},"webcam_url":"https://atmos.uw.edu/data/images/webcam2_latest.jpg","model_version":"latest"}}
{"started_at":"2026-05-09T18:07:33Z","finished_at":"2026-05-09T18:07:35Z","duration_seconds":2.000,"status":"ok","state":{"timestamp_utc":"2026-05-09T18:07:35Z","class_index":1,"class_name":"full","is_out":true,"confidence":{"not_out":0.38107210397720337,"full":0.5455643534660339,"partial":0.07336362451314926},"weather":{"station":"KSEA","visibility_sm":10.0,"ceiling_ft":25000.0,"raw":"KSEA 091753Z 31005KT 10SM FEW024 BKN250 16/10 A3015 RMK AO2 SLP218 T01610100 10161 20089 56014"},"webcam_url":"https://atmos.uw.edu/data/images/webcam2_latest.jpg","model_version":"latest"}}
{"started_at":"2026-05-09T18:22:39Z","finished_at":"2026-05-09T18:22:42Z","duration_seconds":3.000,"status":"ok","state":{"timestamp_utc":"2026-05-09T18:22:42Z","class_index":0,"class_name":"not_out","is_out":false,"confidence":{"not_out":0.5719738602638245,"full":0.39396730065345764,"partial":0.0340588241815567},"weather":{"station":"KSEA","visibility_sm":10.0,"ceiling_ft":25000.0,"raw":"KSEA 091753Z 31005KT 10SM FEW024 BKN250 16/10 A3015 RMK AO2 SLP218 T01610100 10161 20089 56014"},"webcam_url":"https://atmos.uw.edu/data/images/webcam2_latest.jpg","model_version":"latest"}}
{"started_at":"2026-05-09T18:37:46Z","finished_at":"2026-05-09T18:37:48Z","duration_seconds":2.000,"status":"ok","state":{"timestamp_utc":"2026-05-09T18:37:48Z","class_index":0,"class_name":"not_out","is_out":false,"confidence":{"not_out":0.9950957894325256,"full":0.002411188092082739,"partial":0.002493061823770404},"weather":{"station":"KSEA","visibility_sm":10.0,"ceiling_ft":25000.0,"raw":"KSEA 091753Z 31005KT 10SM FEW024 BKN250 16/10 A3015 RMK AO2 SLP218 T01610100 10161 20089 56014"},"webcam_url":"https://atmos.uw.edu/data/images/webcam2_latest.jpg","model_version":"latest"}}
{"started_at":"2026-05-09T18:52:52Z","finished_at":"2026-05-09T18:52:54Z","duration_seconds":2.000,"status":"ok","state":{"timestamp_utc":"2026-05-09T18:52:54Z","class_index":0,"class_name":"not_out","is_out":false,"confidence":{"not_out":0.8569665551185608,"full":0.13551758229732513,"partial":0.0075159030966460705},"weather":{"station":"KSEA","visibility_sm":10.0,"ceiling_ft":25000.0,"raw":"KSEA 091753Z 31005KT 10SM FEW024 BKN250 16/10 A3015 RMK AO2 SLP218 T01610100 10161 20089 56014"},"webcam_url":"https://atmos.uw.edu/data/images/webcam2_latest.jpg","model_version":"latest"}}
{"started_at":"2026-05-09T19:07:58Z","finished_at":"2026-05-09T19:08:00Z","duration_seconds":2.000,"status":"ok","state":{"timestamp_utc":"2026-05-09T19:08:00Z","class_index":0,"class_name":"not_out","is_out":false,"confidence":{"not_out":0.8588413000106812,"full":0.1313551962375641,"partial":0.009803496301174164},"weather":{"station":"KSEA","visibility_sm":10.0,"ceiling_ft":25000.0,"raw":"KSEA 091853Z 28006KT 10SM BKN250 17/09 A3015 RMK AO2 SLP215 T01670094"},"webcam_url":"https://atmos.uw.edu/data/images/webcam2_latest.jpg","model_version":"latest"}}
{"started_at":"2026-05-09T19:23:04Z","finished_at":"2026-05-09T19:23:06Z","duration_seconds":2.000,"status":"ok","state":{"timestamp_utc":"2026-05-09T19:23:06Z","class_index":0,"class_name":"not_out","is_out":false,"confidence":{"not_out":0.8565045595169067,"full":0.13360029458999634,"partial":0.009895182214677334},"weather":{"station":"KSEA","visibility_sm":10.0,"ceiling_ft":25000.0,"raw":"KSEA 091853Z 28006KT 10SM BKN250 17/09 A3015 RMK AO2 SLP215 T01670094"},"webcam_url":"https://atmos.uw.edu/data/images/webcam2_latest.jpg","model_version":"latest"}}
{"started_at":"2026-05-09T19:38:10Z","finished_at":"2026-05-09T19:38:12Z","duration_seconds":2.000,"status":"ok","state":{"timestamp_utc":"2026-05-09T19:38:12Z","class_index":0,"class_name":"not_out","is_out":false,"confidence":{"not_out":0.985535740852356,"full":0.012838801369071007,"partial":0.0016255625523626804},"weather":{"station":"KSEA","visibility_sm":10.0,"ceiling_ft":25000.0,"raw":"KSEA 091853Z 28006KT 10SM BKN250 17/09 A3015 RMK AO2 SLP215 T01670094"},"webcam_url":"https://atmos.uw.edu/data/images/webcam2_latest.jpg","model_version":"latest"}}
{"started_at":"2026-05-09T19:53:16Z","finished_at":"2026-05-09T19:53:20Z","duration_seconds":4.000,"status":"ok","state":{"timestamp_utc":"2026-05-09T19:53:20Z","class_index":0,"class_name":"not_out","is_out":false,"confidence":{"not_out":0.9937207698822021,"full":0.0029377941973507404,"partial":0.003341425210237503},"weather":{"station":"KSEA","visibility_sm":10.0,"ceiling_ft":25000.0,"raw":"KSEA 091853Z 28006KT 10SM BKN250 17/09 A3015 RMK AO2 SLP215 T01670094"},"webcam_url":"https://atmos.uw.edu/data/images/webcam2_latest.jpg","model_version":"latest"}}
{"started_at":"2026-05-09T20:08:24Z","finished_at":"2026-05-09T20:08:26Z","duration_seconds":2.000,"status":"ok","state":{"timestamp_utc":"2026-05-09T20:08:26Z","class_index":0,"class_name":"not_out","is_out":false,"confidence":{"not_out":0.9891541600227356,"full":0.0054794312454760075,"partial":0.005366407334804535},"weather":{"station":"KSEA","visibility_sm":10.0,"ceiling_ft":25000.0,"raw":"KSEA 091953Z 29009KT 10SM BKN250 18/09 A3013 RMK AO2 SLP207 T01830094"},"webcam_url":"https://atmos.uw.edu/data/images/webcam2_latest.jpg","model_version":"latest"}}
{"started_at":"2026-05-09T20:23:30Z","finished_at":"2026-05-09T20:23:32Z","duration_seconds":2.000,"status":"ok","state":{"timestamp_utc":"2026-05-09T20:23:32Z","class_index":0,"class_name":"not_out","is_out":false,"confidence":{"not_out":0.9953610301017761,"full":0.002513439394533634,"partial":0.0021255447063595057},"weather":{"station":"KSEA","visibility_sm":10.0,"ceiling_ft":25000.0,"raw":"KSEA 091953Z 29009KT 10SM BKN250 18/09 A3013 RMK AO2 SLP207 T01830094"},"webcam_url":"https://atmos.uw.edu/data/images/webcam2_latest.jpg","model_version":"latest"}}
{"started_at":"2026-05-09T20:38:36Z","finished_at":"2026-05-09T20:38:38Z","duration_seconds":2.000,"status":"ok","state":{"timestamp_utc":"2026-05-09T20:38:38Z","class_index":0,"class_name":"not_out","is_out":false,"confidence":{"not_out":0.9942582845687866,"full":0.0024998935405164957,"partial":0.0032418062910437584},"weather":{"station":"KSEA","visibility_sm":10.0,"ceiling_ft":25000.0,"raw":"KSEA 091953Z 29009KT 10SM BKN250 18/09 A3013 RMK AO2 SLP207 T01830094"},"webcam_url":"https://atmos.uw.edu/data/images/webcam2_latest.jpg","model_version":"latest"}}
{"started_at":"2026-05-09T20:53:42Z","finished_at":"2026-05-09T20:53:44Z","duration_seconds":2.000,"status":"ok","state":{"timestamp_utc":"2026-05-09T20:53:44Z","class_index":0,"class_name":"not_out","is_out":false,"confidence":{"not_out":0.9968714118003845,"full":0.0016666257288306952,"partial":0.0014619677094742656},"weather":{"station":"KSEA","visibility_sm":10.0,"ceiling_ft":25000.0,"raw":"KSEA 091953Z 29009KT 10SM BKN250 18/09 A3013 RMK AO2 SLP207 T01830094"},"webcam_url":"https://atmos.uw.edu/data/images/webcam2_latest.jpg","model_version":"latest"}}
{"started_at":"2026-05-09T21:08:48Z","finished_at":"2026-05-09T21:08:50Z","duration_seconds":2.000,"status":"ok","state":{"timestamp_utc":"2026-05-09T21:08:50Z","class_index":0,"class_name":"not_out","is_out":false,"confidence":{"not_out":0.9961965084075928,"full":0.0024588718079030514,"partial":0.0013446606462821364},"weather":{"station":"KSEA","visibility_sm":10.0,"ceiling_ft":25000.0,"raw":"KSEA 092053Z 28008KT 10SM BKN250 18/08 A3011 RMK AO2 SLP201 T01830083 58016"},"webcam_url":"https://atmos.uw.edu/data/images/webcam2_latest.jpg","model_version":"latest"}}
{"started_at":"2026-05-09T21:23:54Z","finished_at":"2026-05-09T21:23:57Z","duration_seconds":3.000,"status":"ok","state":{"timestamp_utc":"2026-05-09T21:23:57Z","class_index":0,"class_name":"not_out","is_out":false,"confidence":{"not_out":0.9967321157455444,"full":0.0004329463990870863,"partial":0.002834926825016737},"weather":{"station":"KSEA","visibility_sm":10.0,"ceiling_ft":25000.0,"raw":"KSEA 092053Z 28008KT 10SM BKN250 18/08 A3011 RMK AO2 SLP201 T01830083 58016"},"webcam_url":"https://atmos.uw.edu/data/images/webcam2_latest.jpg","model_version":"latest"}}
{"started_at":"2026-05-09T21:39:01Z","finished_at":"2026-05-09T21:39:04Z","duration_seconds":3.000,"status":"ok","state":{"timestamp_utc":"2026-05-09T21:39:04Z","class_index":0,"class_name":"not_out","is_out":false,"confidence":{"not_out":0.995385468006134,"full":0.00043324599391780794,"partial":0.004181315656751394},"weather":{"station":"KSEA","visibility_sm":10.0,"ceiling_ft":25000.0,"raw":"KSEA 092053Z 28008KT 10SM BKN250 18/08 A3011 RMK AO2 SLP201 T01830083 58016"},"webcam_url":"https://atmos.uw.edu/data/images/webcam2_latest.jpg","model_version":"latest"}}
{"started_at":"2026-05-09T21:54:08Z","finished_at":"2026-05-09T21:54:10Z","duration_seconds":2.000,"status":"ok","state":{"timestamp_utc":"2026-05-09T21:54:10Z","class_index":0,"class_name":"not_out","is_out":false,"confidence":{"not_out":0.995657205581665,"full":0.000287884846329689,"partial":0.004054998513311148},"weather":{"station":"KSEA","visibility_sm":10.0,"ceiling_ft":25000.0,"raw":"KSEA 092053Z 28008KT 10SM BKN250 18/08 A3011 RMK AO2 SLP201 T01830083 58016"},"webcam_url":"https://atmos.uw.edu/data/images/webcam2_latest.jpg","model_version":"latest"}}
{"started_at":"2026-05-09T22:09:14Z","finished_at":"2026-05-09T22:09:16Z","duration_seconds":2.000,"status":"ok","state":{"timestamp_utc":"2026-05-09T22:09:16Z","class_index":0,"class_name":"not_out","is_out":false,"confidence":{"not_out":0.9877344965934753,"full":0.005690660793334246,"partial":0.006574708968400955},"weather":{"station":"KSEA","visibility_sm":10.0,"ceiling_ft":25000.0,"raw":"KSEA 092153Z 31008KT 10SM BKN250 19/07 A3010 RMK AO2 SLP198 T01890072"},"webcam_url":"https://atmos.uw.edu/data/images/webcam2_latest.jpg","model_version":"latest"}}
{"started_at":"2026-05-09T22:24:20Z","finished_at":"2026-05-09T22:24:22Z","duration_seconds":2.000,"status":"ok","state":{"timestamp_utc":"2026-05-09T22:24:22Z","class_index":0,"class_name":"not_out","is_out":false,"confidence":{"not_out":0.9328183531761169,"full":0.04754696041345596,"partial":0.01963464915752411},"weather":{"station":"KSEA","visibility_sm":10.0,"ceiling_ft":25000.0,"raw":"KSEA 092153Z 31008KT 10SM BKN250 19/07 A3010 RMK AO2 SLP198 T01890072"},"webcam_url":"https://atmos.uw.edu/data/images/webcam2_latest.jpg","model_version":"latest"}}
{"started_at":"2026-05-09T22:39:26Z","finished_at":"2026-05-09T22:39:28Z","duration_seconds":2.000,"status":"ok","state":{"timestamp_utc":"2026-05-09T22:39:28Z","class_index":0,"class_name":"not_out","is_out":false,"confidence":{"not_out":0.9740152359008789,"full":0.02201649732887745,"partial":0.003968250006437302},"weather":{"station":"KSEA","visibility_sm":10.0,"ceiling_ft":25000.0,"raw":"KSEA 092153Z 31008KT 10SM BKN250 19/07 A3010 RMK AO2 SLP198 T01890072"},"webcam_url":"https://atmos.uw.edu/data/images/webcam2_latest.jpg","model_version":"latest"}}
{"started_at":"2026-05-09T22:54:32Z","finished_at":"2026-05-09T22:54:34Z","duration_seconds":2.000,"status":"ok","state":{"timestamp_utc":"2026-05-09T22:54:34Z","class_index":0,"class_name":"not_out","is_out":false,"confidence":{"not_out":0.9910507202148438,"full":0.0063063898123800755,"partial":0.0026428282726556063},"weather":{"station":"KSEA","visibility_sm":10.0,"ceiling_ft":25000.0,"raw":"KSEA 092153Z 31008KT 10SM BKN250 19/07 A3010 RMK AO2 SLP198 T01890072"},"webcam_url":"https://atmos.uw.edu/data/images/webcam2_latest.jpg","model_version":"latest"}}
{"started_at":"2026-05-09T23:09:38Z","finished_at":"2026-05-09T23:09:40Z","duration_seconds":2.000,"status":"ok","state":{"timestamp_utc":"2026-05-09T23:09:40Z","class_index":0,"class_name":"not_out","is_out":false,"confidence":{"not_out":0.9144902229309082,"full":0.06747466325759888,"partial":0.018035169690847397},"weather":{"station":"KSEA","visibility_sm":10.0,"ceiling_ft":23000.0,"raw":"KSEA 092253Z 33007KT 10SM BKN230 20/07 A3009 RMK AO2 SLP194 T02000067"},"webcam_url":"https://atmos.uw.edu/data/images/webcam2_latest.jpg","model_version":"latest"}}
{"started_at":"2026-05-09T23:24:44Z","finished_at":"2026-05-09T23:24:45Z","duration_seconds":2.000,"status":"ok","state":{"timestamp_utc":"2026-05-09T23:24:45Z","class_index":0,"class_name":"not_out","is_out":false,"confidence":{"not_out":0.9566078186035156,"full":0.03096805512905121,"partial":0.012424060143530369},"weather":{"station":"KSEA","visibility_sm":10.0,"ceiling_ft":23000.0,"raw":"KSEA 092253Z 33007KT 10SM BKN230 20/07 A3009 RMK AO2 SLP194 T02000067"},"webcam_url":"https://atmos.uw.edu/data/images/webcam2_latest.jpg","model_version":"latest"}}
{"started_at":"2026-05-09T23:39:49Z","finished_at":"2026-05-09T23:39:51Z","duration_seconds":2.000,"status":"ok","state":{"timestamp_utc":"2026-05-09T23:39:51Z","class_index":0,"class_name":"not_out","is_out":false,"confidence":{"not_out":0.961137592792511,"full":0.02798493206501007,"partial":0.01087748073041439},"weather":{"station":"KSEA","visibility_sm":10.0,"ceiling_ft":23000.0,"raw":"KSEA 092253Z 33007KT 10SM BKN230 20/07 A3009 RMK AO2 SLP194 T02000067"},"webcam_url":"https://atmos.uw.edu/data/images/webcam2_latest.jpg","model_version":"latest"}}
{"started_at":"2026-05-09T23:54:55Z","finished_at":"2026-05-09T23:54:58Z","duration_seconds":3.000,"status":"ok","state":{"timestamp_utc":"2026-05-09T23:54:58Z","class_index":0,"class_name":"not_out","is_out":false,"confidence":{"not_out":0.9829803705215454,"full":0.0022979662753641605,"partial":0.014721633866429329},"weather":{"station":"KSEA","visibility_sm":10.0,"ceiling_ft":23000.0,"raw":"KSEA 092253Z 33007KT 10SM BKN230 20/07 A3009 RMK AO2 SLP194 T02000067"},"webcam_url":"https://atmos.uw.edu/data/images/webcam2_latest.jpg","model_version":"latest"}}
{"started_at":"2026-05-10T00:10:02Z","finished_at":"2026-05-10T00:10:04Z","duration_seconds":2.000,"status":"ok","state":{"timestamp_utc":"2026-05-10T00:10:04Z","class_index":0,"class_name":"not_out","is_out":false,"confidence":{"not_out":0.96249920129776,"full":0.01984679140150547,"partial":0.01765398308634758},"weather":{"station":"KSEA","visibility_sm":10.0,"ceiling_ft":20000.0,"raw":"KSEA 092353Z 01005KT 10SM BKN200 21/07 A3006 RMK AO2 SLP185 T02060072 10206 20161 58015"},"webcam_url":"https://atmos.uw.edu/data/images/webcam2_latest.jpg","model_version":"latest"}}
{"started_at":"2026-05-10T00:25:08Z","finished_at":"2026-05-10T00:25:10Z","duration_seconds":2.000,"status":"ok","state":{"timestamp_utc":"2026-05-10T00:25:10Z","class_index":0,"class_name":"not_out","is_out":false,"confidence":{"not_out":0.9552527070045471,"full":0.03195328265428543,"partial":0.012794016860425472},"weather":{"station":"KSEA","visibility_sm":10.0,"ceiling_ft":20000.0,"raw":"KSEA 092353Z 01005KT 10SM BKN200 21/07 A3006 RMK AO2 SLP185 T02060072 10206 20161 58015"},"webcam_url":"https://atmos.uw.edu/data/images/webcam2_latest.jpg","model_version":"latest"}}
{"started_at":"2026-05-10T00:40:14Z","finished_at":"2026-05-10T00:40:16Z","duration_seconds":2.000,"status":"ok","state":{"timestamp_utc":"2026-05-10T00:40:16Z","class_index":0,"class_name":"not_out","is_out":false,"confidence":{"not_out":0.8921871781349182,"full":0.05897396430373192,"partial":0.04883884638547897},"weather":{"station":"KSEA","visibility_sm":10.0,"ceiling_ft":20000.0,"raw":"KSEA 092353Z 01005KT 10SM BKN200 21/07 A3006 RMK AO2 SLP185 T02060072 10206 20161 58015"},"webcam_url":"https://atmos.uw.edu/data/images/webcam2_latest.jpg","model_version":"latest"}}
{"started_at":"2026-05-10T00:55:20Z","finished_at":"2026-05-10T00:55:22Z","duration_seconds":2.000,"status":"ok","state":{"timestamp_utc":"2026-05-10T00:55:22Z","class_index":0,"class_name":"not_out","is_out":false,"confidence":{"not_out":0.9722669124603271,"full":0.00557371461763978,"partial":0.022159455344080925},"weather":{"station":"KSEA","visibility_sm":10.0,"ceiling_ft":20000.0,"raw":"KSEA 092353Z 01005KT 10SM BKN200 21/07 A3006 RMK AO2 SLP185 T02060072 10206 20161 58015"},"webcam_url":"https://atmos.uw.edu/data/images/webcam2_latest.jpg","model_version":"latest"}}
{"started_at":"2026-05-10T01:10:26Z","finished_at":"2026-05-10T01:10:28Z","duration_seconds":2.000,"status":"ok","state":{"timestamp_utc":"2026-05-10T01:10:28Z","class_index":0,"class_name":"not_out","is_out":false,"confidence":{"not_out":0.9145524501800537,"full":0.004890309646725655,"partial":0.08055723458528519},"weather":{"station":"KSEA","visibility_sm":10.0,"ceiling_ft":20000.0,"raw":"KSEA 100053Z 35004KT 10SM BKN200 20/08 A3005 RMK AO2 SLP179 T02000078"},"webcam_url":"https://atmos.uw.edu/data/images/webcam2_latest.jpg","model_version":"latest"}}
{"started_at":"2026-05-10T01:25:32Z","finished_at":"2026-05-10T01:25:34Z","duration_seconds":2.000,"status":"ok","state":{"timestamp_utc":"2026-05-10T01:25:34Z","class_index":2,"class_name":"partial","is_out":true,"confidence":{"not_out":0.30039212107658386,"full":0.04348449036478996,"partial":0.6561233401298523},"weather":{"station":"KSEA","visibility_sm":10.0,"ceiling_ft":20000.0,"raw":"KSEA 100053Z 35004KT 10SM BKN200 20/08 A3005 RMK AO2 SLP179 T02000078"},"webcam_url":"https://atmos.uw.edu/data/images/webcam2_latest.jpg","model_version":"latest"}}
{"started_at":"2026-05-10T01:40:38Z","finished_at":"2026-05-10T01:40:40Z","duration_seconds":2.000,"status":"ok","state":{"timestamp_utc":"2026-05-10T01:40:40Z","class_index":0,"class_name":"not_out","is_out":false,"confidence":{"not_out":0.886476457118988,"full":0.014505431056022644,"partial":0.09901808947324753},"weather":{"station":"KSEA","visibility_sm":10.0,"ceiling_ft":20000.0,"raw":"KSEA 100053Z 35004KT 10SM BKN200 20/08 A3005 RMK AO2 SLP179 T02000078"},"webcam_url":"https://atmos.uw.edu/data/images/webcam2_latest.jpg","model_version":"latest"}}
{"started_at":"2026-05-10T01:55:44Z","finished_at":"2026-05-10T01:55:46Z","duration_seconds":2.000,"status":"ok","state":{"timestamp_utc":"2026-05-10T01:55:46Z","class_index":0,"class_name":"not_out","is_out":false,"confidence":{"not_out":0.7263407707214355,"full":0.19868573546409607,"partial":0.07497361302375793},"weather":{"station":"KSEA","visibility_sm":10.0,"ceiling_ft":20000.0,"raw":"KSEA 100153Z 30004KT 10SM BKN200 19/08 A3002 RMK AO2 SLP172 T01890083"},"webcam_url":"https://atmos.uw.edu/data/images/webcam2_latest.jpg","model_version":"latest"}}
{"started_at":"2026-05-10T02:10:51Z","finished_at":"2026-05-10T02:10:53Z","duration_seconds":2.000,"status":"ok","state":{"timestamp_utc":"2026-05-10T02:10:53Z","class_index":0,"class_name":"not_out","is_out":false,"confidence":{"not_out":0.9596607685089111,"full":0.015574298799037933,"partial":0.024764979258179665},"weather":{"station":"KSEA","visibility_sm":10.0,"ceiling_ft":20000.0,"raw":"KSEA 100153Z 30004KT 10SM BKN200 19/08 A3002 RMK AO2 SLP172 T01890083"},"webcam_url":"https://atmos.uw.edu/data/images/webcam2_latest.jpg","model_version":"latest"}}
{"started_at":"2026-05-10T02:25:56Z","finished_at":"2026-05-10T02:25:59Z","duration_seconds":3.000,"status":"ok","state":{"timestamp_utc":"2026-05-10T02:25:59Z","class_index":0,"class_name":"not_out","is_out":false,"confidence":{"not_out":0.9055699706077576,"full":0.024017971009016037,"partial":0.07041197270154953},"weather":{"station":"KSEA","visibility_sm":10.0,"ceiling_ft":20000.0,"raw":"KSEA 100153Z 30004KT 10SM BKN200 19/08 A3002 RMK AO2 SLP172 T01890083"},"webcam_url":"https://atmos.uw.edu/data/images/webcam2_latest.jpg","model_version":"latest"}}
{"started_at":"2026-05-10T02:41:03Z","finished_at":"2026-05-10T02:41:05Z","duration_seconds":2.000,"status":"ok","state":{"timestamp_utc":"2026-05-10T02:41:05Z","class_index":0,"class_name":"not_out","is_out":false,"confidence":{"not_out":0.8447659015655518,"full":0.08712589740753174,"partial":0.0681082159280777},"weather":{"station":"KSEA","visibility_sm":10.0,"ceiling_ft":20000.0,"raw":"KSEA 100153Z 30004KT 10SM BKN200 19/08 A3002 RMK AO2 SLP172 T01890083"},"webcam_url":"https://atmos.uw.edu/data/images/webcam2_latest.jpg","model_version":"latest"}}
{"started_at":"2026-05-10T02:56:09Z","finished_at":"2026-05-10T02:56:11Z","duration_seconds":3.000,"status":"ok","state":{"timestamp_utc":"2026-05-10T02:56:11Z","class_index":0,"class_name":"not_out","is_out":false,"confidence":{"not_out":0.9939716458320618,"full":0.00016165630950126797,"partial":0.005866700783371925},"weather":{"station":"KSEA","visibility_sm":10.0,"ceiling_ft":23000.0,"raw":"KSEA 100253Z 01005KT 10SM SCT180 BKN230 18/08 A3001 RMK AO2 SLP167 T01830083 56018"},"webcam_url":"https://atmos.uw.edu/data/images/webcam2_latest.jpg","model_version":"latest"}}
{"started_at":"2026-05-10T03:11:15Z","finished_at":"2026-05-10T03:11:17Z","duration_seconds":2.000,"status":"ok","state":{"timestamp_utc":"2026-05-10T03:11:17Z","class_index":0,"class_name":"not_out","is_out":false,"confidence":{"not_out":0.970445990562439,"full":0.017534153535962105,"partial":0.012019787915050983},"weather":{"station":"KSEA","visibility_sm":10.0,"ceiling_ft":23000.0,"raw":"KSEA 100253Z 01005KT 10SM SCT180 BKN230 18/08 A3001 RMK AO2 SLP167 T01830083 56018"},"webcam_url":"https://atmos.uw.edu/data/images/webcam2_latest.jpg","model_version":"latest"}}
{"started_at":"2026-05-10T03:26:21Z","finished_at":"2026-05-10T03:26:23Z","duration_seconds":2.000,"status":"ok","state":{"timestamp_utc":"2026-05-10T03:26:23Z","class_index":0,"class_name":"not_out","is_out":false,"confidence":{"not_out":0.9582809209823608,"full":0.03173941373825073,"partial":0.009979622438549995},"weather":{"station":"KSEA","visibility_sm":10.0,"ceiling_ft":23000.0,"raw":"KSEA 100253Z 01005KT 10SM SCT180 BKN230 18/08 A3001 RMK AO2 SLP167 T01830083 56018"},"webcam_url":"https://atmos.uw.edu/data/images/webcam2_latest.jpg","model_version":"latest"}}
{"started_at":"2026-05-10T03:41:27Z","finished_at":"2026-05-10T03:41:29Z","duration_seconds":2.000,"status":"ok","state":{"timestamp_utc":"2026-05-10T03:41:29Z","class_index":0,"class_name":"not_out","is_out":false,"confidence":{"not_out":0.9576140642166138,"full":0.009588193148374557,"partial":0.0327976793050766},"weather":{"station":"KSEA","visibility_sm":10.0,"ceiling_ft":23000.0,"raw":"KSEA 100253Z 01005KT 10SM SCT180 BKN230 18/08 A3001 RMK AO2 SLP167 T01830083 56018"},"webcam_url":"https://atmos.uw.edu/data/images/webcam2_latest.jpg","model_version":"latest"}}
{"started_at":"2026-05-10T03:56:33Z","finished_at":"2026-05-10T03:56:36Z","duration_seconds":3.000,"status":"ok","state":{"timestamp_utc":"2026-05-10T03:56:36Z","class_index":0,"class_name":"not_out","is_out":false,"confidence":{"not_out":0.7891930937767029,"full":0.03380463644862175,"partial":0.17700226604938507},"weather":{"station":"KSEA","visibility_sm":10.0,"ceiling_ft":null,"raw":"KSEA 100353Z 34005KT 10SM SCT180 SCT230 16/08 A3000 RMK AO2 SLP165 T01610083"},"webcam_url":"https://atmos.uw.edu/data/images/webcam2_latest.jpg","model_version":"latest"}}
{"started_at":"2026-05-10T04:11:40Z","finished_at":"2026-05-10T04:11:42Z","duration_seconds":2.000,"status":"ok","state":{"timestamp_utc":"2026-05-10T04:11:42Z","class_index":0,"class_name":"not_out","is_out":false,"confidence":{"not_out":0.9911471009254456,"full":0.002043012995272875,"partial":0.006809971760958433},"weather":{"station":"KSEA","visibility_sm":10.0,"ceiling_ft":null,"raw":"KSEA 100353Z 34005KT 10SM SCT180 SCT230 16/08 A3000 RMK AO2 SLP165 T01610083"},"webcam_url":"https://atmos.uw.edu/data/images/webcam2_latest.jpg","model_version":"latest"}}
{"started_at":"2026-05-10T04:26:46Z","finished_at":"2026-05-10T04:26:48Z","duration_seconds":2.000,"status":"ok","state":{"timestamp_utc":"2026-05-10T04:26:48Z","class_index":0,"class_name":"not_out","is_out":false,"confidence":{"not_out":0.9966903924942017,"full":0.001197280827909708,"partial":0.0021123187616467476},"weather":{"station":"KSEA","visibility_sm":10.0,"ceiling_ft":null,"raw":"KSEA 100353Z 34005KT 10SM SCT180 SCT230 16/08 A3000 RMK AO2 SLP165 T01610083"},"webcam_url":"https://atmos.uw.edu/data/images/webcam2_latest.jpg","model_version":"latest"}}
{"started_at":"2026-05-10T04:41:52Z","finished_at":"2026-05-10T04:41:54Z","duration_seconds":2.000,"status":"ok","state":{"timestamp_utc":"2026-05-10T04:41:54Z","class_index":0,"class_name":"not_out","is_out":false,"confidence":{"not_out":0.9957069754600525,"full":0.001748862094245851,"partial":0.0025441108737140894},"weather":{"station":"KSEA","visibility_sm":10.0,"ceiling_ft":null,"raw":"KSEA 100353Z 34005KT 10SM SCT180 SCT230 16/08 A3000 RMK AO2 SLP165 T01610083"},"webcam_url":"https://atmos.uw.edu/data/images/webcam2_latest.jpg","model_version":"latest"}}
{"started_at":"2026-05-10T04:56:58Z","finished_at":"2026-05-10T04:57:00Z","duration_seconds":2.000,"status":"ok","state":{"timestamp_utc":"2026-05-10T04:57:00Z","class_index":0,"class_name":"not_out","is_out":false,"confidence":{"not_out":0.9969193935394287,"full":0.001208184170536697,"partial":0.0018724361434578896},"weather":{"station":"KSEA","visibility_sm":10.0,"ceiling_ft":null,"raw":"KSEA 100453Z 31003KT 10SM SCT180 SCT230 14/09 A3001 RMK AO2 SLP168 T01440089"},"webcam_url":"https://atmos.uw.edu/data/images/webcam2_latest.jpg","model_version":"latest"}}
{"started_at":"2026-05-10T05:12:04Z","finished_at":"2026-05-10T05:12:06Z","duration_seconds":2.000,"status":"ok","state":{"timestamp_utc":"2026-05-10T05:12:06Z","class_index":0,"class_name":"not_out","is_out":false,"confidence":{"not_out":0.996005117893219,"full":0.001539836055599153,"partial":0.0024550710804760456},"weather":{"station":"KSEA","visibility_sm":10.0,"ceiling_ft":null,"raw":"KSEA 100453Z 31003KT 10SM SCT180 SCT230 14/09 A3001 RMK AO2 SLP168 T01440089"},"webcam_url":"https://atmos.uw.edu/data/images/webcam2_latest.jpg","model_version":"latest"}}
{"started_at":"2026-05-10T05:27:10Z","finished_at":"2026-05-10T05:27:11Z","duration_seconds":1.000,"status":"ok","state":{"timestamp_utc":"2026-05-10T05:27:11Z","class_index":0,"class_name":"not_out","is_out":false,"confidence":{"not_out":0.9968907237052917,"full":0.0014419190119951963,"partial":0.0016674139769747853},"weather":{"station":"KSEA","visibility_sm":10.0,"ceiling_ft":null,"raw":"KSEA 100453Z 31003KT 10SM SCT180 SCT230 14/09 A3001 RMK AO2 SLP168 T01440089"},"webcam_url":"https://atmos.uw.edu/data/images/webcam2_latest.jpg","model_version":"latest"}}
{"started_at":"2026-05-10T05:42:15Z","finished_at":"2026-05-10T05:42:17Z","duration_seconds":2.000,"status":"ok","state":{"timestamp_utc":"2026-05-10T05:42:17Z","class_index":0,"class_name":"not_out","is_out":false,"confidence":{"not_out":0.9968546628952026,"full":0.0010806681821122766,"partial":0.002064604079350829},"weather":{"station":"KSEA","visibility_sm":10.0,"ceiling_ft":null,"raw":"KSEA 100453Z 31003KT 10SM SCT180 SCT230 14/09 A3001 RMK AO2 SLP168 T01440089"},"webcam_url":"https://atmos.uw.edu/data/images/webcam2_latest.jpg","model_version":"latest"}}
{"started_at":"2026-05-10T05:57:21Z","finished_at":"2026-05-10T05:57:23Z","duration_seconds":2.000,"status":"ok","state":{"timestamp_utc":"2026-05-10T05:57:23Z","class_index":0,"class_name":"not_out","is_out":false,"confidence":{"not_out":0.997210681438446,"full":0.0009752679616212845,"partial":0.0018140423344448209},"weather":{"station":"KSEA","visibility_sm":10.0,"ceiling_ft":23000.0,"raw":"KSEA 100553Z 31003KT 10SM SCT180 BKN230 14/09 A3001 RMK AO2 SLP169 T01440089 10206 20144 53002"},"webcam_url":"https://atmos.uw.edu/data/images/webcam2_latest.jpg","model_version":"latest"}}
{"started_at":"2026-05-10T06:12:27Z","finished_at":"2026-05-10T06:12:29Z","duration_seconds":2.000,"status":"ok","state":{"timestamp_utc":"2026-05-10T06:12:29Z","class_index":0,"class_name":"not_out","is_out":false,"confidence":{"not_out":0.9970170259475708,"full":0.0013196959625929594,"partial":0.0016632407205179334},"weather":{"station":"KSEA","visibility_sm":10.0,"ceiling_ft":23000.0,"raw":"KSEA 100553Z 31003KT 10SM SCT180 BKN230 14/09 A3001 RMK AO2 SLP169 T01440089 10206 20144 53002"},"webcam_url":"https://atmos.uw.edu/data/images/webcam2_latest.jpg","model_version":"latest"}}
{"started_at":"2026-05-10T06:27:33Z","finished_at":"2026-05-10T06:27:35Z","duration_seconds":2.000,"status":"ok","state":{"timestamp_utc":"2026-05-10T06:27:35Z","class_index":0,"class_name":"not_out","is_out":false,"confidence":{"not_out":0.9970394968986511,"full":0.0012820815900340676,"partial":0.001678359811194241},"weather":{"station":"KSEA","visibility_sm":10.0,"ceiling_ft":23000.0,"raw":"KSEA 100553Z 31003KT 10SM SCT180 BKN230 14/09 A3001 RMK AO2 SLP169 T01440089 10206 20144 53002"},"webcam_url":"https://atmos.uw.edu/data/images/webcam2_latest.jpg","model_version":"latest"}}
{"started_at":"2026-05-10T06:42:39Z","finished_at":"2026-05-10T06:42:41Z","duration_seconds":2.000,"status":"ok","state":{"timestamp_utc":"2026-05-10T06:42:41Z","class_index":0,"class_name":"not_out","is_out":false,"confidence":{"not_out":0.9962334036827087,"full":0.001608859864063561,"partial":0.0021577896550297737},"weather":{"station":"KSEA","visibility_sm":10.0,"ceiling_ft":23000.0,"raw":"KSEA 100553Z 31003KT 10SM SCT180 BKN230 14/09 A3001 RMK AO2 SLP169 T01440089 10206 20144 53002"},"webcam_url":"https://atmos.uw.edu/data/images/webcam2_latest.jpg","model_version":"latest"}}
{"started_at":"2026-05-10T06:57:45Z","finished_at":"2026-05-10T06:57:47Z","duration_seconds":2.000,"status":"ok","state":{"timestamp_utc":"2026-05-10T06:57:47Z","class_index":0,"class_name":"not_out","is_out":false,"confidence":{"not_out":0.9967580437660217,"full":0.0013551751617342234,"partial":0.0018867426551878452},"weather":{"station":"KSEA","visibility_sm":10.0,"ceiling_ft":null,"raw":"KSEA 100653Z 36003KT 10SM SCT230 14/08 A3001 RMK AO2 SLP167 T01390078"},"webcam_url":"https://atmos.uw.edu/data/images/webcam2_latest.jpg","model_version":"latest"}}
{"started_at":"2026-05-10T07:12:51Z","finished_at":"2026-05-10T07:12:53Z","duration_seconds":2.000,"status":"ok","state":{"timestamp_utc":"2026-05-10T07:12:53Z","class_index":0,"class_name":"not_out","is_out":false,"confidence":{"not_out":0.9970334768295288,"full":0.0013125487603247166,"partial":0.0016539798816666007},"weather":{"station":"KSEA","visibility_sm":10.0,"ceiling_ft":null,"raw":"KSEA 100653Z 36003KT 10SM SCT230 14/08 A3001 RMK AO2 SLP167 T01390078"},"webcam_url":"https://atmos.uw.edu/data/images/webcam2_latest.jpg","model_version":"latest"}}
{"started_at":"2026-05-10T07:27:57Z","finished_at":"2026-05-10T07:27:59Z","duration_seconds":2.000,"status":"ok","state":{"timestamp_utc":"2026-05-10T07:27:59Z","class_index":0,"class_name":"not_out","is_out":false,"confidence":{"not_out":0.997087299823761,"full":0.001122406916692853,"partial":0.0017902875551953912},"weather":{"station":"KSEA","visibility_sm":10.0,"ceiling_ft":null,"raw":"KSEA 100653Z 36003KT 10SM SCT230 14/08 A3001 RMK AO2 SLP167 T01390078"},"webcam_url":"https://atmos.uw.edu/data/images/webcam2_latest.jpg","model_version":"latest"}}
{"started_at":"2026-05-10T07:43:03Z","finished_at":"2026-05-10T07:43:05Z","duration_seconds":2.000,"status":"ok","state":{"timestamp_utc":"2026-05-10T07:43:05Z","class_index":0,"class_name":"not_out","is_out":false,"confidence":{"not_out":0.9959562420845032,"full":0.0016981196822598577,"partial":0.0023455785121768713},"weather":{"station":"KSEA","visibility_sm":10.0,"ceiling_ft":null,"raw":"KSEA 100653Z 36003KT 10SM SCT230 14/08 A3001 RMK AO2 SLP167 T01390078"},"webcam_url":"https://atmos.uw.edu/data/images/webcam2_latest.jpg","model_version":"latest"}}
{"started_at":"2026-05-10T07:58:09Z","finished_at":"2026-05-10T07:58:11Z","duration_seconds":2.000,"status":"ok","state":{"timestamp_utc":"2026-05-10T07:58:11Z","class_index":0,"class_name":"not_out","is_out":false,"confidence":{"not_out":0.9963383674621582,"full":0.0014616877306252718,"partial":0.0021999503951519728},"weather":{"station":"KSEA","visibility_sm":10.0,"ceiling_ft":null,"raw":"KSEA 100753Z 02005KT 10SM SCT230 13/08 A3001 RMK AO2 SLP168 T01330078 402060089"},"webcam_url":"https://atmos.uw.edu/data/images/webcam2_latest.jpg","model_version":"latest"}}
{"started_at":"2026-05-10T08:13:14Z","finished_at":"2026-05-10T08:13:17Z","duration_seconds":3.000,"status":"ok","state":{"timestamp_utc":"2026-05-10T08:13:17Z","class_index":0,"class_name":"not_out","is_out":false,"confidence":{"not_out":0.9978109002113342,"full":0.0010076917242258787,"partial":0.0011814400786533952},"weather":{"station":"KSEA","visibility_sm":10.0,"ceiling_ft":null,"raw":"KSEA 100753Z 02005KT 10SM SCT230 13/08 A3001 RMK AO2 SLP168 T01330078 402060089"},"webcam_url":"https://atmos.uw.edu/data/images/webcam2_latest.jpg","model_version":"latest"}}
{"started_at":"2026-05-10T08:28:20Z","finished_at":"2026-05-10T08:28:22Z","duration_seconds":2.000,"status":"ok","state":{"timestamp_utc":"2026-05-10T08:28:22Z","class_index":0,"class_name":"not_out","is_out":false,"confidence":{"not_out":0.99715256690979,"full":0.001331307808868587,"partial":0.001516112475655973},"weather":{"station":"KSEA","visibility_sm":10.0,"ceiling_ft":null,"raw":"KSEA 100753Z 02005KT 10SM SCT230 13/08 A3001 RMK AO2 SLP168 T01330078 402060089"},"webcam_url":"https://atmos.uw.edu/data/images/webcam2_latest.jpg","model_version":"latest"}}
{"started_at":"2026-05-10T08:43:26Z","finished_at":"2026-05-10T08:43:28Z","duration_seconds":2.000,"status":"ok","state":{"timestamp_utc":"2026-05-10T08:43:28Z","class_index":0,"class_name":"not_out","is_out":false,"confidence":{"not_out":0.9962976574897766,"full":0.0013463569339364767,"partial":0.002355954609811306},"weather":{"station":"KSEA","visibility_sm":10.0,"ceiling_ft":null,"raw":"KSEA 100753Z 02005KT 10SM SCT230 13/08 A3001 RMK AO2 SLP168 T01330078 402060089"},"webcam_url":"https://atmos.uw.edu/data/images/webcam2_latest.jpg","model_version":"latest"}}
{"started_at":"2026-05-10T08:58:32Z","finished_at":"2026-05-10T08:58:34Z","duration_seconds":2.000,"status":"ok","state":{"timestamp_utc":"2026-05-10T08:58:34Z","class_index":0,"class_name":"not_out","is_out":false,"confidence":{"not_out":0.9971213936805725,"full":0.001221241313032806,"partial":0.001657342305406928},"weather":{"station":"KSEA","visibility_sm":10.0,"ceiling_ft":null,"raw":"KSEA 100853Z 31003KT 10SM SCT230 12/08 A3001 RMK AO2 SLP168 T01170083 55000"},"webcam_url":"https://atmos.uw.edu/data/images/webcam2_latest.jpg","model_version":"latest"}}
{"started_at":"2026-05-10T09:13:38Z","finished_at":"2026-05-10T09:13:40Z","duration_seconds":2.000,"status":"ok","state":{"timestamp_utc":"2026-05-10T09:13:40Z","class_index":0,"class_name":"not_out","is_out":false,"confidence":{"not_out":0.9961380362510681,"full":0.0014217080315575004,"partial":0.002440320560708642},"weather":{"station":"KSEA","visibility_sm":10.0,"ceiling_ft":null,"raw":"KSEA 100853Z 31003KT 10SM SCT230 12/08 A3001 RMK AO2 SLP168 T01170083 55000"},"webcam_url":"https://atmos.uw.edu/data/images/webcam2_latest.jpg","model_version":"latest"}}
{"started_at":"2026-05-10T09:28:44Z","finished_at":"2026-05-10T09:28:46Z","duration_seconds":2.000,"status":"ok","state":{"timestamp_utc":"2026-05-10T09:28:46Z","class_index":0,"class_name":"not_out","is_out":false,"confidence":{"not_out":0.9971913695335388,"full":0.0012223634403198957,"partial":0.0015862927539274096},"weather":{"station":"KSEA","visibility_sm":10.0,"ceiling_ft":null,"raw":"KSEA 100853Z 31003KT 10SM SCT230 12/08 A3001 RMK AO2 SLP168 T01170083 55000"},"webcam_url":"https://atmos.uw.edu/data/images/webcam2_latest.jpg","model_version":"latest"}}
{"started_at":"2026-05-10T09:43:50Z","finished_at":"2026-05-10T09:43:52Z","duration_seconds":2.000,"status":"ok","state":{"timestamp_utc":"2026-05-10T09:43:52Z","class_index":0,"class_name":"not_out","is_out":false,"confidence":{"not_out":0.9964601397514343,"full":0.0014036059146746993,"partial":0.002136225113645196},"weather":{"station":"KSEA","visibility_sm":10.0,"ceiling_ft":null,"raw":"KSEA 100853Z 31003KT 10SM SCT230 12/08 A3001 RMK AO2 SLP168 T01170083 55000"},"webcam_url":"https://atmos.uw.edu/data/images/webcam2_latest.jpg","model_version":"latest"}}
{"started_at":"2026-05-10T09:58:56Z","finished_at":"2026-05-10T09:58:58Z","duration_seconds":2.000,"status":"ok","state":{"timestamp_utc":"2026-05-10T09:58:58Z","class_index":0,"class_name":"not_out","is_out":false,"confidence":{"not_out":0.9964326620101929,"full":0.0016149168368428946,"partial":0.0019524855306372046},"weather":{"station":"KSEA","visibility_sm":10.0,"ceiling_ft":null,"raw":"KSEA 100953Z 00000KT 10SM FEW190 SCT250 11/08 A3002 RMK AO2 SLP172 T01060083"},"webcam_url":"https://atmos.uw.edu/data/images/webcam2_latest.jpg","model_version":"latest"}}
{"started_at":"2026-05-10T10:14:01Z","finished_at":"2026-05-10T10:14:04Z","duration_seconds":3.000,"status":"ok","state":{"timestamp_utc":"2026-05-10T10:14:03Z","class_index":0,"class_name":"not_out","is_out":false,"confidence":{"not_out":0.9975171089172363,"full":0.0011210835073143244,"partial":0.0013617781223729253},"weather":{"station":"KSEA","visibility_sm":10.0,"ceiling_ft":null,"raw":"KSEA 100953Z 00000KT 10SM FEW190 SCT250 11/08 A3002 RMK AO2 SLP172 T01060083"},"webcam_url":"https://atmos.uw.edu/data/images/webcam2_latest.jpg","model_version":"latest"}}
{"started_at":"2026-05-10T10:29:07Z","finished_at":"2026-05-10T10:29:09Z","duration_seconds":2.000,"status":"ok","state":{"timestamp_utc":"2026-05-10T10:29:09Z","class_index":0,"class_name":"not_out","is_out":false,"confidence":{"not_out":0.99695885181427,"full":0.0014656223356723785,"partial":0.0015755175845697522},"weather":{"station":"KSEA","visibility_sm":10.0,"ceiling_ft":null,"raw":"KSEA 100953Z 00000KT 10SM FEW190 SCT250 11/08 A3002 RMK AO2 SLP172 T01060083"},"webcam_url":"https://atmos.uw.edu/data/images/webcam2_latest.jpg","model_version":"latest"}}
{"started_at":"2026-05-10T10:44:13Z","finished_at":"2026-05-10T10:44:15Z","duration_seconds":2.000,"status":"ok","state":{"timestamp_utc":"2026-05-10T10:44:15Z","class_index":0,"class_name":"not_out","is_out":false,"confidence":{"not_out":0.9958192110061646,"full":0.0017101244302466512,"partial":0.002470573177561164},"weather":{"station":"KSEA","visibility_sm":10.0,"ceiling_ft":null,"raw":"KSEA 100953Z 00000KT 10SM FEW190 SCT250 11/08 A3002 RMK AO2 SLP172 T01060083"},"webcam_url":"https://atmos.uw.edu/data/images/webcam2_latest.jpg","model_version":"latest"}}
{"started_at":"2026-05-10T10:59:19Z","finished_at":"2026-05-10T10:59:22Z","duration_seconds":3.000,"status":"ok","state":{"timestamp_utc":"2026-05-10T10:59:22Z","class_index":0,"class_name":"not_out","is_out":false,"confidence":{"not_out":0.9969024062156677,"full":0.0013720282586291432,"partial":0.0017255623824894428},"weather":{"station":"KSEA","visibility_sm":10.0,"ceiling_ft":25000.0,"raw":"KSEA 101053Z 00000KT 10SM BKN250 11/09 A3004 RMK AO2 SLP177 T01060089"},"webcam_url":"https://atmos.uw.edu/data/images/webcam2_latest.jpg","model_version":"latest"}}
{"started_at":"2026-05-10T11:14:26Z","finished_at":"2026-05-10T11:14:28Z","duration_seconds":2.000,"status":"ok","state":{"timestamp_utc":"2026-05-10T11:14:28Z","class_index":0,"class_name":"not_out","is_out":false,"confidence":{"not_out":0.9956820011138916,"full":0.001506536384113133,"partial":0.0028113508597016335},"weather":{"station":"KSEA","visibility_sm":10.0,"ceiling_ft":25000.0,"raw":"KSEA 101053Z 00000KT 10SM BKN250 11/09 A3004 RMK AO2 SLP177 T01060089"},"webcam_url":"https://atmos.uw.edu/data/images/webcam2_latest.jpg","model_version":"latest"}}
{"started_at":"2026-05-10T11:29:31Z","finished_at":"2026-05-10T11:29:34Z","duration_seconds":3.000,"status":"ok","state":{"timestamp_utc":"2026-05-10T11:29:34Z","class_index":0,"class_name":"not_out","is_out":false,"confidence":{"not_out":0.9944401979446411,"full":0.00174995930865407,"partial":0.0038098215591162443},"weather":{"station":"KSEA","visibility_sm":10.0,"ceiling_ft":25000.0,"raw":"KSEA 101053Z 00000KT 10SM BKN250 11/09 A3004 RMK AO2 SLP177 T01060089"},"webcam_url":"https://atmos.uw.edu/data/images/webcam2_latest.jpg","model_version":"latest"}}
{"started_at":"2026-05-10T11:44:37Z","finished_at":"2026-05-10T11:44:39Z","duration_seconds":2.000,"status":"ok","state":{"timestamp_utc":"2026-05-10T11:44:39Z","class_index":0,"class_name":"not_out","is_out":false,"confidence":{"not_out":0.9867439270019531,"full":0.003234989009797573,"partial":0.010021102614700794},"weather":{"station":"KSEA","visibility_sm":10.0,"ceiling_ft":25000.0,"raw":"KSEA 101053Z 00000KT 10SM BKN250 11/09 A3004 RMK AO2 SLP177 T01060089"},"webcam_url":"https://atmos.uw.edu/data/images/webcam2_latest.jpg","model_version":"latest"}}
{"started_at":"2026-05-10T11:59:43Z","finished_at":"2026-05-10T11:59:45Z","duration_seconds":2.000,"status":"ok","state":{"timestamp_utc":"2026-05-10T11:59:45Z","class_index":0,"class_name":"not_out","is_out":false,"confidence":{"not_out":0.9457963109016418,"full":0.015727480873465538,"partial":0.0384761318564415},"weather":{"station":"KSEA","visibility_sm":10.0,"ceiling_ft":25000.0,"raw":"KSEA 101153Z 00000KT 10SM FEW100 BKN250 10/08 A3004 RMK AO2 SLP179 T01000083 10144 20094 51010 $"},"webcam_url":"https://atmos.uw.edu/data/images/webcam2_latest.jpg","model_version":"latest"}}
{"started_at":"2026-05-10T12:14:49Z","finished_at":"2026-05-10T12:14:51Z","duration_seconds":2.000,"status":"ok","state":{"timestamp_utc":"2026-05-10T12:14:51Z","class_index":0,"class_name":"not_out","is_out":false,"confidence":{"not_out":0.714676022529602,"full":0.04385557770729065,"partial":0.24146834015846252},"weather":{"station":"KSEA","visibility_sm":10.0,"ceiling_ft":25000.0,"raw":"KSEA 101153Z 00000KT 10SM FEW100 BKN250 10/08 A3004 RMK AO2 SLP179 T01000083 10144 20094 51010 $"},"webcam_url":"https://atmos.uw.edu/data/images/webcam2_latest.jpg","model_version":"latest"}}
{"started_at":"2026-05-10T12:29:55Z","finished_at":"2026-05-10T12:29:57Z","duration_seconds":2.000,"status":"ok","state":{"timestamp_utc":"2026-05-10T12:29:57Z","class_index":0,"class_name":"not_out","is_out":false,"confidence":{"not_out":0.9827799797058105,"full":0.0061796908266842365,"partial":0.011040338315069675},"weather":{"station":"KSEA","visibility_sm":10.0,"ceiling_ft":25000.0,"raw":"KSEA 101153Z 00000KT 10SM FEW100 BKN250 10/08 A3004 RMK AO2 SLP179 T01000083 10144 20094 51010 $"},"webcam_url":"https://atmos.uw.edu/data/images/webcam2_latest.jpg","model_version":"latest"}}
{"started_at":"2026-05-10T12:45:01Z","finished_at":"2026-05-10T12:45:03Z","duration_seconds":2.000,"status":"ok","state":{"timestamp_utc":"2026-05-10T12:45:03Z","class_index":0,"class_name":"not_out","is_out":false,"confidence":{"not_out":0.7339273691177368,"full":0.05928802862763405,"partial":0.20678453147411346},"weather":{"station":"KSEA","visibility_sm":10.0,"ceiling_ft":25000.0,"raw":"KSEA 101153Z 00000KT 10SM FEW100 BKN250 10/08 A3004 RMK AO2 SLP179 T01000083 10144 20094 51010 $"},"webcam_url":"https://atmos.uw.edu/data/images/webcam2_latest.jpg","model_version":"latest"}}
{"started_at":"2026-05-10T13:00:07Z","finished_at":"2026-05-10T13:00:09Z","duration_seconds":2.000,"status":"ok","state":{"timestamp_utc":"2026-05-10T13:00:09Z","class_index":0,"class_name":"not_out","is_out":false,"confidence":{"not_out":0.8791545629501343,"full":0.08111341297626495,"partial":0.039731986820697784},"weather":{"station":"KSEA","visibility_sm":10.0,"ceiling_ft":25000.0,"raw":"KSEA 101253Z 00000KT 10SM SCT100 SCT150 OVC250 09/08 A3006 RMK AO2 SLP184 T00940083 $"},"webcam_url":"https://atmos.uw.edu/data/images/webcam2_latest.jpg","model_version":"latest"}}
{"started_at":"2026-05-10T13:15:14Z","finished_at":"2026-05-10T13:15:15Z","duration_seconds":1.000,"status":"ok","state":{"timestamp_utc":"2026-05-10T13:15:15Z","class_index":1,"class_name":"full","is_out":true,"confidence":{"not_out":0.4322608411312103,"full":0.5598543286323547,"partial":0.007884864695370197},"weather":{"station":"KSEA","visibility_sm":10.0,"ceiling_ft":25000.0,"raw":"KSEA 101253Z 00000KT 10SM SCT100 SCT150 OVC250 09/08 A3006 RMK AO2 SLP184 T00940083 $"},"webcam_url":"https://atmos.uw.edu/data/images/webcam2_latest.jpg","model_version":"latest"}}
{"started_at":"2026-05-10T13:30:19Z","finished_at":"2026-05-10T13:30:21Z","duration_seconds":2.000,"status":"ok","state":{"timestamp_utc":"2026-05-10T13:30:21Z","class_index":0,"class_name":"not_out","is_out":false,"confidence":{"not_out":0.9071326851844788,"full":0.08984488248825073,"partial":0.0030224246438592672},"weather":{"station":"KSEA","visibility_sm":10.0,"ceiling_ft":25000.0,"raw":"KSEA 101253Z 00000KT 10SM SCT100 SCT150 OVC250 09/08 A3006 RMK AO2 SLP184 T00940083 $"},"webcam_url":"https://atmos.uw.edu/data/images/webcam2_latest.jpg","model_version":"latest"}}
{"started_at":"2026-05-10T13:45:25Z","finished_at":"2026-05-10T13:45:27Z","duration_seconds":2.000,"status":"ok","state":{"timestamp_utc":"2026-05-10T13:45:27Z","class_index":0,"class_name":"not_out","is_out":false,"confidence":{"not_out":0.9411048889160156,"full":0.007778763771057129,"partial":0.05111631006002426},"weather":{"station":"KSEA","visibility_sm":10.0,"ceiling_ft":25000.0,"raw":"KSEA 101253Z 00000KT 10SM SCT100 SCT150 OVC250 09/08 A3006 RMK AO2 SLP184 T00940083 $"},"webcam_url":"https://atmos.uw.edu/data/images/webcam2_latest.jpg","model_version":"latest"}}
{"started_at":"2026-05-10T14:00:31Z","finished_at":"2026-05-10T14:00:34Z","duration_seconds":3.000,"status":"ok","state":{"timestamp_utc":"2026-05-10T14:00:34Z","class_index":0,"class_name":"not_out","is_out":false,"confidence":{"not_out":0.9877150058746338,"full":0.010170848108828068,"partial":0.002114253817126155},"weather":{"station":"KSEA","visibility_sm":10.0,"ceiling_ft":24000.0,"raw":"KSEA 101353Z 12005KT 10SM FEW060 SCT140 BKN240 11/09 A3003 RMK AO2 SLP173 T01110089 $"},"webcam_url":"https://atmos.uw.edu/data/images/webcam2_latest.jpg","model_version":"latest"}}
{"started_at":"2026-05-10T14:15:38Z","finished_at":"2026-05-10T14:15:40Z","duration_seconds":2.000,"status":"ok","state":{"timestamp_utc":"2026-05-10T14:15:40Z","class_index":0,"class_name":"not_out","is_out":false,"confidence":{"not_out":0.9953383207321167,"full":0.00047788993106223643,"partial":0.004183685872703791},"weather":{"station":"KSEA","visibility_sm":10.0,"ceiling_ft":24000.0,"raw":"KSEA 101353Z 12005KT 10SM FEW060 SCT140 BKN240 11/09 A3003 RMK AO2 SLP173 T01110089 $"},"webcam_url":"https://atmos.uw.edu/data/images/webcam2_latest.jpg","model_version":"latest"}}
{"started_at":"2026-05-10T14:30:44Z","finished_at":"2026-05-10T14:30:46Z","duration_seconds":2.000,"status":"ok","state":{"timestamp_utc":"2026-05-10T14:30:46Z","class_index":0,"class_name":"not_out","is_out":false,"confidence":{"not_out":0.8318501114845276,"full":0.0025942709762603045,"partial":0.16555562615394592},"weather":{"station":"KSEA","visibility_sm":10.0,"ceiling_ft":24000.0,"raw":"KSEA 101353Z 12005KT 10SM FEW060 SCT140 BKN240 11/09 A3003 RMK AO2 SLP173 T01110089 $"},"webcam_url":"https://atmos.uw.edu/data/images/webcam2_latest.jpg","model_version":"latest"}}
{"started_at":"2026-05-10T14:45:49Z","finished_at":"2026-05-10T14:45:52Z","duration_seconds":3.000,"status":"ok","state":{"timestamp_utc":"2026-05-10T14:45:52Z","class_index":0,"class_name":"not_out","is_out":false,"confidence":{"not_out":0.9950075149536133,"full":0.001670092809945345,"partial":0.0033224134240299463},"weather":{"station":"KSEA","visibility_sm":10.0,"ceiling_ft":2900.0,"raw":"KSEA 101438Z 22005KT 10SM SCT011 BKN029 BKN140 11/09 A3007 RMK AO2 T01110094 $"},"webcam_url":"https://atmos.uw.edu/data/images/webcam2_latest.jpg","model_version":"latest"}}
{"started_at":"2026-05-10T15:00:56Z","finished_at":"2026-05-10T15:00:58Z","duration_seconds":2.000,"status":"ok","state":{"timestamp_utc":"2026-05-10T15:00:58Z","class_index":0,"class_name":"not_out","is_out":false,"confidence":{"not_out":0.9775651693344116,"full":0.003950539510697126,"partial":0.018484316766262054},"weather":{"station":"KSEA","visibility_sm":10.0,"ceiling_ft":1300.0,"raw":"KSEA 101453Z 26005KT 10SM FEW006 BKN013 OVC022 12/10 A3006 RMK AO2 SLP185 T01170100 53006 $"},"webcam_url":"https://atmos.uw.edu/data/images/webcam2_latest.jpg","model_version":"latest"}}
{"started_at":"2026-05-10T15:16:02Z","finished_at":"2026-05-10T15:16:03Z","duration_seconds":1.000,"status":"ok","state":{"timestamp_utc":"2026-05-10T15:16:03Z","class_index":0,"class_name":"not_out","is_out":false,"confidence":{"not_out":0.9439576268196106,"full":0.00799217913299799,"partial":0.04805007576942444},"weather":{"station":"KSEA","visibility_sm":10.0,"ceiling_ft":1300.0,"raw":"KSEA 101453Z 26005KT 10SM FEW006 BKN013 OVC022 12/10 A3006 RMK AO2 SLP185 T01170100 53006 $"},"webcam_url":"https://atmos.uw.edu/data/images/webcam2_latest.jpg","model_version":"latest"}}
{"started_at":"2026-05-10T15:31:07Z","finished_at":"2026-05-10T15:31:09Z","duration_seconds":2.000,"status":"ok","state":{"timestamp_utc":"2026-05-10T15:31:09Z","class_index":0,"class_name":"not_out","is_out":false,"confidence":{"not_out":0.9716892838478088,"full":0.000917519093491137,"partial":0.02739323116838932},"weather":{"station":"KSEA","visibility_sm":10.0,"ceiling_ft":1300.0,"raw":"KSEA 101453Z 26005KT 10SM FEW006 BKN013 OVC022 12/10 A3006 RMK AO2 SLP185 T01170100 53006 $"},"webcam_url":"https://atmos.uw.edu/data/images/webcam2_latest.jpg","model_version":"latest"}}
{"started_at":"2026-05-10T15:46:13Z","finished_at":"2026-05-10T15:46:15Z","duration_seconds":2.000,"status":"ok","state":{"timestamp_utc":"2026-05-10T15:46:15Z","class_index":0,"class_name":"not_out","is_out":false,"confidence":{"not_out":0.968831479549408,"full":0.0004697999975178391,"partial":0.03069874830543995},"weather":{"station":"KSEA","visibility_sm":10.0,"ceiling_ft":1300.0,"raw":"KSEA 101453Z 26005KT 10SM FEW006 BKN013 OVC022 12/10 A3006 RMK AO2 SLP185 T01170100 53006 $"},"webcam_url":"https://atmos.uw.edu/data/images/webcam2_latest.jpg","model_version":"latest"}}
{"started_at":"2026-05-10T16:01:19Z","finished_at":"2026-05-10T16:01:21Z","duration_seconds":2.000,"status":"ok","state":{"timestamp_utc":"2026-05-10T16:01:21Z","class_index":0,"class_name":"not_out","is_out":false,"confidence":{"not_out":0.9974474906921387,"full":0.00021053665841463953,"partial":0.0023419326171278954},"weather":{"station":"KSEA","visibility_sm":10.0,"ceiling_ft":1000.0,"raw":"KSEA 101553Z 28005KT 10SM BKN010 OVC020 12/09 A3007 RMK AO2 SLP189 T01170094 $"},"webcam_url":"https://atmos.uw.edu/data/images/webcam2_latest.jpg","model_version":"latest"}}
{"started_at":"2026-05-10T16:16:25Z","finished_at":"2026-05-10T16:16:27Z","duration_seconds":2.000,"status":"ok","state":{"timestamp_utc":"2026-05-10T16:16:27Z","class_index":0,"class_name":"not_out","is_out":false,"confidence":{"not_out":0.9438994526863098,"full":0.010876977816224098,"partial":0.04522351175546646},"weather":{"station":"KSEA","visibility_sm":10.0,"ceiling_ft":1000.0,"raw":"KSEA 101553Z 28005KT 10SM BKN010 OVC020 12/09 A3007 RMK AO2 SLP189 T01170094 $"},"webcam_url":"https://atmos.uw.edu/data/images/webcam2_latest.jpg","model_version":"latest"}}
{"started_at":"2026-05-10T16:31:31Z","finished_at":"2026-05-10T16:31:33Z","duration_seconds":2.000,"status":"ok","state":{"timestamp_utc":"2026-05-10T16:31:33Z","class_index":0,"class_name":"not_out","is_out":false,"confidence":{"not_out":0.9985396862030029,"full":0.00036043798900209367,"partial":0.0010998962679877877},"weather":{"station":"KSEA","visibility_sm":10.0,"ceiling_ft":1000.0,"raw":"KSEA 101553Z 28005KT 10SM BKN010 OVC020 12/09 A3007 RMK AO2 SLP189 T01170094 $"},"webcam_url":"https://atmos.uw.edu/data/images/webcam2_latest.jpg","model_version":"latest"}}
{"started_at":"2026-05-10T16:46:36Z","finished_at":"2026-05-10T16:46:39Z","duration_seconds":3.000,"status":"ok","state":{"timestamp_utc":"2026-05-10T16:46:39Z","class_index":0,"class_name":"not_out","is_out":false,"confidence":{"not_out":0.9993172883987427,"full":0.00020291568944230676,"partial":0.0004798589216079563},"weather":{"station":"KSEA","visibility_sm":10.0,"ceiling_ft":1000.0,"raw":"KSEA 101553Z 28005KT 10SM BKN010 OVC020 12/09 A3007 RMK AO2 SLP189 T01170094 $"},"webcam_url":"https://atmos.uw.edu/data/images/webcam2_latest.jpg","model_version":"latest"}}
{"started_at":"2026-05-10T17:01:43Z","finished_at":"2026-05-10T17:01:45Z","duration_seconds":2.000,"status":"ok","state":{"timestamp_utc":"2026-05-10T17:01:45Z","class_index":0,"class_name":"not_out","is_out":false,"confidence":{"not_out":0.999498724937439,"full":0.00006393985677277669,"partial":0.0004372401162981987},"weather":{"station":"KSEA","visibility_sm":10.0,"ceiling_ft":1300.0,"raw":"KSEA 101653Z 23007KT 10SM BKN013 BKN020 OVC027 12/09 A3009 RMK AO2 SLP197 T01220094 $"},"webcam_url":"https://atmos.uw.edu/data/images/webcam2_latest.jpg","model_version":"latest"}}
{"started_at":"2026-05-10T17:16:49Z","finished_at":"2026-05-10T17:16:51Z","duration_seconds":2.000,"status":"ok","state":{"timestamp_utc":"2026-05-10T17:16:51Z","class_index":0,"class_name":"not_out","is_out":false,"confidence":{"not_out":0.9796183109283447,"full":0.00017358361219521612,"partial":0.02020808681845665},"weather":{"station":"KSEA","visibility_sm":10.0,"ceiling_ft":1300.0,"raw":"KSEA 101653Z 23007KT 10SM BKN013 BKN020 OVC027 12/09 A3009 RMK AO2 SLP197 T01220094 $"},"webcam_url":"https://atmos.uw.edu/data/images/webcam2_latest.jpg","model_version":"latest"}}
{"started_at":"2026-05-10T17:31:55Z","finished_at":"2026-05-10T17:31:57Z","duration_seconds":2.000,"status":"ok","state":{"timestamp_utc":"2026-05-10T17:31:57Z","class_index":0,"class_name":"not_out","is_out":false,"confidence":{"not_out":0.9959700107574463,"full":0.00017731696425471455,"partial":0.0038527967408299446},"weather":{"station":"KSEA","visibility_sm":10.0,"ceiling_ft":1300.0,"raw":"KSEA 101653Z 23007KT 10SM BKN013 BKN020 OVC027 12/09 A3009 RMK AO2 SLP197 T01220094 $"},"webcam_url":"https://atmos.uw.edu/data/images/webcam2_latest.jpg","model_version":"latest"}}
{"started_at":"2026-05-10T17:47:01Z","finished_at":"2026-05-10T17:47:03Z","duration_seconds":2.000,"status":"ok","state":{"timestamp_utc":"2026-05-10T17:47:03Z","class_index":0,"class_name":"not_out","is_out":false,"confidence":{"not_out":0.999455988407135,"full":0.00002314725861651823,"partial":0.0005209525115787983},"weather":{"station":"KSEA","visibility_sm":10.0,"ceiling_ft":1300.0,"raw":"KSEA 101653Z 23007KT 10SM BKN013 BKN020 OVC027 12/09 A3009 RMK AO2 SLP197 T01220094 $"},"webcam_url":"https://atmos.uw.edu/data/images/webcam2_latest.jpg","model_version":"latest"}}
{"started_at":"2026-05-10T18:02:07Z","finished_at":"2026-05-10T18:02:09Z","duration_seconds":2.000,"status":"ok","state":{"timestamp_utc":"2026-05-10T18:02:09Z","class_index":0,"class_name":"not_out","is_out":false,"confidence":{"not_out":0.9948499798774719,"full":0.00016894021246116608,"partial":0.004980950150638819},"weather":{"station":"KSEA","visibility_sm":10.0,"ceiling_ft":3300.0,"raw":"KSEA 101753Z 19005KT 10SM SCT011 SCT023 BKN033 13/10 A3009 RMK AO2 SLP195 T01330100 10133 20089 50009 $"},"webcam_url":"https://atmos.uw.edu/data/images/webcam2_latest.jpg","model_version":"latest"}}
{"started_at":"2026-05-10T18:17:13Z","finished_at":"2026-05-10T18:17:15Z","duration_seconds":2.000,"status":"ok","state":{"timestamp_utc":"2026-05-10T18:17:15Z","class_index":0,"class_name":"not_out","is_out":false,"confidence":{"not_out":0.9993822574615479,"full":0.0000627536210231483,"partial":0.0005549293709918857},"weather":{"station":"KSEA","visibility_sm":10.0,"ceiling_ft":2300.0,"raw":"KSEA 101809Z 22006KT 10SM SCT013 BKN023 BKN033 13/09 A3009 RMK AO2 T01330094 $"},"webcam_url":"https://atmos.uw.edu/data/images/webcam2_latest.jpg","model_version":"latest"}}
{"started_at":"2026-05-10T18:32:19Z","finished_at":"2026-05-10T18:32:21Z","duration_seconds":2.000,"status":"ok","state":{"timestamp_utc":"2026-05-10T18:32:21Z","class_index":0,"class_name":"not_out","is_out":false,"confidence":{"not_out":0.9987393021583557,"full":0.00010045163799077272,"partial":0.0011602335143834352},"weather":{"station":"KSEA","visibility_sm":10.0,"ceiling_ft":2300.0,"raw":"KSEA 101809Z 22006KT 10SM SCT013 BKN023 BKN033 13/09 A3009 RMK AO2 T01330094 $"},"webcam_url":"https://atmos.uw.edu/data/images/webcam2_latest.jpg","model_version":"latest"}}
{"started_at":"2026-05-10T18:47:26Z","finished_at":"2026-05-10T18:47:28Z","duration_seconds":2.000,"status":"ok","state":{"timestamp_utc":"2026-05-10T18:47:28Z","class_index":0,"class_name":"not_out","is_out":false,"confidence":{"not_out":0.9904065728187561,"full":0.000018805108993547037,"partial":0.00957465823739767},"weather":{"station":"KSEA","visibility_sm":10.0,"ceiling_ft":2300.0,"raw":"KSEA 101809Z 22006KT 10SM SCT013 BKN023 BKN033 13/09 A3009 RMK AO2 T01330094 $"},"webcam_url":"https://atmos.uw.edu/data/images/webcam2_latest.jpg","model_version":"latest"}}
{"started_at":"2026-05-10T19:02:31Z","finished_at":"2026-05-10T19:02:33Z","duration_seconds":2.000,"status":"ok","state":{"timestamp_utc":"2026-05-10T19:02:33Z","class_index":0,"class_name":"not_out","is_out":false,"confidence":{"not_out":0.9981386661529541,"full":0.0000033181070193677442,"partial":0.001857932424172759},"weather":{"station":"KSEA","visibility_sm":10.0,"ceiling_ft":1500.0,"raw":"KSEA 101853Z 22007KT 10SM BKN015 BKN023 OVC033 13/09 A3011 RMK AO2 SLP201 T01330094 $"},"webcam_url":"https://atmos.uw.edu/data/images/webcam2_latest.jpg","model_version":"latest"}}
{"started_at":"2026-05-10T19:17:38Z","finished_at":"2026-05-10T19:17:40Z","duration_seconds":2.000,"status":"ok","state":{"timestamp_utc":"2026-05-10T19:17:40Z","class_index":0,"class_name":"not_out","is_out":false,"confidence":{"not_out":0.9982067346572876,"full":0.000022657777662971057,"partial":0.0017707013757899404},"weather":{"station":"KSEA","visibility_sm":10.0,"ceiling_ft":1500.0,"raw":"KSEA 101853Z 22007KT 10SM BKN015 BKN023 OVC033 13/09 A3011 RMK AO2 SLP201 T01330094 $"},"webcam_url":"https://atmos.uw.edu/data/images/webcam2_latest.jpg","model_version":"latest"}}
{"started_at":"2026-05-10T19:32:44Z","finished_at":"2026-05-10T19:32:46Z","duration_seconds":2.000,"status":"ok","state":{"timestamp_utc":"2026-05-10T19:32:46Z","class_index":0,"class_name":"not_out","is_out":false,"confidence":{"not_out":0.9808096289634705,"full":0.000011808676390501205,"partial":0.01917855627834797},"weather":{"station":"KSEA","visibility_sm":10.0,"ceiling_ft":1500.0,"raw":"KSEA 101853Z 22007KT 10SM BKN015 BKN023 OVC033 13/09 A3011 RMK AO2 SLP201 T01330094 $"},"webcam_url":"https://atmos.uw.edu/data/images/webcam2_latest.jpg","model_version":"latest"}}
{"started_at":"2026-05-10T19:47:50Z","finished_at":"2026-05-10T19:47:52Z","duration_seconds":2.000,"status":"ok","state":{"timestamp_utc":"2026-05-10T19:47:52Z","class_index":0,"class_name":"not_out","is_out":false,"confidence":{"not_out":0.9870343804359436,"full":0.000021273317543091252,"partial":0.012944337911903858},"weather":{"station":"KSEA","visibility_sm":10.0,"ceiling_ft":1500.0,"raw":"KSEA 101853Z 22007KT 10SM BKN015 BKN023 OVC033 13/09 A3011 RMK AO2 SLP201 T01330094 $"},"webcam_url":"https://atmos.uw.edu/data/images/webcam2_latest.jpg","model_version":"latest"}}
{"started_at":"2026-05-10T20:02:56Z","finished_at":"2026-05-10T20:02:58Z","duration_seconds":2.000,"status":"ok","state":{"timestamp_utc":"2026-05-10T20:02:58Z","class_index":0,"class_name":"not_out","is_out":false,"confidence":{"not_out":0.9852352142333984,"full":0.000022665528376819566,"partial":0.014742097817361355},"weather":{"station":"KSEA","visibility_sm":10.0,"ceiling_ft":2100.0,"raw":"KSEA 101953Z 23007KT 10SM OVC021 14/09 A3011 RMK AO2 SLP203 T01440089 $"},"webcam_url":"https://atmos.uw.edu/data/images/webcam2_latest.jpg","model_version":"latest"}}
{"started_at":"2026-05-10T20:18:02Z","finished_at":"2026-05-10T20:18:05Z","duration_seconds":3.000,"status":"ok","state":{"timestamp_utc":"2026-05-10T20:18:05Z","class_index":0,"class_name":"not_out","is_out":false,"confidence":{"not_out":0.9775011539459229,"full":0.000012789806532964576,"partial":0.02248603105545044},"weather":{"station":"KSEA","visibility_sm":10.0,"ceiling_ft":2100.0,"raw":"KSEA 101953Z 23007KT 10SM OVC021 14/09 A3011 RMK AO2 SLP203 T01440089 $"},"webcam_url":"https://atmos.uw.edu/data/images/webcam2_latest.jpg","model_version":"latest"}}
{"started_at":"2026-05-10T20:33:09Z","finished_at":"2026-05-10T20:33:11Z","duration_seconds":2.000,"status":"ok","state":{"timestamp_utc":"2026-05-10T20:33:11Z","class_index":0,"class_name":"not_out","is_out":false,"confidence":{"not_out":0.9808773398399353,"full":0.000026088873710250482,"partial":0.01909656636416912},"weather":{"station":"KSEA","visibility_sm":10.0,"ceiling_ft":2100.0,"raw":"KSEA 101953Z 23007KT 10SM OVC021 14/09 A3011 RMK AO2 SLP203 T01440089 $"},"webcam_url":"https://atmos.uw.edu/data/images/webcam2_latest.jpg","model_version":"latest"}}
{"started_at":"2026-05-10T20:48:15Z","finished_at":"2026-05-10T20:48:17Z","duration_seconds":2.000,"status":"ok","state":{"timestamp_utc":"2026-05-10T20:48:17Z","class_index":0,"class_name":"not_out","is_out":false,"confidence":{"not_out":0.9633532166481018,"full":0.016976898536086082,"partial":0.019669897854328156},"weather":{"station":"KSEA","visibility_sm":10.0,"ceiling_ft":2100.0,"raw":"KSEA 101953Z 23007KT 10SM OVC021 14/09 A3011 RMK AO2 SLP203 T01440089 $"},"webcam_url":"https://atmos.uw.edu/data/images/webcam2_latest.jpg","model_version":"latest"}}
{"started_at":"2026-05-10T21:03:21Z","finished_at":"2026-05-10T21:03:23Z","duration_seconds":2.000,"status":"ok","state":{"timestamp_utc":"2026-05-10T21:03:23Z","class_index":0,"class_name":"not_out","is_out":false,"confidence":{"not_out":0.9719107151031494,"full":0.023753784596920013,"partial":0.004335467237979174},"weather":{"station":"KSEA","visibility_sm":10.0,"ceiling_ft":null,"raw":"KSEA 102100Z 00000KT 10SM CLR 16/08 A3012 RMK AO2 T01610083 $"},"webcam_url":"https://atmos.uw.edu/data/images/webcam2_latest.jpg","model_version":"latest"}}
{"started_at":"2026-05-10T21:18:27Z","finished_at":"2026-05-10T21:18:29Z","duration_seconds":2.000,"status":"ok","state":{"timestamp_utc":"2026-05-10T21:18:29Z","class_index":0,"class_name":"not_out","is_out":false,"confidence":{"not_out":0.9844722151756287,"full":0.006895833183079958,"partial":0.008631967008113861},"weather":{"station":"KSEA","visibility_sm":10.0,"ceiling_ft":null,"raw":"KSEA 102100Z 00000KT 10SM CLR 16/08 A3012 RMK AO2 T01610083 $"},"webcam_url":"https://atmos.uw.edu/data/images/webcam2_latest.jpg","model_version":"latest"}}
{"started_at":"2026-05-10T21:33:33Z","finished_at":"2026-05-10T21:33:35Z","duration_seconds":2.000,"status":"ok","state":{"timestamp_utc":"2026-05-10T21:33:35Z","class_index":0,"class_name":"not_out","is_out":false,"confidence":{"not_out":0.9772832989692688,"full":0.017719119787216187,"partial":0.004997595213353634},"weather":{"station":"KSEA","visibility_sm":10.0,"ceiling_ft":null,"raw":"KSEA 102117Z 18009KT 10SM FEW029 SCT038 18/09 A3012 RMK AO2 T01780089 $"},"webcam_url":"https://atmos.uw.edu/data/images/webcam2_latest.jpg","model_version":"latest"}}
{"started_at":"2026-05-10T21:48:38Z","finished_at":"2026-05-10T21:48:41Z","duration_seconds":3.000,"status":"ok","state":{"timestamp_utc":"2026-05-10T21:48:41Z","class_index":0,"class_name":"not_out","is_out":false,"confidence":{"not_out":0.992742657661438,"full":0.0040780226700007915,"partial":0.003179318970069289},"weather":{"station":"KSEA","visibility_sm":10.0,"ceiling_ft":null,"raw":"KSEA 102117Z 18009KT 10SM FEW029 SCT038 18/09 A3012 RMK AO2 T01780089 $"},"webcam_url":"https://atmos.uw.edu/data/images/webcam2_latest.jpg","model_version":"latest"}}
{"started_at":"2026-05-10T22:03:44Z","finished_at":"2026-05-10T22:03:46Z","duration_seconds":2.000,"status":"ok","state":{"timestamp_utc":"2026-05-10T22:03:46Z","class_index":0,"class_name":"not_out","is_out":false,"confidence":{"not_out":0.9911131262779236,"full":0.0001666136085987091,"partial":0.00872032716870308},"weather":{"station":"KSEA","visibility_sm":10.0,"ceiling_ft":5500.0,"raw":"KSEA 102153Z VRB04KT 10SM SCT033 BKN055 18/08 A3012 RMK AO2 SLP205 T01780083 $"},"webcam_url":"https://atmos.uw.edu/data/images/webcam2_latest.jpg","model_version":"latest"}}
{"started_at":"2026-05-10T22:18:50Z","finished_at":"2026-05-10T22:18:53Z","duration_seconds":3.000,"status":"ok","state":{"timestamp_utc":"2026-05-10T22:18:53Z","class_index":0,"class_name":"not_out","is_out":false,"confidence":{"not_out":0.9626440405845642,"full":0.00003200959326932207,"partial":0.037323981523513794},"weather":{"station":"KSEA","visibility_sm":10.0,"ceiling_ft":5500.0,"raw":"KSEA 102153Z VRB04KT 10SM SCT033 BKN055 18/08 A3012 RMK AO2 SLP205 T01780083 $"},"webcam_url":"https://atmos.uw.edu/data/images/webcam2_latest.jpg","model_version":"latest"}}
{"started_at":"2026-05-10T22:33:56Z","finished_at":"2026-05-10T22:33:59Z","duration_seconds":3.000,"status":"ok","state":{"timestamp_utc":"2026-05-10T22:33:59Z","class_index":0,"class_name":"not_out","is_out":false,"confidence":{"not_out":0.9812730550765991,"full":0.00003728457886609249,"partial":0.018689580261707306},"weather":{"station":"KSEA","visibility_sm":10.0,"ceiling_ft":5500.0,"raw":"KSEA 102153Z VRB04KT 10SM SCT033 BKN055 18/08 A3012 RMK AO2 SLP205 T01780083 $"},"webcam_url":"https://atmos.uw.edu/data/images/webcam2_latest.jpg","model_version":"latest"}}
{"started_at":"2026-05-10T22:49:03Z","finished_at":"2026-05-10T22:49:05Z","duration_seconds":2.000,"status":"ok","state":{"timestamp_utc":"2026-05-10T22:49:05Z","class_index":0,"class_name":"not_out","is_out":false,"confidence":{"not_out":0.9934145212173462,"full":0.00008684635395184159,"partial":0.006498647853732109},"weather":{"station":"KSEA","visibility_sm":10.0,"ceiling_ft":5500.0,"raw":"KSEA 102153Z VRB04KT 10SM SCT033 BKN055 18/08 A3012 RMK AO2 SLP205 T01780083 $"},"webcam_url":"https://atmos.uw.edu/data/images/webcam2_latest.jpg","model_version":"latest"}}
{"started_at":"2026-05-10T23:04:09Z","finished_at":"2026-05-10T23:04:11Z","duration_seconds":2.000,"status":"ok","state":{"timestamp_utc":"2026-05-10T23:04:11Z","class_index":0,"class_name":"not_out","is_out":false,"confidence":{"not_out":0.9969314336776733,"full":0.00015097306459210813,"partial":0.0029176517855376005},"weather":{"station":"KSEA","visibility_sm":10.0,"ceiling_ft":6500.0,"raw":"KSEA 102253Z 24003KT 10SM FEW033 BKN065 18/08 A3013 RMK AO2 SLP207 T01780078 $"},"webcam_url":"https://atmos.uw.edu/data/images/webcam2_latest.jpg","model_version":"latest"}}
{"started_at":"2026-05-10T23:19:15Z","finished_at":"2026-05-10T23:19:17Z","duration_seconds":2.000,"status":"ok","state":{"timestamp_utc":"2026-05-10T23:19:17Z","class_index":0,"class_name":"not_out","is_out":false,"confidence":{"not_out":0.9907529354095459,"full":0.00008761927165323868,"partial":0.009159475564956665},"weather":{"station":"KSEA","visibility_sm":10.0,"ceiling_ft":6500.0,"raw":"KSEA 102253Z 24003KT 10SM FEW033 BKN065 18/08 A3013 RMK AO2 SLP207 T01780078 $"},"webcam_url":"https://atmos.uw.edu/data/images/webcam2_latest.jpg","model_version":"latest"}}
{"started_at":"2026-05-10T23:34:21Z","finished_at":"2026-05-10T23:34:23Z","duration_seconds":2.000,"status":"ok","state":{"timestamp_utc":"2026-05-10T23:34:23Z","class_index":0,"class_name":"not_out","is_out":false,"confidence":{"not_out":0.9801945686340332,"full":0.00013405132631305605,"partial":0.019671451300382614},"weather":{"station":"KSEA","visibility_sm":10.0,"ceiling_ft":6500.0,"raw":"KSEA 102253Z 24003KT 10SM FEW033 BKN065 18/08 A3013 RMK AO2 SLP207 T01780078 $"},"webcam_url":"https://atmos.uw.edu/data/images/webcam2_latest.jpg","model_version":"latest"}}
{"started_at":"2026-05-10T23:49:26Z","finished_at":"2026-05-10T23:49:29Z","duration_seconds":3.000,"status":"ok","state":{"timestamp_utc":"2026-05-10T23:49:29Z","class_index":0,"class_name":"not_out","is_out":false,"confidence":{"not_out":0.9669718146324158,"full":0.0009258054196834564,"partial":0.03210245072841644},"weather":{"station":"KSEA","visibility_sm":10.0,"ceiling_ft":6500.0,"raw":"KSEA 102253Z 24003KT 10SM FEW033 BKN065 18/08 A3013 RMK AO2 SLP207 T01780078 $"},"webcam_url":"https://atmos.uw.edu/data/images/webcam2_latest.jpg","model_version":"latest"}}
{"started_at":"2026-05-11T00:04:32Z","finished_at":"2026-05-11T00:04:35Z","duration_seconds":3.000,"status":"ok","state":{"timestamp_utc":"2026-05-11T00:04:35Z","class_index":0,"class_name":"not_out","is_out":false,"confidence":{"not_out":0.9964191913604736,"full":0.00011654319678200409,"partial":0.00346433836966753},"weather":{"station":"KSEA","visibility_sm":10.0,"ceiling_ft":6000.0,"raw":"KSEA 102353Z 36004KT 10SM FEW041 BKN060 BKN075 19/08 A3013 RMK AO2 SLP207 T01890078 10189 20128 51003 $"},"webcam_url":"https://atmos.uw.edu/data/images/webcam2_latest.jpg","model_version":"latest"}}
{"started_at":"2026-05-11T00:19:39Z","finished_at":"2026-05-11T00:19:41Z","duration_seconds":2.000,"status":"ok","state":{"timestamp_utc":"2026-05-11T00:19:41Z","class_index":0,"class_name":"not_out","is_out":false,"confidence":{"not_out":0.9981548190116882,"full":0.00026938406517729163,"partial":0.0015758167719468474},"weather":{"station":"KSEA","visibility_sm":10.0,"ceiling_ft":6000.0,"raw":"KSEA 102353Z 36004KT 10SM FEW041 BKN060 BKN075 19/08 A3013 RMK AO2 SLP207 T01890078 10189 20128 51003 $"},"webcam_url":"https://atmos.uw.edu/data/images/webcam2_latest.jpg","model_version":"latest"}}
{"started_at":"2026-05-11T00:34:45Z","finished_at":"2026-05-11T00:34:47Z","duration_seconds":2.000,"status":"ok","state":{"timestamp_utc":"2026-05-11T00:34:47Z","class_index":0,"class_name":"not_out","is_out":false,"confidence":{"not_out":0.9921878576278687,"full":0.0016241483390331268,"partial":0.00618791114538908},"weather":{"station":"KSEA","visibility_sm":10.0,"ceiling_ft":6000.0,"raw":"KSEA 102353Z 36004KT 10SM FEW041 BKN060 BKN075 19/08 A3013 RMK AO2 SLP207 T01890078 10189 20128 51003 $"},"webcam_url":"https://atmos.uw.edu/data/images/webcam2_latest.jpg","model_version":"latest"}}
{"started_at":"2026-05-11T00:49:51Z","finished_at":"2026-05-11T00:49:53Z","duration_seconds":2.000,"status":"ok","state":{"timestamp_utc":"2026-05-11T00:49:53Z","class_index":0,"class_name":"not_out","is_out":false,"confidence":{"not_out":0.971735954284668,"full":0.0017809653654694557,"partial":0.026483135297894478},"weather":{"station":"KSEA","visibility_sm":10.0,"ceiling_ft":6000.0,"raw":"KSEA 102353Z 36004KT 10SM FEW041 BKN060 BKN075 19/08 A3013 RMK AO2 SLP207 T01890078 10189 20128 51003 $"},"webcam_url":"https://atmos.uw.edu/data/images/webcam2_latest.jpg","model_version":"latest"}}
{"started_at":"2026-05-11T01:04:57Z","finished_at":"2026-05-11T01:04:59Z","duration_seconds":2.000,"status":"ok","state":{"timestamp_utc":"2026-05-11T01:04:59Z","class_index":0,"class_name":"not_out","is_out":false,"confidence":{"not_out":0.9689901471138,"full":0.0007975606713443995,"partial":0.030212225392460823},"weather":{"station":"KSEA","visibility_sm":10.0,"ceiling_ft":6500.0,"raw":"KSEA 110053Z VRB03KT 10SM FEW041 BKN065 BKN085 18/07 A3013 RMK AO2 SLP209 T01780067 $"},"webcam_url":"https://atmos.uw.edu/data/images/webcam2_latest.jpg","model_version":"latest"}}
{"started_at":"2026-05-11T01:20:03Z","finished_at":"2026-05-11T01:20:05Z","duration_seconds":2.000,"status":"ok","state":{"timestamp_utc":"2026-05-11T01:20:05Z","class_index":0,"class_name":"not_out","is_out":false,"confidence":{"not_out":0.9919203519821167,"full":0.00009485843474976718,"partial":0.007984758354723454},"weather":{"station":"KSEA","visibility_sm":10.0,"ceiling_ft":6500.0,"raw":"KSEA 110053Z VRB03KT 10SM FEW041 BKN065 BKN085 18/07 A3013 RMK AO2 SLP209 T01780067 $"},"webcam_url":"https://atmos.uw.edu/data/images/webcam2_latest.jpg","model_version":"latest"}}
{"started_at":"2026-05-11T01:35:09Z","finished_at":"2026-05-11T01:35:11Z","duration_seconds":2.000,"status":"ok","state":{"timestamp_utc":"2026-05-11T01:35:11Z","class_index":0,"class_name":"not_out","is_out":false,"confidence":{"not_out":0.99864262342453,"full":0.00029521435499191284,"partial":0.0010621105320751667},"weather":{"station":"KSEA","visibility_sm":10.0,"ceiling_ft":6500.0,"raw":"KSEA 110053Z VRB03KT 10SM FEW041 BKN065 BKN085 18/07 A3013 RMK AO2 SLP209 T01780067 $"},"webcam_url":"https://atmos.uw.edu/data/images/webcam2_latest.jpg","model_version":"latest"}}
{"started_at":"2026-05-11T01:50:15Z","finished_at":"2026-05-11T01:50:17Z","duration_seconds":2.000,"status":"ok","state":{"timestamp_utc":"2026-05-11T01:50:17Z","class_index":0,"class_name":"not_out","is_out":false,"confidence":{"not_out":0.996756374835968,"full":0.00021822398412041366,"partial":0.003025307785719633},"weather":{"station":"KSEA","visibility_sm":10.0,"ceiling_ft":6500.0,"raw":"KSEA 110053Z VRB03KT 10SM FEW041 BKN065 BKN085 18/07 A3013 RMK AO2 SLP209 T01780067 $"},"webcam_url":"https://atmos.uw.edu/data/images/webcam2_latest.jpg","model_version":"latest"}}
{"started_at":"2026-05-11T02:05:21Z","finished_at":"2026-05-11T02:05:23Z","duration_seconds":2.000,"status":"ok","state":{"timestamp_utc":"2026-05-11T02:05:23Z","class_index":0,"class_name":"not_out","is_out":false,"confidence":{"not_out":0.9743577241897583,"full":0.02081332914531231,"partial":0.004828966222703457},"weather":{"station":"KSEA","visibility_sm":10.0,"ceiling_ft":6000.0,"raw":"KSEA 110153Z 32004KT 10SM FEW041 BKN060 17/08 A3013 RMK AO2 SLP208 T01670083 $"},"webcam_url":"https://atmos.uw.edu/data/images/webcam2_latest.jpg","model_version":"latest"}}
{"started_at":"2026-05-11T02:20:27Z","finished_at":"2026-05-11T02:20:29Z","duration_seconds":2.000,"status":"ok","state":{"timestamp_utc":"2026-05-11T02:20:29Z","class_index":0,"class_name":"not_out","is_out":false,"confidence":{"not_out":0.938363790512085,"full":0.019841758534312248,"partial":0.04179442301392555},"weather":{"station":"KSEA","visibility_sm":10.0,"ceiling_ft":6000.0,"raw":"KSEA 110153Z 32004KT 10SM FEW041 BKN060 17/08 A3013 RMK AO2 SLP208 T01670083 $"},"webcam_url":"https://atmos.uw.edu/data/images/webcam2_latest.jpg","model_version":"latest"}}
{"started_at":"2026-05-11T02:35:33Z","finished_at":"2026-05-11T02:35:35Z","duration_seconds":2.000,"status":"ok","state":{"timestamp_utc":"2026-05-11T02:35:35Z","class_index":0,"class_name":"not_out","is_out":false,"confidence":{"not_out":0.9393004775047302,"full":0.0017328347312286496,"partial":0.05896671488881111},"weather":{"station":"KSEA","visibility_sm":10.0,"ceiling_ft":6000.0,"raw":"KSEA 110153Z 32004KT 10SM FEW041 BKN060 17/08 A3013 RMK AO2 SLP208 T01670083 $"},"webcam_url":"https://atmos.uw.edu/data/images/webcam2_latest.jpg","model_version":"latest"}}
{"started_at":"2026-05-11T02:50:39Z","finished_at":"2026-05-11T02:50:42Z","duration_seconds":3.000,"status":"ok","state":{"timestamp_utc":"2026-05-11T02:50:41Z","class_index":0,"class_name":"not_out","is_out":false,"confidence":{"not_out":0.9910383224487305,"full":0.0016214954666793346,"partial":0.007340236101299524},"weather":{"station":"KSEA","visibility_sm":10.0,"ceiling_ft":6000.0,"raw":"KSEA 110153Z 32004KT 10SM FEW041 BKN060 17/08 A3013 RMK AO2 SLP208 T01670083 $"},"webcam_url":"https://atmos.uw.edu/data/images/webcam2_latest.jpg","model_version":"latest"}}
{"started_at":"2026-05-11T03:05:46Z","finished_at":"2026-05-11T03:05:49Z","duration_seconds":3.000,"status":"ok","state":{"timestamp_utc":"2026-05-11T03:05:48Z","class_index":0,"class_name":"not_out","is_out":false,"confidence":{"not_out":0.9914264678955078,"full":0.0027169138193130493,"partial":0.005856635980308056},"weather":{"station":"KSEA","visibility_sm":10.0,"ceiling_ft":7000.0,"raw":"KSEA 110253Z 27006KT 10SM FEW041 BKN070 BKN085 16/08 A3014 RMK AO2 SLP211 T01560083 53002 $"},"webcam_url":"https://atmos.uw.edu/data/images/webcam2_latest.jpg","model_version":"latest"}}
{"started_at":"2026-05-11T03:20:52Z","finished_at":"2026-05-11T03:20:54Z","duration_seconds":2.000,"status":"ok","state":{"timestamp_utc":"2026-05-11T03:20:54Z","class_index":2,"class_name":"partial","is_out":true,"confidence":{"not_out":0.4468342363834381,"full":0.006482996977865696,"partial":0.5466827154159546},"weather":{"station":"KSEA","visibility_sm":10.0,"ceiling_ft":7000.0,"raw":"KSEA 110253Z 27006KT 10SM FEW041 BKN070 BKN085 16/08 A3014 RMK AO2 SLP211 T01560083 53002 $"},"webcam_url":"https://atmos.uw.edu/data/images/webcam2_latest.jpg","model_version":"latest"}}
{"started_at":"2026-05-11T03:35:58Z","finished_at":"2026-05-11T03:36:01Z","duration_seconds":3.000,"status":"ok","state":{"timestamp_utc":"2026-05-11T03:36:01Z","class_index":2,"class_name":"partial","is_out":true,"confidence":{"not_out":0.025882968679070473,"full":0.0035486763808876276,"partial":0.9705683588981628},"weather":{"station":"KSEA","visibility_sm":10.0,"ceiling_ft":7000.0,"raw":"KSEA 110253Z 27006KT 10SM FEW041 BKN070 BKN085 16/08 A3014 RMK AO2 SLP211 T01560083 53002 $"},"webcam_url":"https://atmos.uw.edu/data/images/webcam2_latest.jpg","model_version":"latest"}}
{"started_at":"2026-05-11T03:51:04Z","finished_at":"2026-05-11T03:51:06Z","duration_seconds":2.000,"status":"ok","state":{"timestamp_utc":"2026-05-11T03:51:06Z","class_index":2,"class_name":"partial","is_out":true,"confidence":{"not_out":0.25259828567504883,"full":0.014640218578279018,"partial":0.7327615022659302},"weather":{"station":"KSEA","visibility_sm":10.0,"ceiling_ft":7000.0,"raw":"KSEA 110253Z 27006KT 10SM FEW041 BKN070 BKN085 16/08 A3014 RMK AO2 SLP211 T01560083 53002 $"},"webcam_url":"https://atmos.uw.edu/data/images/webcam2_latest.jpg","model_version":"latest"}}
{"started_at":"2026-05-11T04:06:10Z","finished_at":"2026-05-11T04:06:13Z","duration_seconds":3.000,"status":"ok","state":{"timestamp_utc":"2026-05-11T04:06:13Z","class_index":2,"class_name":"partial","is_out":true,"confidence":{"not_out":0.44321754574775696,"full":0.016700193285942078,"partial":0.5400822758674622},"weather":{"station":"KSEA","visibility_sm":10.0,"ceiling_ft":7000.0,"raw":"KSEA 110353Z 00000KT 10SM FEW041 BKN070 15/08 A3014 RMK AO2 SLP214 T01500083 $"},"webcam_url":"https://atmos.uw.edu/data/images/webcam2_latest.jpg","model_version":"latest"}}
{"started_at":"2026-05-11T04:21:16Z","finished_at":"2026-05-11T04:21:19Z","duration_seconds":3.000,"status":"ok","state":{"timestamp_utc":"2026-05-11T04:21:19Z","class_index":0,"class_name":"not_out","is_out":false,"confidence":{"not_out":0.9984118938446045,"full":0.0009163435897789896,"partial":0.0006717792712152004},"weather":{"station":"KSEA","visibility_sm":10.0,"ceiling_ft":7000.0,"raw":"KSEA 110353Z 00000KT 10SM FEW041 BKN070 15/08 A3014 RMK AO2 SLP214 T01500083 $"},"webcam_url":"https://atmos.uw.edu/data/images/webcam2_latest.jpg","model_version":"latest"}}
{"started_at":"2026-05-11T04:36:22Z","finished_at":"2026-05-11T04:36:25Z","duration_seconds":3.000,"status":"ok","state":{"timestamp_utc":"2026-05-11T04:36:25Z","class_index":0,"class_name":"not_out","is_out":false,"confidence":{"not_out":0.9978804588317871,"full":0.0011461247922852635,"partial":0.0009734606719575822},"weather":{"station":"KSEA","visibility_sm":10.0,"ceiling_ft":7000.0,"raw":"KSEA 110353Z 00000KT 10SM FEW041 BKN070 15/08 A3014 RMK AO2 SLP214 T01500083 $"},"webcam_url":"https://atmos.uw.edu/data/images/webcam2_latest.jpg","model_version":"latest"}}
{"started_at":"2026-05-11T04:51:28Z","finished_at":"2026-05-11T04:51:30Z","duration_seconds":2.000,"status":"ok","state":{"timestamp_utc":"2026-05-11T04:51:30Z","class_index":0,"class_name":"not_out","is_out":false,"confidence":{"not_out":0.997849702835083,"full":0.0011286900844424963,"partial":0.0010216161608695984},"weather":{"station":"KSEA","visibility_sm":10.0,"ceiling_ft":7000.0,"raw":"KSEA 110353Z 00000KT 10SM FEW041 BKN070 15/08 A3014 RMK AO2 SLP214 T01500083 $"},"webcam_url":"https://atmos.uw.edu/data/images/webcam2_latest.jpg","model_version":"latest"}}
{"started_at":"2026-05-11T05:06:34Z","finished_at":"2026-05-11T05:06:36Z","duration_seconds":2.000,"status":"ok","state":{"timestamp_utc":"2026-05-11T05:06:36Z","class_index":0,"class_name":"not_out","is_out":false,"confidence":{"not_out":0.9980126619338989,"full":0.001192326657474041,"partial":0.0007949632708914578},"weather":{"station":"KSEA","visibility_sm":10.0,"ceiling_ft":7000.0,"raw":"KSEA 110453Z 03004KT 10SM FEW041 BKN070 15/08 A3015 RMK AO2 SLP215 T01500083 $"},"webcam_url":"https://atmos.uw.edu/data/images/webcam2_latest.jpg","model_version":"latest"}}
{"started_at":"2026-05-11T05:21:40Z","finished_at":"2026-05-11T05:21:43Z","duration_seconds":3.000,"status":"ok","state":{"timestamp_utc":"2026-05-11T05:21:43Z","class_index":0,"class_name":"not_out","is_out":false,"confidence":{"not_out":0.9980754852294922,"full":0.001109131844714284,"partial":0.000815350329503417},"weather":{"station":"KSEA","visibility_sm":10.0,"ceiling_ft":7000.0,"raw":"KSEA 110453Z 03004KT 10SM FEW041 BKN070 15/08 A3015 RMK AO2 SLP215 T01500083 $"},"webcam_url":"https://atmos.uw.edu/data/images/webcam2_latest.jpg","model_version":"latest"}}
{"started_at":"2026-05-11T05:36:47Z","finished_at":"2026-05-11T05:36:49Z","duration_seconds":2.000,"status":"ok","state":{"timestamp_utc":"2026-05-11T05:36:49Z","class_index":0,"class_name":"not_out","is_out":false,"confidence":{"not_out":0.9984801411628723,"full":0.0007641741540282965,"partial":0.0007556783384643495},"weather":{"station":"KSEA","visibility_sm":10.0,"ceiling_ft":7000.0,"raw":"KSEA 110453Z 03004KT 10SM FEW041 BKN070 15/08 A3015 RMK AO2 SLP215 T01500083 $"},"webcam_url":"https://atmos.uw.edu/data/images/webcam2_latest.jpg","model_version":"latest"}}
{"started_at":"2026-05-11T05:51:52Z","finished_at":"2026-05-11T05:51:55Z","duration_seconds":3.000,"status":"ok","state":{"timestamp_utc":"2026-05-11T05:51:55Z","class_index":0,"class_name":"not_out","is_out":false,"confidence":{"not_out":0.9982799291610718,"full":0.0009779817191883922,"partial":0.000742113683372736},"weather":{"station":"KSEA","visibility_sm":10.0,"ceiling_ft":7000.0,"raw":"KSEA 110453Z 03004KT 10SM FEW041 BKN070 15/08 A3015 RMK AO2 SLP215 T01500083 $"},"webcam_url":"https://atmos.uw.edu/data/images/webcam2_latest.jpg","model_version":"latest"}}
{"started_at":"2026-05-11T06:06:59Z","finished_at":"2026-05-11T06:07:01Z","duration_seconds":2.000,"status":"ok","state":{"timestamp_utc":"2026-05-11T06:07:01Z","class_index":0,"class_name":"not_out","is_out":false,"confidence":{"not_out":0.9977935552597046,"full":0.001184161868877709,"partial":0.0010223622666671872},"weather":{"station":"KSEA","visibility_sm":10.0,"ceiling_ft":null,"raw":"KSEA 110553Z 25005KT 10SM SCT040 13/09 A3016 RMK AO2 SLP220 T01280089 10189 20128 53009 $"},"webcam_url":"https://atmos.uw.edu/data/images/webcam2_latest.jpg","model_version":"latest"}}
{"started_at":"2026-05-11T06:22:05Z","finished_at":"2026-05-11T06:22:07Z","duration_seconds":2.000,"status":"ok","state":{"timestamp_utc":"2026-05-11T06:22:07Z","class_index":0,"class_name":"not_out","is_out":false,"confidence":{"not_out":0.9981727600097656,"full":0.001018901471979916,"partial":0.0008083406137302518},"weather":{"station":"KSEA","visibility_sm":10.0,"ceiling_ft":null,"raw":"KSEA 110553Z 25005KT 10SM SCT040 13/09 A3016 RMK AO2 SLP220 T01280089 10189 20128 53009 $"},"webcam_url":"https://atmos.uw.edu/data/images/webcam2_latest.jpg","model_version":"latest"}}
{"started_at":"2026-05-11T06:37:11Z","finished_at":"2026-05-11T06:37:13Z","duration_seconds":2.000,"status":"ok","state":{"timestamp_utc":"2026-05-11T06:37:13Z","class_index":0,"class_name":"not_out","is_out":false,"confidence":{"not_out":0.9980900883674622,"full":0.0010977120837196708,"partial":0.000812141690403223},"weather":{"station":"KSEA","visibility_sm":10.0,"ceiling_ft":null,"raw":"KSEA 110553Z 25005KT 10SM SCT040 13/09 A3016 RMK AO2 SLP220 T01280089 10189 20128 53009 $"},"webcam_url":"https://atmos.uw.edu/data/images/webcam2_latest.jpg","model_version":"latest"}}
{"started_at":"2026-05-11T06:52:17Z","finished_at":"2026-05-11T06:52:20Z","duration_seconds":3.000,"status":"ok","state":{"timestamp_utc":"2026-05-11T06:52:20Z","class_index":0,"class_name":"not_out","is_out":false,"confidence":{"not_out":0.998038113117218,"full":0.0010469373082742095,"partial":0.0009149319375865161},"weather":{"station":"KSEA","visibility_sm":10.0,"ceiling_ft":null,"raw":"KSEA 110553Z 25005KT 10SM SCT040 13/09 A3016 RMK AO2 SLP220 T01280089 10189 20128 53009 $"},"webcam_url":"https://atmos.uw.edu/data/images/webcam2_latest.jpg","model_version":"latest"}}
{"started_at":"2026-05-11T07:07:24Z","finished_at":"2026-05-11T07:07:26Z","duration_seconds":2.000,"status":"ok","state":{"timestamp_utc":"2026-05-11T07:07:26Z","class_index":0,"class_name":"not_out","is_out":false,"confidence":{"not_out":0.9979017972946167,"full":0.0010633438359946012,"partial":0.0010348297655582428},"weather":{"station":"KSEA","visibility_sm":10.0,"ceiling_ft":null,"raw":"KSEA 110653Z 19004KT 10SM FEW040 12/09 A3017 RMK AO2 SLP223 T01170094 $"},"webcam_url":"https://atmos.uw.edu/data/images/webcam2_latest.jpg","model_version":"latest"}}
{"started_at":"2026-05-11T07:22:30Z","finished_at":"2026-05-11T07:22:32Z","duration_seconds":2.000,"status":"ok","state":{"timestamp_utc":"2026-05-11T07:22:32Z","class_index":0,"class_name":"not_out","is_out":false,"confidence":{"not_out":0.9981374740600586,"full":0.0009870192734524608,"partial":0.0008755386807024479},"weather":{"station":"KSEA","visibility_sm":10.0,"ceiling_ft":null,"raw":"KSEA 110653Z 19004KT 10SM FEW040 12/09 A3017 RMK AO2 SLP223 T01170094 $"},"webcam_url":"https://atmos.uw.edu/data/images/webcam2_latest.jpg","model_version":"latest"}}
{"started_at":"2026-05-11T07:37:36Z","finished_at":"2026-05-11T07:37:38Z","duration_seconds":2.000,"status":"ok","state":{"timestamp_utc":"2026-05-11T07:37:38Z","class_index":0,"class_name":"not_out","is_out":false,"confidence":{"not_out":0.9983416795730591,"full":0.0008066236623562872,"partial":0.0008516512461937964},"weather":{"station":"KSEA","visibility_sm":10.0,"ceiling_ft":null,"raw":"KSEA 110653Z 19004KT 10SM FEW040 12/09 A3017 RMK AO2 SLP223 T01170094 $"},"webcam_url":"https://atmos.uw.edu/data/images/webcam2_latest.jpg","model_version":"latest"}}
{"started_at":"2026-05-11T07:52:42Z","finished_at":"2026-05-11T07:52:44Z","duration_seconds":2.000,"status":"ok","state":{"timestamp_utc":"2026-05-11T07:52:44Z","class_index":0,"class_name":"not_out","is_out":false,"confidence":{"not_out":0.9982851147651672,"full":0.0010020488407462835,"partial":0.0007127841236069798},"weather":{"station":"KSEA","visibility_sm":10.0,"ceiling_ft":null,"raw":"KSEA 110653Z 19004KT 10SM FEW040 12/09 A3017 RMK AO2 SLP223 T01170094 $"},"webcam_url":"https://atmos.uw.edu/data/images/webcam2_latest.jpg","model_version":"latest"}}
{"started_at":"2026-05-11T08:07:48Z","finished_at":"2026-05-11T08:07:50Z","duration_seconds":2.000,"status":"ok","state":{"timestamp_utc":"2026-05-11T08:07:50Z","class_index":0,"class_name":"not_out","is_out":false,"confidence":{"not_out":0.9984874725341797,"full":0.0009101745090447366,"partial":0.0006023182650096714},"weather":{"station":"KSEA","visibility_sm":10.0,"ceiling_ft":null,"raw":"KSEA 110753Z 00000KT 10SM FEW050 12/10 A3018 RMK AO2 SLP228 T01170100 401890089 $"},"webcam_url":"https://atmos.uw.edu/data/images/webcam2_latest.jpg","model_version":"latest"}}
{"started_at":"2026-05-11T08:22:54Z","finished_at":"2026-05-11T08:22:56Z","duration_seconds":2.000,"status":"ok","state":{"timestamp_utc":"2026-05-11T08:22:56Z","class_index":0,"class_name":"not_out","is_out":false,"confidence":{"not_out":0.9984453320503235,"full":0.0009462898597121239,"partial":0.0006084430497139692},"weather":{"station":"KSEA","visibility_sm":10.0,"ceiling_ft":null,"raw":"KSEA 110753Z 00000KT 10SM FEW050 12/10 A3018 RMK AO2 SLP228 T01170100 401890089 $"},"webcam_url":"https://atmos.uw.edu/data/images/webcam2_latest.jpg","model_version":"latest"}}
{"started_at":"2026-05-11T08:38:00Z","finished_at":"2026-05-11T08:38:02Z","duration_seconds":2.000,"status":"ok","state":{"timestamp_utc":"2026-05-11T08:38:02Z","class_index":0,"class_name":"not_out","is_out":false,"confidence":{"not_out":0.9983178377151489,"full":0.0011138573754578829,"partial":0.0005683880299329758},"weather":{"station":"KSEA","visibility_sm":10.0,"ceiling_ft":null,"raw":"KSEA 110753Z 00000KT 10SM FEW050 12/10 A3018 RMK AO2 SLP228 T01170100 401890089 $"},"webcam_url":"https://atmos.uw.edu/data/images/webcam2_latest.jpg","model_version":"latest"}}
{"started_at":"2026-05-11T08:53:06Z","finished_at":"2026-05-11T08:53:08Z","duration_seconds":2.000,"status":"ok","state":{"timestamp_utc":"2026-05-11T08:53:08Z","class_index":0,"class_name":"not_out","is_out":false,"confidence":{"not_out":0.9984777569770813,"full":0.0009393637883476913,"partial":0.0005828371504321694},"weather":{"station":"KSEA","visibility_sm":10.0,"ceiling_ft":null,"raw":"KSEA 110753Z 00000KT 10SM FEW050 12/10 A3018 RMK AO2 SLP228 T01170100 401890089 $"},"webcam_url":"https://atmos.uw.edu/data/images/webcam2_latest.jpg","model_version":"latest"}}
{"started_at":"2026-05-11T09:08:12Z","finished_at":"2026-05-11T09:08:15Z","duration_seconds":3.000,"status":"ok","state":{"timestamp_utc":"2026-05-11T09:08:15Z","class_index":0,"class_name":"not_out","is_out":false,"confidence":{"not_out":0.9983692765235901,"full":0.000969220360275358,"partial":0.0006615237798541784},"weather":{"station":"KSEA","visibility_sm":10.0,"ceiling_ft":6000.0,"raw":"KSEA 110853Z 00000KT 10SM BKN060 11/09 A3020 RMK AO2 SLP234 T01110094 53014 $"},"webcam_url":"https://atmos.uw.edu/data/images/webcam2_latest.jpg","model_version":"latest"}}
{"started_at":"2026-05-11T09:23:19Z","finished_at":"2026-05-11T09:23:21Z","duration_seconds":2.000,"status":"ok","state":{"timestamp_utc":"2026-05-11T09:23:21Z","class_index":0,"class_name":"not_out","is_out":false,"confidence":{"not_out":0.9979273080825806,"full":0.0013105733087286353,"partial":0.0007620849646627903},"weather":{"station":"KSEA","visibility_sm":10.0,"ceiling_ft":6000.0,"raw":"KSEA 110853Z 00000KT 10SM BKN060 11/09 A3020 RMK AO2 SLP234 T01110094 53014 $"},"webcam_url":"https://atmos.uw.edu/data/images/webcam2_latest.jpg","model_version":"latest"}}
{"started_at":"2026-05-11T09:38:25Z","finished_at":"2026-05-11T09:38:27Z","duration_seconds":2.000,"status":"ok","state":{"timestamp_utc":"2026-05-11T09:38:27Z","class_index":0,"class_name":"not_out","is_out":false,"confidence":{"not_out":0.9985835552215576,"full":0.0008884266135282815,"partial":0.0005280715995468199},"weather":{"station":"KSEA","visibility_sm":10.0,"ceiling_ft":6000.0,"raw":"KSEA 110853Z 00000KT 10SM BKN060 11/09 A3020 RMK AO2 SLP234 T01110094 53014 $"},"webcam_url":"https://atmos.uw.edu/data/images/webcam2_latest.jpg","model_version":"latest"}}
{"started_at":"2026-05-11T09:53:32Z","finished_at":"2026-05-11T09:53:34Z","duration_seconds":2.000,"status":"ok","state":{"timestamp_utc":"2026-05-11T09:53:34Z","class_index":0,"class_name":"not_out","is_out":false,"confidence":{"not_out":0.9985989928245544,"full":0.0008049547323025763,"partial":0.0005960367852821946},"weather":{"station":"KSEA","visibility_sm":10.0,"ceiling_ft":6000.0,"raw":"KSEA 110853Z 00000KT 10SM BKN060 11/09 A3020 RMK AO2 SLP234 T01110094 53014 $"},"webcam_url":"https://atmos.uw.edu/data/images/webcam2_latest.jpg","model_version":"latest"}}
{"started_at":"2026-05-11T10:08:38Z","finished_at":"2026-05-11T10:08:40Z","duration_seconds":2.000,"status":"ok","state":{"timestamp_utc":"2026-05-11T10:08:40Z","class_index":0,"class_name":"not_out","is_out":false,"confidence":{"not_out":0.9985660910606384,"full":0.0008975145756267011,"partial":0.0005363496602512896},"weather":{"station":"KSEA","visibility_sm":10.0,"ceiling_ft":5500.0,"raw":"KSEA 110953Z 05006KT 10SM SCT040 BKN055 BKN065 12/09 A3023 RMK AO2 SLP242 T01220094 $"},"webcam_url":"https://atmos.uw.edu/data/images/webcam2_latest.jpg","model_version":"latest"}}
{"started_at":"2026-05-11T10:23:44Z","finished_at":"2026-05-11T10:23:46Z","duration_seconds":2.000,"status":"ok","state":{"timestamp_utc":"2026-05-11T10:23:46Z","class_index":0,"class_name":"not_out","is_out":false,"confidence":{"not_out":0.9985824823379517,"full":0.0008686957298777997,"partial":0.0005488726310431957},"weather":{"station":"KSEA","visibility_sm":10.0,"ceiling_ft":5500.0,"raw":"KSEA 110953Z 05006KT 10SM SCT040 BKN055 BKN065 12/09 A3023 RMK AO2 SLP242 T01220094 $"},"webcam_url":"https://atmos.uw.edu/data/images/webcam2_latest.jpg","model_version":"latest"}}
{"started_at":"2026-05-11T10:38:50Z","finished_at":"2026-05-11T10:38:53Z","duration_seconds":3.000,"status":"ok","state":{"timestamp_utc":"2026-05-11T10:38:53Z","class_index":0,"class_name":"not_out","is_out":false,"confidence":{"not_out":0.9986024498939514,"full":0.000810280442237854,"partial":0.0005872554611414671},"weather":{"station":"KSEA","visibility_sm":10.0,"ceiling_ft":5500.0,"raw":"KSEA 110953Z 05006KT 10SM SCT040 BKN055 BKN065 12/09 A3023 RMK AO2 SLP242 T01220094 $"},"webcam_url":"https://atmos.uw.edu/data/images/webcam2_latest.jpg","model_version":"latest"}}
{"started_at":"2026-05-11T10:53:56Z","finished_at":"2026-05-11T10:53:59Z","duration_seconds":3.000,"status":"ok","state":{"timestamp_utc":"2026-05-11T10:53:59Z","class_index":0,"class_name":"not_out","is_out":false,"confidence":{"not_out":0.9988358616828918,"full":0.0007147202268242836,"partial":0.00044945080298930407},"weather":{"station":"KSEA","visibility_sm":10.0,"ceiling_ft":5500.0,"raw":"KSEA 110953Z 05006KT 10SM SCT040 BKN055 BKN065 12/09 A3023 RMK AO2 SLP242 T01220094 $"},"webcam_url":"https://atmos.uw.edu/data/images/webcam2_latest.jpg","model_version":"latest"}}
{"started_at":"2026-05-11T11:09:03Z","finished_at":"2026-05-11T11:09:05Z","duration_seconds":2.000,"status":"ok","state":{"timestamp_utc":"2026-05-11T11:09:05Z","class_index":0,"class_name":"not_out","is_out":false,"confidence":{"not_out":0.998323380947113,"full":0.0010107874404639006,"partial":0.0006658926140516996},"weather":{"station":"KSEA","visibility_sm":10.0,"ceiling_ft":2500.0,"raw":"KSEA 111100Z 09003KT 10SM BKN025 OVC043 12/09 A3024 RMK AO2 T01170094 $"},"webcam_url":"https://atmos.uw.edu/data/images/webcam2_latest.jpg","model_version":"latest"}}
{"started_at":"2026-05-11T11:24:09Z","finished_at":"2026-05-11T11:24:11Z","duration_seconds":2.000,"status":"ok","state":{"timestamp_utc":"2026-05-11T11:24:11Z","class_index":0,"class_name":"not_out","is_out":false,"confidence":{"not_out":0.9986082911491394,"full":0.0008336660685017705,"partial":0.0005580189172178507},"weather":{"station":"KSEA","visibility_sm":10.0,"ceiling_ft":2500.0,"raw":"KSEA 111100Z 09003KT 10SM BKN025 OVC043 12/09 A3024 RMK AO2 T01170094 $"},"webcam_url":"https://atmos.uw.edu/data/images/webcam2_latest.jpg","model_version":"latest"}}
{"started_at":"2026-05-11T11:39:15Z","finished_at":"2026-05-11T11:39:17Z","duration_seconds":2.000,"status":"ok","state":{"timestamp_utc":"2026-05-11T11:39:17Z","class_index":0,"class_name":"not_out","is_out":false,"confidence":{"not_out":0.9983983635902405,"full":0.0008971802890300751,"partial":0.0007044450030662119},"weather":{"station":"KSEA","visibility_sm":10.0,"ceiling_ft":2500.0,"raw":"KSEA 111100Z 09003KT 10SM BKN025 OVC043 12/09 A3024 RMK AO2 T01170094 $"},"webcam_url":"https://atmos.uw.edu/data/images/webcam2_latest.jpg","model_version":"latest"}}
{"started_at":"2026-05-11T11:54:21Z","finished_at":"2026-05-11T11:54:23Z","duration_seconds":2.000,"status":"ok","state":{"timestamp_utc":"2026-05-11T11:54:23Z","class_index":0,"class_name":"not_out","is_out":false,"confidence":{"not_out":0.9963541030883789,"full":0.002350653288885951,"partial":0.001295225229114294},"weather":{"station":"KSEA","visibility_sm":10.0,"ceiling_ft":4100.0,"raw":"KSEA 111142Z 09005KT 10SM SCT025 BKN041 BKN065 12/09 A3024 RMK AO2 T01170094 $"},"webcam_url":"https://atmos.uw.edu/data/images/webcam2_latest.jpg","model_version":"latest"}}
{"started_at":"2026-05-11T12:09:27Z","finished_at":"2026-05-11T12:09:29Z","duration_seconds":2.000,"status":"ok","state":{"timestamp_utc":"2026-05-11T12:09:29Z","class_index":0,"class_name":"not_out","is_out":false,"confidence":{"not_out":0.94680255651474,"full":0.007810893468558788,"partial":0.04538659751415253},"weather":{"station":"KSEA","visibility_sm":10.0,"ceiling_ft":4100.0,"raw":"KSEA 111153Z 07005KT 10SM SCT021 BKN041 BKN060 11/09 A3024 RMK AO2 SLP245 T01110094 10128 20106 51012 $"},"webcam_url":"https://atmos.uw.edu/data/images/webcam2_latest.jpg","model_version":"latest"}}
{"started_at":"2026-05-11T12:24:33Z","finished_at":"2026-05-11T12:24:35Z","duration_seconds":2.000,"status":"ok","state":{"timestamp_utc":"2026-05-11T12:24:35Z","class_index":0,"class_name":"not_out","is_out":false,"confidence":{"not_out":0.8193191289901733,"full":0.002916226861998439,"partial":0.1777646392583847},"weather":{"station":"KSEA","visibility_sm":10.0,"ceiling_ft":4100.0,"raw":"KSEA 111153Z 07005KT 10SM SCT021 BKN041 BKN060 11/09 A3024 RMK AO2 SLP245 T01110094 10128 20106 51012 $"},"webcam_url":"https://atmos.uw.edu/data/images/webcam2_latest.jpg","model_version":"latest"}}
{"started_at":"2026-05-11T12:39:39Z","finished_at":"2026-05-11T12:39:41Z","duration_seconds":2.000,"status":"ok","state":{"timestamp_utc":"2026-05-11T12:39:41Z","class_index":1,"class_name":"full","is_out":true,"confidence":{"not_out":0.2603699564933777,"full":0.4890105426311493,"partial":0.2506195306777954},"weather":{"station":"KSEA","visibility_sm":10.0,"ceiling_ft":4100.0,"raw":"KSEA 111153Z 07005KT 10SM SCT021 BKN041 BKN060 11/09 A3024 RMK AO2 SLP245 T01110094 10128 20106 51012 $"},"webcam_url":"https://atmos.uw.edu/data/images/webcam2_latest.jpg","model_version":"latest"}}
{"started_at":"2026-05-11T12:54:45Z","finished_at":"2026-05-11T12:54:47Z","duration_seconds":2.000,"status":"ok","state":{"timestamp_utc":"2026-05-11T12:54:47Z","class_index":1,"class_name":"full","is_out":true,"confidence":{"not_out":0.17308267951011658,"full":0.7855135202407837,"partial":0.04140379652380943},"weather":{"station":"KSEA","visibility_sm":10.0,"ceiling_ft":4100.0,"raw":"KSEA 111153Z 07005KT 10SM SCT021 BKN041 BKN060 11/09 A3024 RMK AO2 SLP245 T01110094 10128 20106 51012 $"},"webcam_url":"https://atmos.uw.edu/data/images/webcam2_latest.jpg","model_version":"latest"}}
{"started_at":"2026-05-11T13:09:51Z","finished_at":"2026-05-11T13:09:58Z","duration_seconds":7.000,"status":"ok","state":{"timestamp_utc":"2026-05-11T13:09:58Z","class_index":1,"class_name":"full","is_out":true,"confidence":{"not_out":0.003163697896525264,"full":0.9931870698928833,"partial":0.0036492629442363977},"weather":{"station":"KSEA","visibility_sm":10.0,"ceiling_ft":null,"raw":"KSEA 111253Z 06006KT 10SM FEW020 SCT046 SCT060 11/09 A3022 RMK AO2 SLP240 T01110089 $"},"webcam_url":"https://atmos.uw.edu/data/images/webcam2_latest.jpg","model_version":"latest"}}
{"started_at":"2026-05-11T13:25:02Z","finished_at":"2026-05-11T13:25:06Z","duration_seconds":4.000,"status":"ok","state":{"timestamp_utc":"2026-05-11T13:25:06Z","class_index":1,"class_name":"full","is_out":true,"confidence":{"not_out":0.02956789918243885,"full":0.9239184856414795,"partial":0.04651366174221039},"weather":{"station":"KSEA","visibility_sm":10.0,"ceiling_ft":null,"raw":"KSEA 111253Z 06006KT 10SM FEW020 SCT046 SCT060 11/09 A3022 RMK AO2 SLP240 T01110089 $"},"webcam_url":"https://atmos.uw.edu/data/images/webcam2_latest.jpg","model_version":"latest"}}
{"started_at":"2026-05-11T13:40:10Z","finished_at":"2026-05-11T13:40:12Z","duration_seconds":2.000,"status":"ok","state":{"timestamp_utc":"2026-05-11T13:40:12Z","class_index":1,"class_name":"full","is_out":true,"confidence":{"not_out":0.004675083328038454,"full":0.9923800230026245,"partial":0.0029448438435792923},"weather":{"station":"KSEA","visibility_sm":10.0,"ceiling_ft":null,"raw":"KSEA 111253Z 06006KT 10SM FEW020 SCT046 SCT060 11/09 A3022 RMK AO2 SLP240 T01110089 $"},"webcam_url":"https://atmos.uw.edu/data/images/webcam2_latest.jpg","model_version":"latest"}}
{"started_at":"2026-05-11T13:55:17Z","finished_at":"2026-05-11T13:55:19Z","duration_seconds":2.000,"status":"ok","state":{"timestamp_utc":"2026-05-11T13:55:19Z","class_index":1,"class_name":"full","is_out":true,"confidence":{"not_out":0.006277227308601141,"full":0.9843646883964539,"partial":0.009358095936477184},"weather":{"station":"KSEA","visibility_sm":10.0,"ceiling_ft":null,"raw":"KSEA 111253Z 06006KT 10SM FEW020 SCT046 SCT060 11/09 A3022 RMK AO2 SLP240 T01110089 $"},"webcam_url":"https://atmos.uw.edu/data/images/webcam2_latest.jpg","model_version":"latest"}}
{"started_at":"2026-05-11T14:10:22Z","finished_at":"2026-05-11T14:10:25Z","duration_seconds":3.000,"status":"ok","state":{"timestamp_utc":"2026-05-11T14:10:25Z","class_index":1,"class_name":"full","is_out":true,"confidence":{"not_out":0.0030785317067056894,"full":0.9940912127494812,"partial":0.0028301996644586325},"weather":{"station":"KSEA","visibility_sm":10.0,"ceiling_ft":null,"raw":"KSEA 111353Z 33005KT 10SM FEW020 FEW050 SCT240 12/08 A3023 RMK AO2 SLP241 T01170078"},"webcam_url":"https://atmos.uw.edu/data/images/webcam2_latest.jpg","model_version":"latest"}}
{"started_at":"2026-05-11T14:25:29Z","finished_at":"2026-05-11T14:25:31Z","duration_seconds":2.000,"status":"ok","state":{"timestamp_utc":"2026-05-11T14:25:31Z","class_index":1,"class_name":"full","is_out":true,"confidence":{"not_out":0.0072624958120286465,"full":0.724605143070221,"partial":0.26813241839408875},"weather":{"station":"KSEA","visibility_sm":10.0,"ceiling_ft":null,"raw":"KSEA 111353Z 33005KT 10SM FEW020 FEW050 SCT240 12/08 A3023 RMK AO2 SLP241 T01170078"},"webcam_url":"https://atmos.uw.edu/data/images/webcam2_latest.jpg","model_version":"latest"}}
{"started_at":"2026-05-11T14:40:35Z","finished_at":"2026-05-11T14:40:37Z","duration_seconds":2.000,"status":"ok","state":{"timestamp_utc":"2026-05-11T14:40:37Z","class_index":1,"class_name":"full","is_out":true,"confidence":{"not_out":0.0024865735322237015,"full":0.9691393971443176,"partial":0.02837403304874897},"weather":{"station":"KSEA","visibility_sm":10.0,"ceiling_ft":null,"raw":"KSEA 111353Z 33005KT 10SM FEW020 FEW050 SCT240 12/08 A3023 RMK AO2 SLP241 T01170078"},"webcam_url":"https://atmos.uw.edu/data/images/webcam2_latest.jpg","model_version":"latest"}}
{"started_at":"2026-05-11T14:55:41Z","finished_at":"2026-05-11T14:55:43Z","duration_seconds":2.000,"status":"ok","state":{"timestamp_utc":"2026-05-11T14:55:43Z","class_index":1,"class_name":"full","is_out":true,"confidence":{"not_out":0.012253445573151112,"full":0.5010362267494202,"partial":0.48671025037765503},"weather":{"station":"KSEA","visibility_sm":10.0,"ceiling_ft":null,"raw":"KSEA 111353Z 33005KT 10SM FEW020 FEW050 SCT240 12/08 A3023 RMK AO2 SLP241 T01170078"},"webcam_url":"https://atmos.uw.edu/data/images/webcam2_latest.jpg","model_version":"latest"}}
{"started_at":"2026-05-11T15:10:47Z","finished_at":"2026-05-11T15:10:49Z","duration_seconds":2.000,"status":"ok","state":{"timestamp_utc":"2026-05-11T15:10:49Z","class_index":1,"class_name":"full","is_out":true,"confidence":{"not_out":0.015599513426423073,"full":0.6072896122932434,"partial":0.37711092829704285},"weather":{"station":"KSEA","visibility_sm":10.0,"ceiling_ft":null,"raw":"KSEA 111453Z 36009KT 10SM FEW020 FEW050 SCT240 13/07 A3022 RMK AO2 SLP240 T01330072 56005"},"webcam_url":"https://atmos.uw.edu/data/images/webcam2_latest.jpg","model_version":"latest"}}
{"started_at":"2026-05-11T15:25:53Z","finished_at":"2026-05-11T15:25:55Z","duration_seconds":2.000,"status":"ok","state":{"timestamp_utc":"2026-05-11T15:25:55Z","class_index":2,"class_name":"partial","is_out":true,"confidence":{"not_out":0.008496061898767948,"full":0.4445446729660034,"partial":0.5469592809677124},"weather":{"station":"KSEA","visibility_sm":10.0,"ceiling_ft":null,"raw":"KSEA 111453Z 36009KT 10SM FEW020 FEW050 SCT240 13/07 A3022 RMK AO2 SLP240 T01330072 56005"},"webcam_url":"https://atmos.uw.edu/data/images/webcam2_latest.jpg","model_version":"latest"}}
{"started_at":"2026-05-11T15:40:59Z","finished_at":"2026-05-11T15:41:02Z","duration_seconds":3.000,"status":"ok","state":{"timestamp_utc":"2026-05-11T15:41:02Z","class_index":1,"class_name":"full","is_out":true,"confidence":{"not_out":0.009379411116242409,"full":0.7704352736473083,"partial":0.22018533945083618},"weather":{"station":"KSEA","visibility_sm":10.0,"ceiling_ft":null,"raw":"KSEA 111453Z 36009KT 10SM FEW020 FEW050 SCT240 13/07 A3022 RMK AO2 SLP240 T01330072 56005"},"webcam_url":"https://atmos.uw.edu/data/images/webcam2_latest.jpg","model_version":"latest"}}
{"started_at":"2026-05-11T15:56:06Z","finished_at":"2026-05-11T15:56:09Z","duration_seconds":3.000,"status":"ok","state":{"timestamp_utc":"2026-05-11T15:56:09Z","class_index":2,"class_name":"partial","is_out":true,"confidence":{"not_out":0.010446752421557903,"full":0.47862064838409424,"partial":0.5109326839447021},"weather":{"station":"KSEA","visibility_sm":10.0,"ceiling_ft":null,"raw":"KSEA 111553Z 36011KT 10SM FEW025 FEW060 SCT240 14/07 A3022 RMK AO2 SLP239 T01390072"},"webcam_url":"https://atmos.uw.edu/data/images/webcam2_latest.jpg","model_version":"latest"}}
{"started_at":"2026-05-11T16:11:13Z","finished_at":"2026-05-11T16:11:15Z","duration_seconds":2.000,"status":"ok","state":{"timestamp_utc":"2026-05-11T16:11:15Z","class_index":2,"class_name":"partial","is_out":true,"confidence":{"not_out":0.010440792888402939,"full":0.23445914685726166,"partial":0.7551001310348511},"weather":{"station":"KSEA","visibility_sm":10.0,"ceiling_ft":null,"raw":"KSEA 111553Z 36011KT 10SM FEW025 FEW060 SCT240 14/07 A3022 RMK AO2 SLP239 T01390072"},"webcam_url":"https://atmos.uw.edu/data/images/webcam2_latest.jpg","model_version":"latest"}}
{"started_at":"2026-05-11T16:26:20Z","finished_at":"2026-05-11T16:26:22Z","duration_seconds":2.000,"status":"ok","state":{"timestamp_utc":"2026-05-11T16:26:22Z","class_index":1,"class_name":"full","is_out":true,"confidence":{"not_out":0.007205795496702194,"full":0.6957943439483643,"partial":0.29699990153312683},"weather":{"station":"KSEA","visibility_sm":10.0,"ceiling_ft":null,"raw":"KSEA 111553Z 36011KT 10SM FEW025 FEW060 SCT240 14/07 A3022 RMK AO2 SLP239 T01390072"},"webcam_url":"https://atmos.uw.edu/data/images/webcam2_latest.jpg","model_version":"latest"}}
{"started_at":"2026-05-11T16:41:26Z","finished_at":"2026-05-11T16:41:28Z","duration_seconds":2.000,"status":"ok","state":{"timestamp_utc":"2026-05-11T16:41:28Z","class_index":1,"class_name":"full","is_out":true,"confidence":{"not_out":0.009768997319042683,"full":0.8774528503417969,"partial":0.1127782016992569},"weather":{"station":"KSEA","visibility_sm":10.0,"ceiling_ft":null,"raw":"KSEA 111553Z 36011KT 10SM FEW025 FEW060 SCT240 14/07 A3022 RMK AO2 SLP239 T01390072"},"webcam_url":"https://atmos.uw.edu/data/images/webcam2_latest.jpg","model_version":"latest"}}
{"started_at":"2026-05-11T16:56:32Z","finished_at":"2026-05-11T16:56:35Z","duration_seconds":3.000,"status":"ok","state":{"timestamp_utc":"2026-05-11T16:56:35Z","class_index":1,"class_name":"full","is_out":true,"confidence":{"not_out":0.02194903790950775,"full":0.8692865967750549,"partial":0.10876432061195374},"weather":{"station":"KSEA","visibility_sm":10.0,"ceiling_ft":null,"raw":"KSEA 111653Z 36012KT 10SM FEW030 FEW240 16/07 A3021 RMK AO2 SLP234 T01560072"},"webcam_url":"https://atmos.uw.edu/data/images/webcam2_latest.jpg","model_version":"latest"}}
{"started_at":"2026-05-11T17:11:39Z","finished_at":"2026-05-11T17:11:41Z","duration_seconds":2.000,"status":"ok","state":{"timestamp_utc":"2026-05-11T17:11:41Z","class_index":1,"class_name":"full","is_out":true,"confidence":{"not_out":0.005517743527889252,"full":0.7228589057922363,"partial":0.2716233432292938},"weather":{"station":"KSEA","visibility_sm":10.0,"ceiling_ft":null,"raw":"KSEA 111653Z 36012KT 10SM FEW030 FEW240 16/07 A3021 RMK AO2 SLP234 T01560072"},"webcam_url":"https://atmos.uw.edu/data/images/webcam2_latest.jpg","model_version":"latest"}}
{"started_at":"2026-05-11T17:26:45Z","finished_at":"2026-05-11T17:26:48Z","duration_seconds":3.000,"status":"ok","state":{"timestamp_utc":"2026-05-11T17:26:48Z","class_index":1,"class_name":"full","is_out":true,"confidence":{"not_out":0.003343203105032444,"full":0.7555027008056641,"partial":0.2411540150642395},"weather":{"station":"KSEA","visibility_sm":10.0,"ceiling_ft":null,"raw":"KSEA 111653Z 36012KT 10SM FEW030 FEW240 16/07 A3021 RMK AO2 SLP234 T01560072"},"webcam_url":"https://atmos.uw.edu/data/images/webcam2_latest.jpg","model_version":"latest"}}
{"started_at":"2026-05-11T17:41:52Z","finished_at":"2026-05-11T17:41:54Z","duration_seconds":2.000,"status":"ok","state":{"timestamp_utc":"2026-05-11T17:41:54Z","class_index":1,"class_name":"full","is_out":true,"confidence":{"not_out":0.005313679575920105,"full":0.9173802733421326,"partial":0.07730594277381897},"weather":{"station":"KSEA","visibility_sm":10.0,"ceiling_ft":null,"raw":"KSEA 111653Z 36012KT 10SM FEW030 FEW240 16/07 A3021 RMK AO2 SLP234 T01560072"},"webcam_url":"https://atmos.uw.edu/data/images/webcam2_latest.jpg","model_version":"latest"}}
{"started_at":"2026-05-11T17:56:58Z","finished_at":"2026-05-11T17:57:00Z","duration_seconds":2.000,"status":"ok","state":{"timestamp_utc":"2026-05-11T17:57:00Z","class_index":1,"class_name":"full","is_out":true,"confidence":{"not_out":0.015290150418877602,"full":0.6923621892929077,"partial":0.2923476994037628},"weather":{"station":"KSEA","visibility_sm":10.0,"ceiling_ft":null,"raw":"KSEA 111753Z 02009G16KT 350V050 10SM FEW030 FEW250 17/08 A3019 RMK AO2 SLP228 T01720083 10172 20111 58012"},"webcam_url":"https://atmos.uw.edu/data/images/webcam2_latest.jpg","model_version":"latest"}}
{"started_at":"2026-05-11T18:12:04Z","finished_at":"2026-05-11T18:12:07Z","duration_seconds":3.000,"status":"ok","state":{"timestamp_utc":"2026-05-11T18:12:07Z","class_index":1,"class_name":"full","is_out":true,"confidence":{"not_out":0.023735426366329193,"full":0.7200196981430054,"partial":0.256244957447052},"weather":{"station":"KSEA","visibility_sm":10.0,"ceiling_ft":null,"raw":"KSEA 111753Z 02009G16KT 350V050 10SM FEW030 FEW250 17/08 A3019 RMK AO2 SLP228 T01720083 10172 20111 58012"},"webcam_url":"https://atmos.uw.edu/data/images/webcam2_latest.jpg","model_version":"latest"}}
{"started_at":"2026-05-11T18:27:11Z","finished_at":"2026-05-11T18:27:13Z","duration_seconds":2.000,"status":"ok","state":{"timestamp_utc":"2026-05-11T18:27:13Z","class_index":1,"class_name":"full","is_out":true,"confidence":{"not_out":0.045552827417850494,"full":0.8707592487335205,"partial":0.0836879163980484},"weather":{"station":"KSEA","visibility_sm":10.0,"ceiling_ft":null,"raw":"KSEA 111753Z 02009G16KT 350V050 10SM FEW030 FEW250 17/08 A3019 RMK AO2 SLP228 T01720083 10172 20111 58012"},"webcam_url":"https://atmos.uw.edu/data/images/webcam2_latest.jpg","model_version":"latest"}}
{"started_at":"2026-05-11T18:42:17Z","finished_at":"2026-05-11T18:42:19Z","duration_seconds":2.000,"status":"ok","state":{"timestamp_utc":"2026-05-11T18:42:19Z","class_index":1,"class_name":"full","is_out":true,"confidence":{"not_out":0.06426429748535156,"full":0.8019606471061707,"partial":0.13377493619918823},"weather":{"station":"KSEA","visibility_sm":10.0,"ceiling_ft":null,"raw":"KSEA 111753Z 02009G16KT 350V050 10SM FEW030 FEW250 17/08 A3019 RMK AO2 SLP228 T01720083 10172 20111 58012"},"webcam_url":"https://atmos.uw.edu/data/images/webcam2_latest.jpg","model_version":"latest"}}
{"started_at":"2026-05-11T18:57:23Z","finished_at":"2026-05-11T18:57:26Z","duration_seconds":3.000,"status":"ok","state":{"timestamp_utc":"2026-05-11T18:57:26Z","class_index":1,"class_name":"full","is_out":true,"confidence":{"not_out":0.013290198519825935,"full":0.9551461338996887,"partial":0.03156368061900139},"weather":{"station":"KSEA","visibility_sm":10.0,"ceiling_ft":null,"raw":"KSEA 111853Z 35009KT 10SM FEW040 FEW250 19/07 A3018 RMK AO2 SLP224 T01890072"},"webcam_url":"https://atmos.uw.edu/data/images/webcam2_latest.jpg","model_version":"latest"}}
{"started_at":"2026-05-11T19:12:30Z","finished_at":"2026-05-11T19:12:32Z","duration_seconds":2.000,"status":"ok","state":{"timestamp_utc":"2026-05-11T19:12:32Z","class_index":1,"class_name":"full","is_out":true,"confidence":{"not_out":0.023951712995767593,"full":0.881318211555481,"partial":0.09473007172346115},"weather":{"station":"KSEA","visibility_sm":10.0,"ceiling_ft":null,"raw":"KSEA 111853Z 35009KT 10SM FEW040 FEW250 19/07 A3018 RMK AO2 SLP224 T01890072"},"webcam_url":"https://atmos.uw.edu/data/images/webcam2_latest.jpg","model_version":"latest"}}
{"started_at":"2026-05-11T19:27:36Z","finished_at":"2026-05-11T19:27:38Z","duration_seconds":2.000,"status":"ok","state":{"timestamp_utc":"2026-05-11T19:27:38Z","class_index":1,"class_name":"full","is_out":true,"confidence":{"not_out":0.009635534137487411,"full":0.9266818761825562,"partial":0.06368254125118256},"weather":{"station":"KSEA","visibility_sm":10.0,"ceiling_ft":null,"raw":"KSEA 111853Z 35009KT 10SM FEW040 FEW250 19/07 A3018 RMK AO2 SLP224 T01890072"},"webcam_url":"https://atmos.uw.edu/data/images/webcam2_latest.jpg","model_version":"latest"}}
{"started_at":"2026-05-11T19:42:42Z","finished_at":"2026-05-11T19:42:44Z","duration_seconds":3.000,"status":"ok","state":{"timestamp_utc":"2026-05-11T19:42:44Z","class_index":1,"class_name":"full","is_out":true,"confidence":{"not_out":0.013575402088463306,"full":0.8087718486785889,"partial":0.1776527464389801},"weather":{"station":"KSEA","visibility_sm":10.0,"ceiling_ft":null,"raw":"KSEA 111853Z 35009KT 10SM FEW040 FEW250 19/07 A3018 RMK AO2 SLP224 T01890072"},"webcam_url":"https://atmos.uw.edu/data/images/webcam2_latest.jpg","model_version":"latest"}}
{"started_at":"2026-05-11T19:57:49Z","finished_at":"2026-05-11T19:57:51Z","duration_seconds":2.000,"status":"ok","state":{"timestamp_utc":"2026-05-11T19:57:51Z","class_index":1,"class_name":"full","is_out":true,"confidence":{"not_out":0.0046379887498915195,"full":0.9756820797920227,"partial":0.019679943099617958},"weather":{"station":"KSEA","visibility_sm":10.0,"ceiling_ft":null,"raw":"KSEA 111953Z 35010G18KT 10SM FEW040 FEW250 19/07 A3015 RMK AO2 SLP215 T01940072"},"webcam_url":"https://atmos.uw.edu/data/images/webcam2_latest.jpg","model_version":"latest"}}
{"started_at":"2026-05-11T20:12:55Z","finished_at":"2026-05-11T20:12:57Z","duration_seconds":2.000,"status":"ok","state":{"timestamp_utc":"2026-05-11T20:12:57Z","class_index":1,"class_name":"full","is_out":true,"confidence":{"not_out":0.005925280973315239,"full":0.978201150894165,"partial":0.01587347872555256},"weather":{"station":"KSEA","visibility_sm":10.0,"ceiling_ft":null,"raw":"KSEA 111953Z 35010G18KT 10SM FEW040 FEW250 19/07 A3015 RMK AO2 SLP215 T01940072"},"webcam_url":"https://atmos.uw.edu/data/images/webcam2_latest.jpg","model_version":"latest"}}
{"started_at":"2026-05-11T20:28:01Z","finished_at":"2026-05-11T20:28:03Z","duration_seconds":2.000,"status":"ok","state":{"timestamp_utc":"2026-05-11T20:28:03Z","class_index":1,"class_name":"full","is_out":true,"confidence":{"not_out":0.007950359024107456,"full":0.941445529460907,"partial":0.05060422793030739},"weather":{"station":"KSEA","visibility_sm":10.0,"ceiling_ft":null,"raw":"KSEA 111953Z 35010G18KT 10SM FEW040 FEW250 19/07 A3015 RMK AO2 SLP215 T01940072"},"webcam_url":"https://atmos.uw.edu/data/images/webcam2_latest.jpg","model_version":"latest"}}
{"started_at":"2026-05-11T20:43:08Z","finished_at":"2026-05-11T20:43:10Z","duration_seconds":2.000,"status":"ok","state":{"timestamp_utc":"2026-05-11T20:43:10Z","class_index":1,"class_name":"full","is_out":true,"confidence":{"not_out":0.0045364354737102985,"full":0.9890271425247192,"partial":0.006436305120587349},"weather":{"station":"KSEA","visibility_sm":10.0,"ceiling_ft":null,"raw":"KSEA 111953Z 35010G18KT 10SM FEW040 FEW250 19/07 A3015 RMK AO2 SLP215 T01940072"},"webcam_url":"https://atmos.uw.edu/data/images/webcam2_latest.jpg","model_version":"latest"}}
{"started_at":"2026-05-11T20:58:14Z","finished_at":"2026-05-11T20:58:16Z","duration_seconds":2.000,"status":"ok","state":{"timestamp_utc":"2026-05-11T20:58:16Z","class_index":1,"class_name":"full","is_out":true,"confidence":{"not_out":0.0018779542297124863,"full":0.9927161335945129,"partial":0.005405978299677372},"weather":{"station":"KSEA","visibility_sm":10.0,"ceiling_ft":null,"raw":"KSEA 112053Z 33012KT 10SM FEW040 FEW250 20/08 A3014 RMK AO2 SLP211 T02000078 57017"},"webcam_url":"https://atmos.uw.edu/data/images/webcam2_latest.jpg","model_version":"latest"}}
{"started_at":"2026-05-11T21:13:20Z","finished_at":"2026-05-11T21:13:22Z","duration_seconds":2.000,"status":"ok","state":{"timestamp_utc":"2026-05-11T21:13:22Z","class_index":1,"class_name":"full","is_out":true,"confidence":{"not_out":0.012776274234056473,"full":0.9685196280479431,"partial":0.018704069778323174},"weather":{"station":"KSEA","visibility_sm":10.0,"ceiling_ft":null,"raw":"KSEA 112053Z 33012KT 10SM FEW040 FEW250 20/08 A3014 RMK AO2 SLP211 T02000078 57017"},"webcam_url":"https://atmos.uw.edu/data/images/webcam2_latest.jpg","model_version":"latest"}}
{"started_at":"2026-05-11T21:28:26Z","finished_at":"2026-05-11T21:28:28Z","duration_seconds":2.000,"status":"ok","state":{"timestamp_utc":"2026-05-11T21:28:28Z","class_index":1,"class_name":"full","is_out":true,"confidence":{"not_out":0.022019661962985992,"full":0.9326969385147095,"partial":0.045283474028110504},"weather":{"station":"KSEA","visibility_sm":10.0,"ceiling_ft":null,"raw":"KSEA 112053Z 33012KT 10SM FEW040 FEW250 20/08 A3014 RMK AO2 SLP211 T02000078 57017"},"webcam_url":"https://atmos.uw.edu/data/images/webcam2_latest.jpg","model_version":"latest"}}
{"started_at":"2026-05-11T21:43:32Z","finished_at":"2026-05-11T21:43:34Z","duration_seconds":2.000,"status":"ok","state":{"timestamp_utc":"2026-05-11T21:43:34Z","class_index":1,"class_name":"full","is_out":true,"confidence":{"not_out":0.019836625084280968,"full":0.975676953792572,"partial":0.004486376419663429},"weather":{"station":"KSEA","visibility_sm":10.0,"ceiling_ft":null,"raw":"KSEA 112053Z 33012KT 10SM FEW040 FEW250 20/08 A3014 RMK AO2 SLP211 T02000078 57017"},"webcam_url":"https://atmos.uw.edu/data/images/webcam2_latest.jpg","model_version":"latest"}}
{"started_at":"2026-05-11T21:58:38Z","finished_at":"2026-05-11T21:58:41Z","duration_seconds":3.000,"status":"ok","state":{"timestamp_utc":"2026-05-11T21:58:40Z","class_index":1,"class_name":"full","is_out":true,"confidence":{"not_out":0.023461928591132164,"full":0.8997767567634583,"partial":0.07676132023334503},"weather":{"station":"KSEA","visibility_sm":10.0,"ceiling_ft":null,"raw":"KSEA 112153Z 34013G17KT 10SM FEW040 FEW200 SCT250 21/06 A3012 RMK AO2 SLP205 T02110061"},"webcam_url":"https://atmos.uw.edu/data/images/webcam2_latest.jpg","model_version":"latest"}}
{"started_at":"2026-05-11T22:13:44Z","finished_at":"2026-05-11T22:13:47Z","duration_seconds":3.000,"status":"ok","state":{"timestamp_utc":"2026-05-11T22:13:47Z","class_index":1,"class_name":"full","is_out":true,"confidence":{"not_out":0.028566932305693626,"full":0.7737574577331543,"partial":0.1976756453514099},"weather":{"station":"KSEA","visibility_sm":10.0,"ceiling_ft":null,"raw":"KSEA 112153Z 34013G17KT 10SM FEW040 FEW200 SCT250 21/06 A3012 RMK AO2 SLP205 T02110061"},"webcam_url":"https://atmos.uw.edu/data/images/webcam2_latest.jpg","model_version":"latest"}}
{"started_at":"2026-05-11T22:28:51Z","finished_at":"2026-05-11T22:28:53Z","duration_seconds":2.000,"status":"ok","state":{"timestamp_utc":"2026-05-11T22:28:53Z","class_index":1,"class_name":"full","is_out":true,"confidence":{"not_out":0.025711238384246826,"full":0.8883283138275146,"partial":0.08596041798591614},"weather":{"station":"KSEA","visibility_sm":10.0,"ceiling_ft":null,"raw":"KSEA 112153Z 34013G17KT 10SM FEW040 FEW200 SCT250 21/06 A3012 RMK AO2 SLP205 T02110061"},"webcam_url":"https://atmos.uw.edu/data/images/webcam2_latest.jpg","model_version":"latest"}}
{"started_at":"2026-05-11T22:43:57Z","finished_at":"2026-05-11T22:43:59Z","duration_seconds":2.000,"status":"ok","state":{"timestamp_utc":"2026-05-11T22:43:59Z","class_index":2,"class_name":"partial","is_out":true,"confidence":{"not_out":0.033317532390356064,"full":0.25191593170166016,"partial":0.7147665619850159},"weather":{"station":"KSEA","visibility_sm":10.0,"ceiling_ft":null,"raw":"KSEA 112153Z 34013G17KT 10SM FEW040 FEW200 SCT250 21/06 A3012 RMK AO2 SLP205 T02110061"},"webcam_url":"https://atmos.uw.edu/data/images/webcam2_latest.jpg","model_version":"latest"}}
