{
  "timestamp_utc": "2026-05-08T19:28:24Z",
  "class_index": 0,
  "class_name": "not_out",
  "is_out": false,
  "confidence": {
    "not_out": 0.9081677794456482,
    "full": 0.000020932722691213712,
    "partial": 0.09181130677461624
  },
  "weather": {
    "station": "KSEA",
    "visibility_sm": 10.0,
    "ceiling_ft": 3500.0,
    "raw": "KSEA 081853Z 22014KT 10SM SCT029 BKN035 12/05 A3016 RMK AO2 SLP219 T01220050"
  },
  "webcam_url": "https://atmos.uw.edu/data/images/webcam2_latest.jpg",
  "model_version": "latest"
}
