{
  "timestamp_utc": "2026-05-11T02:35:35Z",
  "class_index": 0,
  "class_name": "not_out",
  "is_out": false,
  "confidence": {
    "not_out": 0.9393004775047302,
    "full": 0.0017328347312286496,
    "partial": 0.05896671488881111
  },
  "weather": {
    "station": "KSEA",
    "visibility_sm": 10.0,
    "ceiling_ft": 6000.0,
    "raw": "KSEA 110153Z 32004KT 10SM FEW041 BKN060 17/08 A3013 RMK AO2 SLP208 T01670083 $"
  },
  "webcam_url": "https://atmos.uw.edu/data/images/webcam2_latest.jpg",
  "model_version": "latest"
}
