{
  "timestamp_utc": "2026-05-08T09:08:57Z",
  "class_index": 0,
  "class_name": "not_out",
  "is_out": false,
  "confidence": {
    "not_out": 0.9942637085914612,
    "full": 0.004088672809302807,
    "partial": 0.0016476510791108012
  },
  "weather": {
    "station": "KSEA",
    "visibility_sm": 10.0,
    "ceiling_ft": 19000.0,
    "raw": "KSEA 080853Z 19004KT 10SM OVC190 12/09 A3002 RMK AO2 SLP171 T01170089 55002 $"
  },
  "webcam_url": "https://atmos.uw.edu/data/images/webcam2_latest.jpg",
  "model_version": "latest"
}
