{
  "timestamp_utc": "2026-05-04T16:33:29Z",
  "class_index": 1,
  "class_name": "full",
  "is_out": true,
  "confidence": {
    "not_out": 0.0030966473277658224,
    "full": 0.6577455401420593,
    "partial": 0.33915776014328003
  },
  "weather": {
    "station": "KSEA",
    "visibility_sm": 10.0,
    "ceiling_ft": null,
    "raw": "KSEA 041553Z 16004KT 10SM SCT250 18/09 A2986 RMK AO2 SLP115 T01780094"
  },
  "webcam_url": "https://atmos.uw.edu/data/images/webcam2_latest.jpg",
  "model_version": "latest"
}
