{
  "timestamp_utc": "2026-05-07T16:32:24Z",
  "class_index": 0,
  "class_name": "not_out",
  "is_out": false,
  "confidence": {
    "not_out": 0.9952115416526794,
    "full": 0.0004021142376586795,
    "partial": 0.004386455751955509
  },
  "weather": {
    "station": "KSEA",
    "visibility_sm": 10.0,
    "ceiling_ft": 3200.0,
    "raw": "KSEA 071553Z 21006KT 10SM SCT016 BKN032 11/07 A3015 RMK AO2 SLP215 T01110072 $"
  },
  "webcam_url": "https://atmos.uw.edu/data/images/webcam2_latest.jpg",
  "model_version": "latest"
}
