{
  "timestamp_utc": "2026-05-10T11:29:34Z",
  "class_index": 0,
  "class_name": "not_out",
  "is_out": false,
  "confidence": {
    "not_out": 0.9944401979446411,
    "full": 0.00174995930865407,
    "partial": 0.0038098215591162443
  },
  "weather": {
    "station": "KSEA",
    "visibility_sm": 10.0,
    "ceiling_ft": 25000.0,
    "raw": "KSEA 101053Z 00000KT 10SM BKN250 11/09 A3004 RMK AO2 SLP177 T01060089"
  },
  "webcam_url": "https://atmos.uw.edu/data/images/webcam2_latest.jpg",
  "model_version": "latest"
}
