{
  "timestamp_utc": "2026-05-23T15:24:56Z",
  "class_index": 0,
  "class_name": "not_out",
  "is_out": false,
  "confidence": {
    "not_out": 0.9998328685760498,
    "full": 0.000045198645238997415,
    "partial": 0.00012189119297545403
  },
  "weather": {
    "station": "KSEA",
    "visibility_sm": 10.0,
    "ceiling_ft": 500.0,
    "raw": "KSEA 231509Z 19006KT 10SM OVC005 11/09 A2996 RMK AO2 T01110094"
  },
  "webcam_url": "https://atmos.uw.edu/data/images/webcam2_latest.jpg",
  "model_version": "latest"
}
