{
  "timestamp_utc": "2026-05-09T12:05:06Z",
  "class_index": 2,
  "class_name": "partial",
  "is_out": true,
  "confidence": {
    "not_out": 0.447866290807724,
    "full": 0.054252512753009796,
    "partial": 0.4978812038898468
  },
  "weather": {
    "station": "KSEA",
    "visibility_sm": 10.0,
    "ceiling_ft": null,
    "raw": "KSEA 091153Z 00000KT 10SM FEW025 10/08 A3020 RMK AO2 SLP233 T01000083 10117 20100 56007"
  },
  "webcam_url": "https://atmos.uw.edu/data/images/webcam2_latest.jpg",
  "model_version": "latest"
}
