{
  "timestamp_utc": "2026-05-08T02:21:13Z",
  "class_index": 2,
  "class_name": "partial",
  "is_out": true,
  "confidence": {
    "not_out": 0.03538684919476509,
    "full": 0.041825320571660995,
    "partial": 0.9227877855300903
  },
  "weather": {
    "station": "KSEA",
    "visibility_sm": 10.0,
    "ceiling_ft": 23000.0,
    "raw": "KSEA 080153Z 28003KT 10SM FEW040 BKN230 17/07 A3004 RMK AO2 SLP179 T01720072 $"
  },
  "webcam_url": "https://atmos.uw.edu/data/images/webcam2_latest.jpg",
  "model_version": "latest"
}
