{
  "timestamp_utc": "2026-05-03T18:24:50Z",
  "class_index": 2,
  "class_name": "partial",
  "is_out": true,
  "confidence": {
    "not_out": 0.036326903849840164,
    "full": 0.20185621082782745,
    "partial": 0.7618168592453003
  },
  "weather": {
    "station": "KSEA",
    "visibility_sm": 10.0,
    "ceiling_ft": null,
    "raw": "KSEA 031753Z 36008KT 10SM FEW070 SCT180 22/11 A2994 RMK AO2 SLP144 T02170106 10217 20133 58004 $"
  },
  "webcam_url": "https://atmos.uw.edu/data/images/webcam2_latest.jpg",
  "model_version": "latest"
}
