{
  "timestamp_utc": "2026-05-05T05:39:04Z",
  "class_index": 0,
  "class_name": "not_out",
  "is_out": false,
  "confidence": {
    "not_out": 0.9992221593856812,
    "full": 0.0003567863313946873,
    "partial": 0.000421074713813141
  },
  "weather": {
    "station": "KSEA",
    "visibility_sm": 10.0,
    "ceiling_ft": null,
    "raw": "KSEA 050453Z 19008KT 10SM FEW250 14/11 A2987 RMK AO2 SLP120 T01390106"
  },
  "webcam_url": "https://atmos.uw.edu/data/images/webcam2_latest.jpg",
  "model_version": "latest"
}
