{
  "timestamp_utc": "2026-05-09T05:32:32Z",
  "class_index": 0,
  "class_name": "not_out",
  "is_out": false,
  "confidence": {
    "not_out": 0.9969028830528259,
    "full": 0.0014432072639465332,
    "partial": 0.0016539328498765826
  },
  "weather": {
    "station": "KSEA",
    "visibility_sm": 10.0,
    "ceiling_ft": null,
    "raw": "KSEA 090453Z 19005KT 10SM FEW035 FEW075 12/07 A3020 RMK AO2 SLP233 T01220072"
  },
  "webcam_url": "https://atmos.uw.edu/data/images/webcam2_latest.jpg",
  "model_version": "latest"
}
