{
  "timestamp_utc": "2026-05-07T01:11:23Z",
  "class_index": 0,
  "class_name": "not_out",
  "is_out": false,
  "confidence": {
    "not_out": 0.999735414981842,
    "full": 0.000001325918901784462,
    "partial": 0.0002633128024172038
  },
  "weather": {
    "station": "KSEA",
    "visibility_sm": 10.0,
    "ceiling_ft": 2900.0,
    "raw": "KSEA 070053Z 23007KT 10SM OVC029 13/09 A3014 RMK AO2 SLP212 T01330089 $"
  },
  "webcam_url": "https://atmos.uw.edu/data/images/webcam2_latest.jpg",
  "model_version": "latest"
}
