{
  "timestamp_utc": "2026-05-03T15:53:53Z",
  "class_index": 2,
  "class_name": "partial",
  "is_out": true,
  "confidence": {
    "not_out": 0.006272497121244669,
    "full": 0.06646930426359177,
    "partial": 0.9272581934928894
  },
  "weather": {
    "station": "KSEA",
    "visibility_sm": 10.0,
    "ceiling_ft": null,
    "raw": "KSEA 031453Z 35007KT 10SM FEW110 17/09 A2996 RMK AO2 SLP148 T01720089 53002 $"
  },
  "webcam_url": "https://atmos.uw.edu/data/images/webcam2_latest.jpg",
  "model_version": "latest"
}
