{
  "timestamp_utc": "2026-05-09T10:34:32Z",
  "class_index": 0,
  "class_name": "not_out",
  "is_out": false,
  "confidence": {
    "not_out": 0.9965391159057617,
    "full": 0.0011499430984258652,
    "partial": 0.0023109924513846636
  },
  "weather": {
    "station": "KSEA",
    "visibility_sm": 10.0,
    "ceiling_ft": null,
    "raw": "KSEA 091019Z 21003KT 10SM SCT027 11/08 A3021 RMK AO2 T01060083"
  },
  "webcam_url": "https://atmos.uw.edu/data/images/webcam2_latest.jpg",
  "model_version": "latest"
}
