{
  "timestamp_utc": "2026-05-14T22:29:55Z",
  "class_index": 0,
  "class_name": "not_out",
  "is_out": false,
  "confidence": {
    "not_out": 0.9991412162780762,
    "full": 0.000005502586645889096,
    "partial": 0.0008533275686204433
  },
  "weather": {
    "station": "KSEA",
    "visibility_sm": 10.0,
    "ceiling_ft": 11000.0,
    "raw": "KSEA 142153Z 22013G21KT 10SM FEW036 SCT050 BKN110 BKN200 13/06 A3011 RMK AO2 SLP204 T01330056 $"
  },
  "webcam_url": "https://atmos.uw.edu/data/images/webcam2_latest.jpg",
  "model_version": "latest"
}
