{
  "timestamp_utc": "2026-05-16T15:32:19Z",
  "class_index": 0,
  "class_name": "not_out",
  "is_out": false,
  "confidence": {
    "not_out": 0.9985987544059753,
    "full": 0.000017230318917427212,
    "partial": 0.001384007977321744
  },
  "weather": {
    "station": "KSEA",
    "visibility_sm": 10.0,
    "ceiling_ft": 1400.0,
    "raw": "KSEA 161453Z 21005KT 10SM BKN014 OVC021 08/06 A3013 RMK AO2 SLP209 T00780056 53018"
  },
  "webcam_url": "https://atmos.uw.edu/data/images/webcam2_latest.jpg",
  "model_version": "latest"
}
