{
  "timestamp_utc": "2026-05-17T09:39:07Z",
  "class_index": 0,
  "class_name": "not_out",
  "is_out": false,
  "confidence": {
    "not_out": 0.9975958466529846,
    "full": 0.0016721392748877406,
    "partial": 0.0007319878786802292
  },
  "weather": {
    "station": "KSEA",
    "visibility_sm": 10.0,
    "ceiling_ft": null,
    "raw": "KSEA 170853Z 14005KT 10SM SCT030 SCT200 06/04 A3022 RMK AO2 SLP240 T00610044 51006"
  },
  "webcam_url": "https://atmos.uw.edu/data/images/webcam2_latest.jpg",
  "model_version": "latest"
}
