{
  "timestamp_utc": "2026-05-24T18:20:45Z",
  "class_index": 1,
  "class_name": "full",
  "is_out": true,
  "confidence": {
    "not_out": 0.0024616806767880917,
    "full": 0.9948769211769104,
    "partial": 0.0026614521630108356
  },
  "weather": {
    "station": "KSEA",
    "visibility_sm": 10.0,
    "ceiling_ft": null,
    "raw": "KSEA 241753Z VRB05KT 10SM FEW030 FEW050 SCT140 14/07 A3002 RMK AO2 SLP172 T01440072 10150 20100 58004"
  },
  "webcam_url": "https://atmos.uw.edu/data/images/webcam2_latest.jpg",
  "model_version": "latest"
}
