{
  "timestamp_utc": "2026-05-16T19:18:45Z",
  "class_index": 0,
  "class_name": "not_out",
  "is_out": false,
  "confidence": {
    "not_out": 0.9924792051315308,
    "full": 0.000038915295590413734,
    "partial": 0.007481915410608053
  },
  "weather": {
    "station": "KSEA",
    "visibility_sm": 10.0,
    "ceiling_ft": null,
    "raw": "KSEA 161853Z VRB05KT 10SM FEW024 SCT035 12/04 A3013 RMK AO2 SLP212 T01170039"
  },
  "webcam_url": "https://atmos.uw.edu/data/images/webcam2_latest.jpg",
  "model_version": "latest"
}
