{
  "timestamp_utc": "2026-05-15T03:31:54Z",
  "class_index": 0,
  "class_name": "not_out",
  "is_out": false,
  "confidence": {
    "not_out": 0.9980370402336121,
    "full": 0.00017535081133246422,
    "partial": 0.0017876018537208438
  },
  "weather": {
    "station": "KSEA",
    "visibility_sm": 10.0,
    "ceiling_ft": 3500.0,
    "raw": "KSEA 150324Z 20008KT 10SM FEW027 BKN035 BKN062 12/07 A3010 RMK AO2 T01170072 $"
  },
  "webcam_url": "https://atmos.uw.edu/data/images/webcam2_latest.jpg",
  "model_version": "latest"
}
