{
  "timestamp_utc": "2026-05-18T20:23:16Z",
  "class_index": 2,
  "class_name": "partial",
  "is_out": true,
  "confidence": {
    "not_out": 0.041549257934093475,
    "full": 0.012842225842177868,
    "partial": 0.9456084370613098
  },
  "weather": {
    "station": "KSEA",
    "visibility_sm": 10.0,
    "ceiling_ft": 20000.0,
    "raw": "KSEA 181953Z 26006KT 10SM FEW025 FEW080 BKN200 15/07 A3026 RMK AO2 SLP253 T01500072"
  },
  "webcam_url": "https://atmos.uw.edu/data/images/webcam2_latest.jpg",
  "model_version": "latest"
}
