{
  "timestamp_utc": "2026-05-21T23:38:58Z",
  "class_index": 1,
  "class_name": "full",
  "is_out": true,
  "confidence": {
    "not_out": 0.006434703711420298,
    "full": 0.9817311763763428,
    "partial": 0.011834152974188328
  },
  "weather": {
    "station": "KSEA",
    "visibility_sm": 10.0,
    "ceiling_ft": null,
    "raw": "KSEA 212253Z 28005KT 10SM FEW080 FEW230 24/05 A3005 RMK AO2 SLP181 T02390050"
  },
  "webcam_url": "https://atmos.uw.edu/data/images/webcam2_latest.jpg",
  "model_version": "latest"
}
