{
  "timestamp_utc": "2026-05-05T09:25:30Z",
  "class_index": 0,
  "class_name": "not_out",
  "is_out": false,
  "confidence": {
    "not_out": 0.9994088411331177,
    "full": 0.00035569979809224606,
    "partial": 0.00023539621906820685
  },
  "weather": {
    "station": "KSEA",
    "visibility_sm": 10.0,
    "ceiling_ft": 900.0,
    "raw": "KSEA 050853Z 20010KT 10SM BKN009 12/10 A2992 RMK AO2 SLP137 T01170100 51013"
  },
  "webcam_url": "https://atmos.uw.edu/data/images/webcam2_latest.jpg",
  "model_version": "latest"
}
