{
  "timestamp_utc": "2026-05-18T15:36:18Z",
  "class_index": 2,
  "class_name": "partial",
  "is_out": true,
  "confidence": {
    "not_out": 0.33405444025993347,
    "full": 0.033727966248989105,
    "partial": 0.6322175860404968
  },
  "weather": {
    "station": "KSEA",
    "visibility_sm": 10.0,
    "ceiling_ft": 20000.0,
    "raw": "KSEA 181453Z 00000KT 10SM SCT010 SCT080 BKN200 09/07 A3026 RMK AO2 SLP252 T00940072 53003"
  },
  "webcam_url": "https://atmos.uw.edu/data/images/webcam2_latest.jpg",
  "model_version": "latest"
}
