{
  "timestamp_utc": "2026-05-10T19:17:40Z",
  "class_index": 0,
  "class_name": "not_out",
  "is_out": false,
  "confidence": {
    "not_out": 0.9982067346572876,
    "full": 0.000022657777662971057,
    "partial": 0.0017707013757899404
  },
  "weather": {
    "station": "KSEA",
    "visibility_sm": 10.0,
    "ceiling_ft": 1500.0,
    "raw": "KSEA 101853Z 22007KT 10SM BKN015 BKN023 OVC033 13/09 A3011 RMK AO2 SLP201 T01330094 $"
  },
  "webcam_url": "https://atmos.uw.edu/data/images/webcam2_latest.jpg",
  "model_version": "latest"
}
