{
  "timestamp_utc": "2026-05-10T22:33:59Z",
  "class_index": 0,
  "class_name": "not_out",
  "is_out": false,
  "confidence": {
    "not_out": 0.9812730550765991,
    "full": 0.00003728457886609249,
    "partial": 0.018689580261707306
  },
  "weather": {
    "station": "KSEA",
    "visibility_sm": 10.0,
    "ceiling_ft": 5500.0,
    "raw": "KSEA 102153Z VRB04KT 10SM SCT033 BKN055 18/08 A3012 RMK AO2 SLP205 T01780083 $"
  },
  "webcam_url": "https://atmos.uw.edu/data/images/webcam2_latest.jpg",
  "model_version": "latest"
}
