{
  "timestamp_utc": "2026-05-08T06:22:50Z",
  "class_index": 0,
  "class_name": "not_out",
  "is_out": false,
  "confidence": {
    "not_out": 0.9929498434066772,
    "full": 0.005441797897219658,
    "partial": 0.0016084351809695363
  },
  "weather": {
    "station": "KSEA",
    "visibility_sm": 10.0,
    "ceiling_ft": null,
    "raw": "KSEA 080553Z 00000KT 10SM SCT250 14/07 A3003 RMK AO2 SLP174 T01440067 10178 20144 58001 $"
  },
  "webcam_url": "https://atmos.uw.edu/data/images/webcam2_latest.jpg",
  "model_version": "latest"
}
