{
  "timestamp_utc": "2026-05-21T10:33:31Z",
  "class_index": 0,
  "class_name": "not_out",
  "is_out": false,
  "confidence": {
    "not_out": 0.9985778331756592,
    "full": 0.0009479370201006532,
    "partial": 0.00047419549082405865
  },
  "weather": {
    "station": "KSEA",
    "visibility_sm": 10.0,
    "ceiling_ft": null,
    "raw": "KSEA 210953Z 03006KT 10SM CLR 12/08 A3016 RMK AO2 SLP218 T01220078 $"
  },
  "webcam_url": "https://atmos.uw.edu/data/images/webcam2_latest.jpg",
  "model_version": "latest"
}
