{
  "timestamp_utc": "2026-05-04T21:50:42Z",
  "class_index": 2,
  "class_name": "partial",
  "is_out": true,
  "confidence": {
    "not_out": 0.06459154933691025,
    "full": 0.3556893765926361,
    "partial": 0.5797191262245178
  },
  "weather": {
    "station": "KSEA",
    "visibility_sm": 10.0,
    "ceiling_ft": 25000.0,
    "raw": "KSEA 042053Z 20005KT 10SM BKN250 23/11 A2986 RMK AO2 SLP115 T02280111 56006"
  },
  "webcam_url": "https://atmos.uw.edu/data/images/webcam2_latest.jpg",
  "model_version": "latest"
}
