{
  "timestamp_utc": "2026-04-21T11:47:36Z",
  "class_index": 0,
  "class_name": "not_out",
  "is_out": false,
  "confidence": {
    "not_out": 0.9995306730270386,
    "full": 0.00024880366981960833,
    "partial": 0.00022056009038351476
  },
  "weather": {
    "station": "KSEA",
    "visibility_sm": 10.0,
    "ceiling_ft": null,
    "raw": "KSEA 211053Z 21005KT 10SM SCT250 11/07 A2981 RMK AO2 SLP099 T01060072"
  },
  "webcam_url": "https://atmos.uw.edu/data/images/webcam2_latest.jpg",
  "model_version": "b87d53c"
}
