{
  "timestamp_utc": "2026-05-19T11:14:19Z",
  "class_index": 0,
  "class_name": "not_out",
  "is_out": false,
  "confidence": {
    "not_out": 0.9986616373062134,
    "full": 0.0008819988579489291,
    "partial": 0.00045636348659172654
  },
  "weather": {
    "station": "KSEA",
    "visibility_sm": 10.0,
    "ceiling_ft": 2200.0,
    "raw": "KSEA 191053Z 22007KT 10SM OVC022 11/08 A3025 RMK AO2 SLP248 T01110083"
  },
  "webcam_url": "https://atmos.uw.edu/data/images/webcam2_latest.jpg",
  "model_version": "latest"
}
