{
  "timestamp_utc": "2026-05-16T04:28:05Z",
  "class_index": 0,
  "class_name": "not_out",
  "is_out": false,
  "confidence": {
    "not_out": 0.9980168342590332,
    "full": 0.0013334087561815977,
    "partial": 0.0006496823625639081
  },
  "weather": {
    "station": "KSEA",
    "visibility_sm": 10.0,
    "ceiling_ft": 3400.0,
    "raw": "KSEA 160353Z 18009KT 10SM FEW015 BKN034 08/07 A3005 RMK AO2 RAE43 SLP185 P0012 T00830072"
  },
  "webcam_url": "https://atmos.uw.edu/data/images/webcam2_latest.jpg",
  "model_version": "latest"
}
