{
  "timestamp_utc": "2026-05-10T05:57:23Z",
  "class_index": 0,
  "class_name": "not_out",
  "is_out": false,
  "confidence": {
    "not_out": 0.997210681438446,
    "full": 0.0009752679616212845,
    "partial": 0.0018140423344448209
  },
  "weather": {
    "station": "KSEA",
    "visibility_sm": 10.0,
    "ceiling_ft": 23000.0,
    "raw": "KSEA 100553Z 31003KT 10SM SCT180 BKN230 14/09 A3001 RMK AO2 SLP169 T01440089 10206 20144 53002"
  },
  "webcam_url": "https://atmos.uw.edu/data/images/webcam2_latest.jpg",
  "model_version": "latest"
}
