{
  "timestamp_utc": "2026-05-04T10:00:53Z",
  "class_index": 0,
  "class_name": "not_out",
  "is_out": false,
  "confidence": {
    "not_out": 0.9992637038230896,
    "full": 0.000432331784395501,
    "partial": 0.0003040044684894383
  },
  "weather": {
    "station": "KSEA",
    "visibility_sm": 10.0,
    "ceiling_ft": null,
    "raw": "KSEA 040953Z 12005KT 10SM FEW250 16/08 A2981 RMK AO2 SLP100 T01610083 $"
  },
  "webcam_url": "https://atmos.uw.edu/data/images/webcam2_latest.jpg",
  "model_version": "latest"
}
