{
  "timestamp_utc": "2026-05-15T17:23:07Z",
  "class_index": 0,
  "class_name": "not_out",
  "is_out": false,
  "confidence": {
    "not_out": 0.9998663663864136,
    "full": 0.000008337174222106114,
    "partial": 0.00012525188503786922
  },
  "weather": {
    "station": "KSEA",
    "visibility_sm": 10.0,
    "ceiling_ft": 2100.0,
    "raw": "KSEA 151653Z 21014G18KT 10SM -RA BKN021 OVC028 10/06 A3013 RMK AO2 RAB52 SLP211 P0000 T01000056"
  },
  "webcam_url": "https://atmos.uw.edu/data/images/webcam2_latest.jpg",
  "model_version": "latest"
}
