{
  "timestamp_utc": "2026-05-18T14:35:52Z",
  "class_index": 0,
  "class_name": "not_out",
  "is_out": false,
  "confidence": {
    "not_out": 0.5990905165672302,
    "full": 0.39528077840805054,
    "partial": 0.005628701765090227
  },
  "weather": {
    "station": "KSEA",
    "visibility_sm": 10.0,
    "ceiling_ft": 19000.0,
    "raw": "KSEA 181353Z 15005KT 10SM FEW010 FEW080 BKN190 09/06 A3025 RMK AO2 SLP250 T00890061"
  },
  "webcam_url": "https://atmos.uw.edu/data/images/webcam2_latest.jpg",
  "model_version": "latest"
}
