{
  "timestamp_utc": "2026-05-09T21:39:04Z",
  "class_index": 0,
  "class_name": "not_out",
  "is_out": false,
  "confidence": {
    "not_out": 0.995385468006134,
    "full": 0.00043324599391780794,
    "partial": 0.004181315656751394
  },
  "weather": {
    "station": "KSEA",
    "visibility_sm": 10.0,
    "ceiling_ft": 25000.0,
    "raw": "KSEA 092053Z 28008KT 10SM BKN250 18/08 A3011 RMK AO2 SLP201 T01830083 58016"
  },
  "webcam_url": "https://atmos.uw.edu/data/images/webcam2_latest.jpg",
  "model_version": "latest"
}
