{
  "timestamp_utc": "2026-05-24T07:46:32Z",
  "class_index": 0,
  "class_name": "not_out",
  "is_out": false,
  "confidence": {
    "not_out": 0.9988993406295776,
    "full": 0.0008157106349244714,
    "partial": 0.00028493301942944527
  },
  "weather": {
    "station": "KSEA",
    "visibility_sm": 10.0,
    "ceiling_ft": 3400.0,
    "raw": "KSEA 240653Z 25005KT 10SM BKN034 OVC055 13/09 A3000 RMK AO2 SLP165 T01280089"
  },
  "webcam_url": "https://atmos.uw.edu/data/images/webcam2_latest.jpg",
  "model_version": "latest"
}
