{
  "timestamp_utc": "2026-05-22T13:59:47Z",
  "class_index": 1,
  "class_name": "full",
  "is_out": true,
  "confidence": {
    "not_out": 0.0020978585816919804,
    "full": 0.9972310662269592,
    "partial": 0.0006711197784170508
  },
  "weather": {
    "station": "KSEA",
    "visibility_sm": 10.0,
    "ceiling_ft": null,
    "raw": "KSEA 221353Z 14003KT 10SM FEW250 13/08 A2997 RMK AO2 SLP154 T01330083"
  },
  "webcam_url": "https://atmos.uw.edu/data/images/webcam2_latest.jpg",
  "model_version": "latest"
}
