{
  "timestamp_utc": "2026-05-17T21:13:44Z",
  "class_index": 0,
  "class_name": "not_out",
  "is_out": false,
  "confidence": {
    "not_out": 0.9917894601821899,
    "full": 0.0036750074941664934,
    "partial": 0.004535555839538574
  },
  "weather": {
    "station": "KSEA",
    "visibility_sm": 10.0,
    "ceiling_ft": 3700.0,
    "raw": "KSEA 172053Z VRB04KT 10SM SCT029 BKN037 BKN060 14/07 A3032 RMK AO2 SLP274 T01440067 50003 $"
  },
  "webcam_url": "https://atmos.uw.edu/data/images/webcam2_latest.jpg",
  "model_version": "latest"
}
