{
  "timestamp_utc": "2026-05-22T19:01:48Z",
  "class_index": 1,
  "class_name": "full",
  "is_out": true,
  "confidence": {
    "not_out": 0.006468471139669418,
    "full": 0.9625823497772217,
    "partial": 0.030949125066399574
  },
  "weather": {
    "station": "KSEA",
    "visibility_sm": 10.0,
    "ceiling_ft": null,
    "raw": "KSEA 221853Z 26008KT 10SM FEW060 FEW100 SCT230 20/09 A2995 RMK AO2 SLP147 T02000089"
  },
  "webcam_url": "https://atmos.uw.edu/data/images/webcam2_latest.jpg",
  "model_version": "latest"
}
