{
  "timestamp_utc": "2026-05-16T12:31:12Z",
  "class_index": 0,
  "class_name": "not_out",
  "is_out": false,
  "confidence": {
    "not_out": 0.9996103644371033,
    "full": 0.000023440512450179085,
    "partial": 0.00036617438308894634
  },
  "weather": {
    "station": "KSEA",
    "visibility_sm": 10.0,
    "ceiling_ft": 1300.0,
    "raw": "KSEA 161215Z 19010KT 10SM BKN013 BKN020 BKN080 07/05 A3008 RMK AO2 BKN013 V SCT T00720050"
  },
  "webcam_url": "https://atmos.uw.edu/data/images/webcam2_latest.jpg",
  "model_version": "latest"
}
