{
  "timestamp_utc": "2026-05-18T15:51:24Z",
  "class_index": 0,
  "class_name": "not_out",
  "is_out": false,
  "confidence": {
    "not_out": 0.5248454809188843,
    "full": 0.18561653792858124,
    "partial": 0.28953808546066284
  },
  "weather": {
    "station": "KSEA",
    "visibility_sm": 10.0,
    "ceiling_ft": 1200.0,
    "raw": "KSEA 181541Z 00000KT 10SM BKN012 BKN080 BKN200 11/07 A3026 RMK AO2 T01060072"
  },
  "webcam_url": "https://atmos.uw.edu/data/images/webcam2_latest.jpg",
  "model_version": "latest"
}
