{
  "timestamp_utc": "2026-05-05T17:13:38Z",
  "class_index": 0,
  "class_name": "not_out",
  "is_out": false,
  "confidence": {
    "not_out": 0.9975336790084839,
    "full": 0.00002386997039138805,
    "partial": 0.0024423799477517605
  },
  "weather": {
    "station": "KSEA",
    "visibility_sm": 10.0,
    "ceiling_ft": 1300.0,
    "raw": "KSEA 051653Z 23003KT 10SM OVC013 13/10 A3001 RMK AO2 SLP169 T01280100"
  },
  "webcam_url": "https://atmos.uw.edu/data/images/webcam2_latest.jpg",
  "model_version": "latest"
}
