{
  "timestamp_utc": "2026-05-13T10:59:07Z",
  "class_index": 0,
  "class_name": "not_out",
  "is_out": false,
  "confidence": {
    "not_out": 0.9984625577926636,
    "full": 0.0009609521366655827,
    "partial": 0.0005766188260167837
  },
  "weather": {
    "station": "KSEA",
    "visibility_sm": 10.0,
    "ceiling_ft": 11000.0,
    "raw": "KSEA 131053Z 15007KT 10SM FEW075 BKN110 11/09 A2986 RMK AO2 RAE24 SLP115 P0002 T01110094"
  },
  "webcam_url": "https://atmos.uw.edu/data/images/webcam2_latest.jpg",
  "model_version": "latest"
}
