{
  "timestamp_utc": "2026-05-17T16:26:49Z",
  "class_index": 0,
  "class_name": "not_out",
  "is_out": false,
  "confidence": {
    "not_out": 0.9876490235328674,
    "full": 0.000007507859663746785,
    "partial": 0.012343387119472027
  },
  "weather": {
    "station": "KSEA",
    "visibility_sm": 10.0,
    "ceiling_ft": 1100.0,
    "raw": "KSEA 171614Z VRB03KT 10SM BKN011 BKN032 OVC090 08/07 A3030 RMK AO2 T00830067 $"
  },
  "webcam_url": "https://atmos.uw.edu/data/images/webcam2_latest.jpg",
  "model_version": "latest"
}
