{
  "timestamp_utc": "2026-05-03T02:48:53Z",
  "class_index": 2,
  "class_name": "partial",
  "is_out": true,
  "confidence": {
    "not_out": 0.017763346433639526,
    "full": 0.16226686537265778,
    "partial": 0.8199698328971863
  },
  "weather": {
    "station": "KSEA",
    "visibility_sm": 10.0,
    "ceiling_ft": null,
    "raw": "KSEA 030153Z 35011KT 10SM FEW100 FEW250 22/10 A2991 RMK AO2 SLP135 T02170100 $"
  },
  "webcam_url": "https://atmos.uw.edu/data/images/webcam2_latest.jpg",
  "model_version": "latest"
}
