{
  "timestamp_utc": "2026-05-13T21:34:15Z",
  "class_index": 0,
  "class_name": "not_out",
  "is_out": false,
  "confidence": {
    "not_out": 0.995663583278656,
    "full": 0.00003527706940076314,
    "partial": 0.004301184322685003
  },
  "weather": {
    "station": "KSEA",
    "visibility_sm": 10.0,
    "ceiling_ft": 4300.0,
    "raw": "KSEA 132053Z 20014KT 10SM FEW023 BKN043 BKN080 13/07 A3000 RMK AO2 RAB01E35 SLP167 P0000 60001 T01280072 51025"
  },
  "webcam_url": "https://atmos.uw.edu/data/images/webcam2_latest.jpg",
  "model_version": "latest"
}
