{
  "timestamp_utc": "2026-05-19T10:13:54Z",
  "class_index": 0,
  "class_name": "not_out",
  "is_out": false,
  "confidence": {
    "not_out": 0.9983147382736206,
    "full": 0.0010511056752875447,
    "partial": 0.0006342246779240668
  },
  "weather": {
    "station": "KSEA",
    "visibility_sm": 10.0,
    "ceiling_ft": 6000.0,
    "raw": "KSEA 190953Z 22004KT 10SM BKN060 11/09 A3025 RMK AO2 SLP250 T01110089"
  },
  "webcam_url": "https://atmos.uw.edu/data/images/webcam2_latest.jpg",
  "model_version": "latest"
}
