{
  "timestamp_utc": "2026-05-04T04:59:01Z",
  "class_index": 0,
  "class_name": "not_out",
  "is_out": false,
  "confidence": {
    "not_out": 0.9981732368469238,
    "full": 0.0009502895409241319,
    "partial": 0.0008765241946093738
  },
  "weather": {
    "station": "KSEA",
    "visibility_sm": 10.0,
    "ceiling_ft": null,
    "raw": "KSEA 040453Z 03008KT 10SM CLR 22/07 A2982 RMK AO2 SLP100 T02170067 $"
  },
  "webcam_url": "https://atmos.uw.edu/data/images/webcam2_latest.jpg",
  "model_version": "latest"
}
