{
  "timestamp_utc": "2026-05-20T17:56:44Z",
  "class_index": 0,
  "class_name": "not_out",
  "is_out": false,
  "confidence": {
    "not_out": 0.9965453743934631,
    "full": 0.00018560956232249737,
    "partial": 0.0032691217493265867
  },
  "weather": {
    "station": "KSEA",
    "visibility_sm": 10.0,
    "ceiling_ft": 2400.0,
    "raw": "KSEA 201753Z 34005KT 10SM FEW015 BKN024 BKN032 14/09 A3023 RMK AO2 SLP244 T01390089 10139 20100 50000"
  },
  "webcam_url": "https://atmos.uw.edu/data/images/webcam2_latest.jpg",
  "model_version": "latest"
}
