{
  "timestamp_utc": "2026-05-04T17:33:52Z",
  "class_index": 1,
  "class_name": "full",
  "is_out": true,
  "confidence": {
    "not_out": 0.009677485562860966,
    "full": 0.5705188512802124,
    "partial": 0.4198036193847656
  },
  "weather": {
    "station": "KSEA",
    "visibility_sm": 10.0,
    "ceiling_ft": 25000.0,
    "raw": "KSEA 041653Z 18005KT 10SM BKN250 18/09 A2987 RMK AO2 SLP118 T01830094"
  },
  "webcam_url": "https://atmos.uw.edu/data/images/webcam2_latest.jpg",
  "model_version": "latest"
}
