{
  "timestamp_utc": "2026-05-10T15:31:09Z",
  "class_index": 0,
  "class_name": "not_out",
  "is_out": false,
  "confidence": {
    "not_out": 0.9716892838478088,
    "full": 0.000917519093491137,
    "partial": 0.02739323116838932
  },
  "weather": {
    "station": "KSEA",
    "visibility_sm": 10.0,
    "ceiling_ft": 1300.0,
    "raw": "KSEA 101453Z 26005KT 10SM FEW006 BKN013 OVC022 12/10 A3006 RMK AO2 SLP185 T01170100 53006 $"
  },
  "webcam_url": "https://atmos.uw.edu/data/images/webcam2_latest.jpg",
  "model_version": "latest"
}
