{
  "timestamp_utc": "2026-05-10T13:30:21Z",
  "class_index": 0,
  "class_name": "not_out",
  "is_out": false,
  "confidence": {
    "not_out": 0.9071326851844788,
    "full": 0.08984488248825073,
    "partial": 0.0030224246438592672
  },
  "weather": {
    "station": "KSEA",
    "visibility_sm": 10.0,
    "ceiling_ft": 25000.0,
    "raw": "KSEA 101253Z 00000KT 10SM SCT100 SCT150 OVC250 09/08 A3006 RMK AO2 SLP184 T00940083 $"
  },
  "webcam_url": "https://atmos.uw.edu/data/images/webcam2_latest.jpg",
  "model_version": "latest"
}
