{
  "timestamp_utc": "2026-05-20T18:57:18Z",
  "class_index": 0,
  "class_name": "not_out",
  "is_out": false,
  "confidence": {
    "not_out": 0.968217670917511,
    "full": 0.00023550102196168154,
    "partial": 0.031546834856271744
  },
  "weather": {
    "station": "KSEA",
    "visibility_sm": 10.0,
    "ceiling_ft": 3100.0,
    "raw": "KSEA 201853Z 30006KT 10SM SCT024 BKN031 BKN230 15/09 A3023 RMK AO2 SLP243 T01500094"
  },
  "webcam_url": "https://atmos.uw.edu/data/images/webcam2_latest.jpg",
  "model_version": "latest"
}
