{
  "timestamp_utc": "2026-05-06T08:19:37Z",
  "class_index": 0,
  "class_name": "not_out",
  "is_out": false,
  "confidence": {
    "not_out": 0.9993343949317932,
    "full": 0.00034156162291765213,
    "partial": 0.00032402711804024875
  },
  "weather": {
    "station": "KSEA",
    "visibility_sm": 10.0,
    "ceiling_ft": null,
    "raw": "KSEA 060753Z 19007KT 10SM CLR 12/09 A3004 RMK AO2 SLP179 T01170094 401720117"
  },
  "webcam_url": "https://atmos.uw.edu/data/images/webcam2_latest.jpg",
  "model_version": "latest"
}
