{
  "timestamp_utc": "2026-05-15T01:31:06Z",
  "class_index": 0,
  "class_name": "not_out",
  "is_out": false,
  "confidence": {
    "not_out": 0.999474823474884,
    "full": 0.000009513068107480649,
    "partial": 0.0005156676052138209
  },
  "weather": {
    "station": "KSEA",
    "visibility_sm": 10.0,
    "ceiling_ft": 4000.0,
    "raw": "KSEA 150053Z 21015G22KT 10SM FEW030 BKN040 BKN085 13/07 A3012 RMK AO2 SLP205 T01280067 $"
  },
  "webcam_url": "https://atmos.uw.edu/data/images/webcam2_latest.jpg",
  "model_version": "latest"
}
