{
  "timestamp_utc": "2026-05-07T06:28:26Z",
  "class_index": 0,
  "class_name": "not_out",
  "is_out": false,
  "confidence": {
    "not_out": 0.9992682337760925,
    "full": 0.00037764315493404865,
    "partial": 0.0003541117184795439
  },
  "weather": {
    "station": "KSEA",
    "visibility_sm": 4.0,
    "ceiling_ft": 1200.0,
    "raw": "KSEA 070553Z 20007KT 4SM -DZ BR FEW008 OVC012 11/09 A3016 RMK AO2 SLP219 P0000 60000 T01060094 10139 20106 50006 $"
  },
  "webcam_url": "https://atmos.uw.edu/data/images/webcam2_latest.jpg",
  "model_version": "latest"
}
