{
  "timestamp_utc": "2026-05-15T00:30:43Z",
  "class_index": 0,
  "class_name": "not_out",
  "is_out": false,
  "confidence": {
    "not_out": 0.9955947995185852,
    "full": 0.000016832349501783028,
    "partial": 0.004388344008475542
  },
  "weather": {
    "station": "KSEA",
    "visibility_sm": 10.0,
    "ceiling_ft": 4200.0,
    "raw": "KSEA 142353Z 21013KT 10SM FEW030 BKN042 BKN055 13/07 A3012 RMK AO2 RAE2257 SLP207 P0000 60000 T01280067 10167 20117 56002 $"
  },
  "webcam_url": "https://atmos.uw.edu/data/images/webcam2_latest.jpg",
  "model_version": "latest"
}
