{
  "timestamp_utc": "2026-05-05T18:59:21Z",
  "class_index": 0,
  "class_name": "not_out",
  "is_out": false,
  "confidence": {
    "not_out": 0.9893792271614075,
    "full": 0.00008643767068861052,
    "partial": 0.01053432747721672
  },
  "weather": {
    "station": "KSEA",
    "visibility_sm": 10.0,
    "ceiling_ft": 1400.0,
    "raw": "KSEA 051853Z 21009KT 10SM OVC014 14/10 A3002 RMK AO2 SLP173 CIG 013V015 T01390100"
  },
  "webcam_url": "https://atmos.uw.edu/data/images/webcam2_latest.jpg",
  "model_version": "latest"
}
