{
  "timestamp_utc": "2026-05-16T21:19:30Z",
  "class_index": 0,
  "class_name": "not_out",
  "is_out": false,
  "confidence": {
    "not_out": 0.9915834069252014,
    "full": 0.004709910601377487,
    "partial": 0.003706719959154725
  },
  "weather": {
    "station": "KSEA",
    "visibility_sm": 10.0,
    "ceiling_ft": 4500.0,
    "raw": "KSEA 162053Z 36010KT 10SM FEW037 BKN045 BKN065 14/04 A3013 RMK AO2 SLP210 T01440039 56003"
  },
  "webcam_url": "https://atmos.uw.edu/data/images/webcam2_latest.jpg",
  "model_version": "latest"
}
