{
  "timestamp_utc": "2026-05-19T10:44:07Z",
  "class_index": 0,
  "class_name": "not_out",
  "is_out": false,
  "confidence": {
    "not_out": 0.9984756112098694,
    "full": 0.0009450090583413839,
    "partial": 0.0005794383469037712
  },
  "weather": {
    "station": "KSEA",
    "visibility_sm": 10.0,
    "ceiling_ft": 2100.0,
    "raw": "KSEA 191025Z 21003KT 10SM BKN021 11/09 A3025 RMK AO2 T01110089"
  },
  "webcam_url": "https://atmos.uw.edu/data/images/webcam2_latest.jpg",
  "model_version": "latest"
}
