{
  "timestamp_utc": "2026-05-14T20:14:01Z",
  "class_index": 0,
  "class_name": "not_out",
  "is_out": false,
  "confidence": {
    "not_out": 0.99703049659729,
    "full": 0.00048428282025270164,
    "partial": 0.0024851991329342127
  },
  "weather": {
    "station": "KSEA",
    "visibility_sm": 10.0,
    "ceiling_ft": 15000.0,
    "raw": "KSEA 141953Z 21012G19KT 10SM FEW042 SCT060 BKN150 BKN190 16/06 A3013 RMK AO2 SLP208 T01610061 $"
  },
  "webcam_url": "https://atmos.uw.edu/data/images/webcam2_latest.jpg",
  "model_version": "latest"
}
