{
  "timestamp_utc": "2026-05-22T00:24:17Z",
  "class_index": 1,
  "class_name": "full",
  "is_out": true,
  "confidence": {
    "not_out": 0.0081293024122715,
    "full": 0.985081136226654,
    "partial": 0.006789560429751873
  },
  "weather": {
    "station": "KSEA",
    "visibility_sm": 10.0,
    "ceiling_ft": null,
    "raw": "KSEA 212353Z 29009KT 10SM FEW080 FEW230 24/08 A3004 RMK AO2 SLP175 T02390078 10244 20167 56019"
  },
  "webcam_url": "https://atmos.uw.edu/data/images/webcam2_latest.jpg",
  "model_version": "latest"
}
