{
  "timestamp_utc": "2026-05-08T15:56:57Z",
  "class_index": 0,
  "class_name": "not_out",
  "is_out": false,
  "confidence": {
    "not_out": 0.9989816546440125,
    "full": 0.000010662897693691775,
    "partial": 0.0010076365433633327
  },
  "weather": {
    "station": "KSEA",
    "visibility_sm": 10.0,
    "ceiling_ft": 3500.0,
    "raw": "KSEA 081553Z 19010KT 10SM SCT019 BKN035 OVC200 11/06 A3011 RMK AO2 SLP203 T01110056"
  },
  "webcam_url": "https://atmos.uw.edu/data/images/webcam2_latest.jpg",
  "model_version": "latest"
}
