{
  "timestamp_utc": "2026-05-23T08:37:13Z",
  "class_index": 0,
  "class_name": "not_out",
  "is_out": false,
  "confidence": {
    "not_out": 0.998555600643158,
    "full": 0.0008296063169836998,
    "partial": 0.0006148570100776851
  },
  "weather": {
    "station": "KSEA",
    "visibility_sm": 10.0,
    "ceiling_ft": null,
    "raw": "KSEA 230753Z 00000KT 10SM CLR 13/10 A2986 RMK AO2 SLP117 T01330100 402500106"
  },
  "webcam_url": "https://atmos.uw.edu/data/images/webcam2_latest.jpg",
  "model_version": "latest"
}
