{
  "timestamp_utc": "2026-05-16T11:45:54Z",
  "class_index": 0,
  "class_name": "not_out",
  "is_out": false,
  "confidence": {
    "not_out": 0.9989156723022461,
    "full": 0.0005389704019762576,
    "partial": 0.0005453553167171776
  },
  "weather": {
    "station": "KSEA",
    "visibility_sm": 10.0,
    "ceiling_ft": 10000.0,
    "raw": "KSEA 161053Z 19011KT 10SM SCT011 BKN100 07/06 A3007 RMK AO2 SLP191 T00670056"
  },
  "webcam_url": "https://atmos.uw.edu/data/images/webcam2_latest.jpg",
  "model_version": "latest"
}
