{
  "timestamp_utc": "2026-05-04T05:59:23Z",
  "class_index": 0,
  "class_name": "not_out",
  "is_out": false,
  "confidence": {
    "not_out": 0.9990403056144714,
    "full": 0.0005384375108405948,
    "partial": 0.0004212097264826298
  },
  "weather": {
    "station": "KSEA",
    "visibility_sm": 10.0,
    "ceiling_ft": null,
    "raw": "KSEA 040553Z 04008KT 10SM CLR 21/07 A2981 RMK AO2 SLP100 T02060072 10267 20206 50002 $"
  },
  "webcam_url": "https://atmos.uw.edu/data/images/webcam2_latest.jpg",
  "model_version": "latest"
}
