{
  "timestamp_utc": "2026-05-03T04:19:29Z",
  "class_index": 0,
  "class_name": "not_out",
  "is_out": false,
  "confidence": {
    "not_out": 0.9996525049209595,
    "full": 0.00016167803551070392,
    "partial": 0.00018582993652671576
  },
  "weather": {
    "station": "KSEA",
    "visibility_sm": 10.0,
    "ceiling_ft": null,
    "raw": "KSEA 030353Z 35006KT 10SM CLR 19/09 A2994 RMK AO2 SLP142 T01890089 $"
  },
  "webcam_url": "https://atmos.uw.edu/data/images/webcam2_latest.jpg",
  "model_version": "latest"
}
