{
  "timestamp_utc": "2026-05-14T00:50:49Z",
  "class_index": 0,
  "class_name": "not_out",
  "is_out": false,
  "confidence": {
    "not_out": 0.9976723790168762,
    "full": 0.000011934077519981656,
    "partial": 0.0023157396353781223
  },
  "weather": {
    "station": "KSEA",
    "visibility_sm": 10.0,
    "ceiling_ft": 2400.0,
    "raw": "KSEA 132353Z 22018G26KT 10SM SCT017 BKN024 BKN110 13/09 A3006 RMK AO2 PK WND 22038/2326 SLP187 60001 T01330089 10144 20106 53020"
  },
  "webcam_url": "https://atmos.uw.edu/data/images/webcam2_latest.jpg",
  "model_version": "latest"
}
