{
  "timestamp_utc": "2026-05-17T23:29:37Z",
  "class_index": 0,
  "class_name": "not_out",
  "is_out": false,
  "confidence": {
    "not_out": 0.8956433534622192,
    "full": 0.09809814393520355,
    "partial": 0.006258444394916296
  },
  "weather": {
    "station": "KSEA",
    "visibility_sm": 10.0,
    "ceiling_ft": null,
    "raw": "KSEA 172253Z 24005KT 10SM SCT043 15/06 A3030 RMK AO2 SLP267 T01500061 $"
  },
  "webcam_url": "https://atmos.uw.edu/data/images/webcam2_latest.jpg",
  "model_version": "latest"
}
