{
  "timestamp_utc": "2026-05-19T14:45:47Z",
  "class_index": 0,
  "class_name": "not_out",
  "is_out": false,
  "confidence": {
    "not_out": 0.9997773766517639,
    "full": 0.000029220531359896995,
    "partial": 0.00019342024461366236
  },
  "weather": {
    "station": "KSEA",
    "visibility_sm": 10.0,
    "ceiling_ft": 1500.0,
    "raw": "KSEA 191353Z 20006KT 10SM BKN015 OVC060 11/08 A3026 RMK AO2 SLP251 CIG 012V018 T01110083"
  },
  "webcam_url": "https://atmos.uw.edu/data/images/webcam2_latest.jpg",
  "model_version": "latest"
}
