{
  "timestamp_utc": "2026-05-16T05:13:23Z",
  "class_index": 0,
  "class_name": "not_out",
  "is_out": false,
  "confidence": {
    "not_out": 0.9984263181686401,
    "full": 0.001210840418934822,
    "partial": 0.00036290136631578207
  },
  "weather": {
    "station": "KSEA",
    "visibility_sm": 10.0,
    "ceiling_ft": 9000.0,
    "raw": "KSEA 160453Z 17011KT 10SM FEW018 SCT037 BKN090 08/06 A3006 RMK AO2 SLP187 T00780061"
  },
  "webcam_url": "https://atmos.uw.edu/data/images/webcam2_latest.jpg",
  "model_version": "latest"
}
