{
  "timestamp_utc": "2026-05-04T23:21:15Z",
  "class_index": 1,
  "class_name": "full",
  "is_out": true,
  "confidence": {
    "not_out": 0.06284632533788681,
    "full": 0.8666372895240784,
    "partial": 0.07051637023687363
  },
  "weather": {
    "station": "KSEA",
    "visibility_sm": 10.0,
    "ceiling_ft": null,
    "raw": "KSEA 042253Z VRB06KT 10SM FEW040 FEW250 25/10 A2984 RMK AO2 SLP107 T02500100"
  },
  "webcam_url": "https://atmos.uw.edu/data/images/webcam2_latest.jpg",
  "model_version": "latest"
}
