{
  "timestamp_utc": "2026-04-25T13:39:34Z",
  "class_index": 2,
  "class_name": "partial",
  "is_out": true,
  "confidence": {
    "not_out": 0.0019098344491794705,
    "full": 0.0572226457297802,
    "partial": 0.9408674836158752
  },
  "weather": {
    "station": "KSEA",
    "visibility_sm": 10.0,
    "ceiling_ft": null,
    "raw": "KSEA 251253Z 00000KT 10SM FEW120 06/01 A2994 RMK AO2 SLP145 T00610006"
  },
  "webcam_url": "https://atmos.uw.edu/data/images/webcam2_latest.jpg",
  "model_version": "b3fa731"
}
