{
  "timestamp_utc": "2026-05-04T19:19:41Z",
  "class_index": 2,
  "class_name": "partial",
  "is_out": true,
  "confidence": {
    "not_out": 0.05599784851074219,
    "full": 0.4462859332561493,
    "partial": 0.49771618843078613
  },
  "weather": {
    "station": "KSEA",
    "visibility_sm": 10.0,
    "ceiling_ft": 25000.0,
    "raw": "KSEA 041853Z 19009KT 10SM BKN250 21/11 A2987 RMK AO2 SLP119 T02060106"
  },
  "webcam_url": "https://atmos.uw.edu/data/images/webcam2_latest.jpg",
  "model_version": "latest"
}
