{
  "timestamp_utc": "2026-05-09T11:19:50Z",
  "class_index": 0,
  "class_name": "not_out",
  "is_out": false,
  "confidence": {
    "not_out": 0.9889740943908691,
    "full": 0.0014382620574906468,
    "partial": 0.009587576612830162
  },
  "weather": {
    "station": "KSEA",
    "visibility_sm": 10.0,
    "ceiling_ft": null,
    "raw": "KSEA 091053Z 00000KT 10SM FEW027 11/09 A3021 RMK AO2 SLP235 T01060089"
  },
  "webcam_url": "https://atmos.uw.edu/data/images/webcam2_latest.jpg",
  "model_version": "latest"
}
