{
  "timestamp_utc": "2026-05-10T16:16:27Z",
  "class_index": 0,
  "class_name": "not_out",
  "is_out": false,
  "confidence": {
    "not_out": 0.9438994526863098,
    "full": 0.010876977816224098,
    "partial": 0.04522351175546646
  },
  "weather": {
    "station": "KSEA",
    "visibility_sm": 10.0,
    "ceiling_ft": 1000.0,
    "raw": "KSEA 101553Z 28005KT 10SM BKN010 OVC020 12/09 A3007 RMK AO2 SLP189 T01170094 $"
  },
  "webcam_url": "https://atmos.uw.edu/data/images/webcam2_latest.jpg",
  "model_version": "latest"
}
