{
  "timestamp_utc": "2026-05-07T19:33:38Z",
  "class_index": 0,
  "class_name": "not_out",
  "is_out": false,
  "confidence": {
    "not_out": 0.8964649438858032,
    "full": 0.0005151974619366229,
    "partial": 0.10301985591650009
  },
  "weather": {
    "station": "KSEA",
    "visibility_sm": 10.0,
    "ceiling_ft": 3000.0,
    "raw": "KSEA 071853Z VRB04KT 10SM FEW024 BKN030 BKN200 14/06 A3013 RMK AO2 SLP209 T01390061 $"
  },
  "webcam_url": "https://atmos.uw.edu/data/images/webcam2_latest.jpg",
  "model_version": "latest"
}
