{
  "timestamp_utc": "2026-04-23T04:24:07Z",
  "class_index": 0,
  "class_name": "not_out",
  "is_out": false,
  "confidence": {
    "not_out": 0.9994981288909912,
    "full": 0.0002755880996119231,
    "partial": 0.00022631176398135722
  },
  "weather": {
    "station": "KSEA",
    "visibility_sm": 10.0,
    "ceiling_ft": 2600.0,
    "raw": "KSEA 230353Z 20012KT 10SM OVC026 11/07 A3010 RMK AO2 SLP198 T01060067"
  },
  "webcam_url": "https://atmos.uw.edu/data/images/webcam2_latest.jpg",
  "model_version": "1f97931"
}
