{
  "timestamp_utc": "2026-05-12T06:17:05Z",
  "class_index": 0,
  "class_name": "not_out",
  "is_out": false,
  "confidence": {
    "not_out": 0.9979903697967529,
    "full": 0.0011722422204911709,
    "partial": 0.0008374163298867643
  },
  "weather": {
    "station": "KSEA",
    "visibility_sm": 10.0,
    "ceiling_ft": null,
    "raw": "KSEA 120553Z 36010KT 10SM FEW250 16/07 A3003 RMK AO2 SLP175 T01560072 10217 20156 58003"
  },
  "webcam_url": "https://atmos.uw.edu/data/images/webcam2_latest.jpg",
  "model_version": "latest"
}
