{
  "timestamp_utc": "2026-05-16T20:19:07Z",
  "class_index": 0,
  "class_name": "not_out",
  "is_out": false,
  "confidence": {
    "not_out": 0.9964171648025513,
    "full": 0.0021328842267394066,
    "partial": 0.0014499372337013483
  },
  "weather": {
    "station": "KSEA",
    "visibility_sm": 10.0,
    "ceiling_ft": null,
    "raw": "KSEA 161953Z VRB05KT 10SM FEW024 SCT035 13/04 A3013 RMK AO2 SLP211 T01330044"
  },
  "webcam_url": "https://atmos.uw.edu/data/images/webcam2_latest.jpg",
  "model_version": "latest"
}
