{
  "timestamp_utc": "2026-05-14T16:27:28Z",
  "class_index": 0,
  "class_name": "not_out",
  "is_out": false,
  "confidence": {
    "not_out": 0.9938454031944275,
    "full": 0.000004206173343845876,
    "partial": 0.006150262895971537
  },
  "weather": {
    "station": "KSEA",
    "visibility_sm": 10.0,
    "ceiling_ft": null,
    "raw": "KSEA 141553Z 17010G20KT 10SM FEW018 SCT024 SCT200 13/07 A3015 RMK AO2 SLP217 T01280072 $"
  },
  "webcam_url": "https://atmos.uw.edu/data/images/webcam2_latest.jpg",
  "model_version": "latest"
}
