{
  "timestamp_utc": "2026-05-19T15:15:59Z",
  "class_index": 0,
  "class_name": "not_out",
  "is_out": false,
  "confidence": {
    "not_out": 0.9997097849845886,
    "full": 0.000004255166459188331,
    "partial": 0.00028593215392902493
  },
  "weather": {
    "station": "KSEA",
    "visibility_sm": 10.0,
    "ceiling_ft": 1200.0,
    "raw": "KSEA 191510Z 17006KT 10SM BKN012 OVC016 11/08 A3027 RMK AO2 T01110078"
  },
  "webcam_url": "https://atmos.uw.edu/data/images/webcam2_latest.jpg",
  "model_version": "latest"
}
