{
  "timestamp_utc": "2026-05-09T06:02:44Z",
  "class_index": 0,
  "class_name": "not_out",
  "is_out": false,
  "confidence": {
    "not_out": 0.9966176152229309,
    "full": 0.0011601399164646864,
    "partial": 0.002222304465249181
  },
  "weather": {
    "station": "KSEA",
    "visibility_sm": 10.0,
    "ceiling_ft": null,
    "raw": "KSEA 090553Z 20006KT 10SM FEW035 FEW075 12/08 A3021 RMK AO2 SLP235 T01170078 10167 20111 51012"
  },
  "webcam_url": "https://atmos.uw.edu/data/images/webcam2_latest.jpg",
  "model_version": "latest"
}
