{
  "timestamp_utc": "2026-05-05T08:25:07Z",
  "class_index": 0,
  "class_name": "not_out",
  "is_out": false,
  "confidence": {
    "not_out": 0.9993149042129517,
    "full": 0.000336230150423944,
    "partial": 0.00034893304109573364
  },
  "weather": {
    "station": "KSEA",
    "visibility_sm": 10.0,
    "ceiling_ft": null,
    "raw": "KSEA 050753Z 20007KT 10SM CLR 12/10 A2992 RMK AO2 SLP136 T01220100 402500117"
  },
  "webcam_url": "https://atmos.uw.edu/data/images/webcam2_latest.jpg",
  "model_version": "latest"
}
