{
  "timestamp_utc": "2026-04-23T08:18:58Z",
  "class_index": 0,
  "class_name": "not_out",
  "is_out": false,
  "confidence": {
    "not_out": 0.9994004964828491,
    "full": 0.00033677404280751944,
    "partial": 0.00026269067893736064
  },
  "weather": {
    "station": "KSEA",
    "visibility_sm": 10.0,
    "ceiling_ft": 4600.0,
    "raw": "KSEA 230753Z 19009KT 10SM OVC046 09/05 A3017 RMK AO2 SLP225 T00890050 401110089"
  },
  "webcam_url": "https://atmos.uw.edu/data/images/webcam2_latest.jpg",
  "model_version": "a999d36"
}
