{
  "timestamp_utc": "2026-05-13T08:43:10Z",
  "class_index": 0,
  "class_name": "not_out",
  "is_out": false,
  "confidence": {
    "not_out": 0.9989159107208252,
    "full": 0.0006334504578262568,
    "partial": 0.0004505771503318101
  },
  "weather": {
    "station": "KSEA",
    "visibility_sm": 10.0,
    "ceiling_ft": 10000.0,
    "raw": "KSEA 130753Z 20007KT 10SM -RA SCT075 BKN100 BKN120 13/08 A2987 RMK AO2 RAB29 SLP118 P0001 T01280083 402780111"
  },
  "webcam_url": "https://atmos.uw.edu/data/images/webcam2_latest.jpg",
  "model_version": "latest"
}
