{
  "timestamp_utc": "2026-05-19T08:58:23Z",
  "class_index": 0,
  "class_name": "not_out",
  "is_out": false,
  "confidence": {
    "not_out": 0.9981207251548767,
    "full": 0.0010720103746280074,
    "partial": 0.0008071946213021874
  },
  "weather": {
    "station": "KSEA",
    "visibility_sm": 10.0,
    "ceiling_ft": 2300.0,
    "raw": "KSEA 190853Z 24003KT 10SM BKN023 OVC060 12/09 A3025 RMK AO2 SLP250 T01170089 50004"
  },
  "webcam_url": "https://atmos.uw.edu/data/images/webcam2_latest.jpg",
  "model_version": "latest"
}
