{
  "timestamp_utc": "2026-05-12T23:24:19Z",
  "class_index": 1,
  "class_name": "full",
  "is_out": true,
  "confidence": {
    "not_out": 0.06273495405912399,
    "full": 0.9182749390602112,
    "partial": 0.01899007149040699
  },
  "weather": {
    "station": "KSEA",
    "visibility_sm": 10.0,
    "ceiling_ft": 20000.0,
    "raw": "KSEA 122253Z 21012KT 10SM FEW060 SCT120 BKN200 BKN250 27/06 A2981 RMK AO2 SLP097 T02720061"
  },
  "webcam_url": "https://atmos.uw.edu/data/images/webcam2_latest.jpg",
  "model_version": "latest"
}
