{
  "timestamp_utc": "2026-05-09T00:45:37Z",
  "class_index": 1,
  "class_name": "full",
  "is_out": true,
  "confidence": {
    "not_out": 0.056682709604501724,
    "full": 0.9312419295310974,
    "partial": 0.012075313366949558
  },
  "weather": {
    "station": "KSEA",
    "visibility_sm": 10.0,
    "ceiling_ft": null,
    "raw": "KSEA 082353Z 23007G16KT 10SM SCT045 SCT095 16/06 A3018 RMK AO2 SLP225 T01560056 10167 20117 51002"
  },
  "webcam_url": "https://atmos.uw.edu/data/images/webcam2_latest.jpg",
  "model_version": "latest"
}
