{
  "timestamp_utc": "2026-05-23T11:23:19Z",
  "class_index": 0,
  "class_name": "not_out",
  "is_out": false,
  "confidence": {
    "not_out": 0.9979283809661865,
    "full": 0.0012460555881261826,
    "partial": 0.0008256568107753992
  },
  "weather": {
    "station": "KSEA",
    "visibility_sm": 10.0,
    "ceiling_ft": 400.0,
    "raw": "KSEA 231111Z 21008KT 10SM BKN004 BKN009 11/10 A2990 RMK AO2 T01110100"
  },
  "webcam_url": "https://atmos.uw.edu/data/images/webcam2_latest.jpg",
  "model_version": "latest"
}
