{
  "timestamp_utc": "2026-05-21T05:46:34Z",
  "class_index": 0,
  "class_name": "not_out",
  "is_out": false,
  "confidence": {
    "not_out": 0.9983949065208435,
    "full": 0.0011088912142440677,
    "partial": 0.0004961333470419049
  },
  "weather": {
    "station": "KSEA",
    "visibility_sm": 10.0,
    "ceiling_ft": 23000.0,
    "raw": "KSEA 210453Z 36007KT 10SM BKN230 15/07 A3016 RMK AO2 SLP220 T01500067"
  },
  "webcam_url": "https://atmos.uw.edu/data/images/webcam2_latest.jpg",
  "model_version": "latest"
}
