{
  "timestamp_utc": "2026-05-06T11:35:59Z",
  "class_index": 0,
  "class_name": "not_out",
  "is_out": false,
  "confidence": {
    "not_out": 0.9991567134857178,
    "full": 0.00045165777555666864,
    "partial": 0.00039166194619610906
  },
  "weather": {
    "station": "KSEA",
    "visibility_sm": 10.0,
    "ceiling_ft": 1200.0,
    "raw": "KSEA 061053Z 20006KT 10SM OVC012 11/09 A3007 RMK AO2 SLP190 T01110094"
  },
  "webcam_url": "https://atmos.uw.edu/data/images/webcam2_latest.jpg",
  "model_version": "latest"
}
