{
  "timestamp_utc": "2026-05-09T23:39:51Z",
  "class_index": 0,
  "class_name": "not_out",
  "is_out": false,
  "confidence": {
    "not_out": 0.961137592792511,
    "full": 0.02798493206501007,
    "partial": 0.01087748073041439
  },
  "weather": {
    "station": "KSEA",
    "visibility_sm": 10.0,
    "ceiling_ft": 23000.0,
    "raw": "KSEA 092253Z 33007KT 10SM BKN230 20/07 A3009 RMK AO2 SLP194 T02000067"
  },
  "webcam_url": "https://atmos.uw.edu/data/images/webcam2_latest.jpg",
  "model_version": "latest"
}
