{
  "timestamp_utc": "2026-05-12T11:19:09Z",
  "class_index": 0,
  "class_name": "not_out",
  "is_out": false,
  "confidence": {
    "not_out": 0.9978440999984741,
    "full": 0.0013702239375561476,
    "partial": 0.0007857379387132823
  },
  "weather": {
    "station": "KSEA",
    "visibility_sm": 10.0,
    "ceiling_ft": null,
    "raw": "KSEA 121053Z 36006KT 10SM SCT250 12/08 A2995 RMK AO2 SLP148 T01170078 $"
  },
  "webcam_url": "https://atmos.uw.edu/data/images/webcam2_latest.jpg",
  "model_version": "latest"
}
