{
  "timestamp_utc": "2026-05-17T04:37:15Z",
  "class_index": 0,
  "class_name": "not_out",
  "is_out": false,
  "confidence": {
    "not_out": 0.9971652626991272,
    "full": 0.0018518813885748386,
    "partial": 0.0009828610345721245
  },
  "weather": {
    "station": "KSEA",
    "visibility_sm": 10.0,
    "ceiling_ft": 5500.0,
    "raw": "KSEA 170353Z 19007KT 10SM SCT045 BKN055 BKN120 08/06 A3018 RMK AO2 SLP226 T00830061"
  },
  "webcam_url": "https://atmos.uw.edu/data/images/webcam2_latest.jpg",
  "model_version": "latest"
}
