{
  "timestamp_utc": "2026-05-11T03:05:48Z",
  "class_index": 0,
  "class_name": "not_out",
  "is_out": false,
  "confidence": {
    "not_out": 0.9914264678955078,
    "full": 0.0027169138193130493,
    "partial": 0.005856635980308056
  },
  "weather": {
    "station": "KSEA",
    "visibility_sm": 10.0,
    "ceiling_ft": 7000.0,
    "raw": "KSEA 110253Z 27006KT 10SM FEW041 BKN070 BKN085 16/08 A3014 RMK AO2 SLP211 T01560083 53002 $"
  },
  "webcam_url": "https://atmos.uw.edu/data/images/webcam2_latest.jpg",
  "model_version": "latest"
}
