{
  "timestamp_utc": "2026-05-03T07:20:39Z",
  "class_index": 0,
  "class_name": "not_out",
  "is_out": false,
  "confidence": {
    "not_out": 0.9983768463134766,
    "full": 0.0009720769594423473,
    "partial": 0.0006509870872832835
  },
  "weather": {
    "station": "KSEA",
    "visibility_sm": 10.0,
    "ceiling_ft": null,
    "raw": "KSEA 030653Z 02008KT 10SM CLR 18/06 A2996 RMK AO2 SLP148 T01830056 $"
  },
  "webcam_url": "https://atmos.uw.edu/data/images/webcam2_latest.jpg",
  "model_version": "latest"
}
