{
  "timestamp_utc": "2026-05-07T14:16:30Z",
  "class_index": 0,
  "class_name": "not_out",
  "is_out": false,
  "confidence": {
    "not_out": 0.9730916023254395,
    "full": 0.0234523955732584,
    "partial": 0.003456050530076027
  },
  "weather": {
    "station": "KSEA",
    "visibility_sm": 10.0,
    "ceiling_ft": 3300.0,
    "raw": "KSEA 071353Z 20006KT 10SM FEW022 BKN033 11/07 A3014 RMK AO2 SLP213 T01060072 $"
  },
  "webcam_url": "https://atmos.uw.edu/data/images/webcam2_latest.jpg",
  "model_version": "latest"
}
