{
  "timestamp_utc": "2026-05-08T19:58:36Z",
  "class_index": 0,
  "class_name": "not_out",
  "is_out": false,
  "confidence": {
    "not_out": 0.8617885112762451,
    "full": 0.0005100347916595638,
    "partial": 0.13770145177841187
  },
  "weather": {
    "station": "KSEA",
    "visibility_sm": 10.0,
    "ceiling_ft": 14000.0,
    "raw": "KSEA 081953Z 21013G20KT 10SM SCT032 BKN140 14/05 A3016 RMK AO2 SLP221 T01390050"
  },
  "webcam_url": "https://atmos.uw.edu/data/images/webcam2_latest.jpg",
  "model_version": "latest"
}
