{
  "timestamp_utc": "2026-05-13T22:49:45Z",
  "class_index": 0,
  "class_name": "not_out",
  "is_out": false,
  "confidence": {
    "not_out": 0.9930847883224487,
    "full": 0.000132637083879672,
    "partial": 0.0067826686426997185
  },
  "weather": {
    "station": "KSEA",
    "visibility_sm": 10.0,
    "ceiling_ft": 6500.0,
    "raw": "KSEA 132246Z 20019G30KT 10SM SCT022 OVC065 13/10 A3002 RMK AO2 PK WND 21030/2154 T01330100"
  },
  "webcam_url": "https://atmos.uw.edu/data/images/webcam2_latest.jpg",
  "model_version": "latest"
}
