{
  "timestamp_utc": "2026-05-04T11:16:21Z",
  "class_index": 0,
  "class_name": "not_out",
  "is_out": false,
  "confidence": {
    "not_out": 0.9993078708648682,
    "full": 0.0003588013642001897,
    "partial": 0.0003333250351715833
  },
  "weather": {
    "station": "KSEA",
    "visibility_sm": 10.0,
    "ceiling_ft": null,
    "raw": "KSEA 041053Z 00000KT 10SM FEW250 15/08 A2982 RMK AO2 SLP102 T01500083 $"
  },
  "webcam_url": "https://atmos.uw.edu/data/images/webcam2_latest.jpg",
  "model_version": "latest"
}
