{
  "timestamp_utc": "2026-05-17T00:20:39Z",
  "class_index": 0,
  "class_name": "not_out",
  "is_out": false,
  "confidence": {
    "not_out": 0.9822982549667358,
    "full": 0.000028861944883828983,
    "partial": 0.017672887071967125
  },
  "weather": {
    "station": "KSEA",
    "visibility_sm": 10.0,
    "ceiling_ft": 4500.0,
    "raw": "KSEA 162353Z 30011KT 10SM SCT035 BKN045 BKN055 12/04 A3015 RMK AO2 LTG DSNT SE-SW RAE2255 SLP217 P0000 60000 T01170044 10150 20100 53006"
  },
  "webcam_url": "https://atmos.uw.edu/data/images/webcam2_latest.jpg",
  "model_version": "latest"
}
