{
  "timestamp_utc": "2026-05-08T15:26:45Z",
  "class_index": 0,
  "class_name": "not_out",
  "is_out": false,
  "confidence": {
    "not_out": 0.9948363304138184,
    "full": 0.000022630081730312668,
    "partial": 0.0051410011947155
  },
  "weather": {
    "station": "KSEA",
    "visibility_sm": 10.0,
    "ceiling_ft": 10000.0,
    "raw": "KSEA 081453Z 19009KT 10SM FEW015 SCT027 BKN100 BKN210 10/06 A3011 RMK AO2 SLP203 T01000061 53022"
  },
  "webcam_url": "https://atmos.uw.edu/data/images/webcam2_latest.jpg",
  "model_version": "latest"
}
