{
  "timestamp_utc": "2026-05-22T22:48:19Z",
  "class_index": 1,
  "class_name": "full",
  "is_out": true,
  "confidence": {
    "not_out": 0.009085440076887608,
    "full": 0.9507105946540833,
    "partial": 0.04020391032099724
  },
  "weather": {
    "station": "KSEA",
    "visibility_sm": 10.0,
    "ceiling_ft": 25000.0,
    "raw": "KSEA 222153Z 25007KT 10SM FEW060 FEW100 BKN250 24/09 A2990 RMK AO2 SLP129 T02390089"
  },
  "webcam_url": "https://atmos.uw.edu/data/images/webcam2_latest.jpg",
  "model_version": "latest"
}
