{
  "timestamp_utc": "2026-05-10T18:02:09Z",
  "class_index": 0,
  "class_name": "not_out",
  "is_out": false,
  "confidence": {
    "not_out": 0.9948499798774719,
    "full": 0.00016894021246116608,
    "partial": 0.004980950150638819
  },
  "weather": {
    "station": "KSEA",
    "visibility_sm": 10.0,
    "ceiling_ft": 3300.0,
    "raw": "KSEA 101753Z 19005KT 10SM SCT011 SCT023 BKN033 13/10 A3009 RMK AO2 SLP195 T01330100 10133 20089 50009 $"
  },
  "webcam_url": "https://atmos.uw.edu/data/images/webcam2_latest.jpg",
  "model_version": "latest"
}
