{
  "timestamp_utc": "2026-05-17T05:22:31Z",
  "class_index": 0,
  "class_name": "not_out",
  "is_out": false,
  "confidence": {
    "not_out": 0.9977249503135681,
    "full": 0.0015090281376615167,
    "partial": 0.0007659454713575542
  },
  "weather": {
    "station": "KSEA",
    "visibility_sm": 10.0,
    "ceiling_ft": 12000.0,
    "raw": "KSEA 170453Z 15006KT 10SM FEW035 SCT050 BKN120 08/06 A3020 RMK AO2 SLP233 T00780061"
  },
  "webcam_url": "https://atmos.uw.edu/data/images/webcam2_latest.jpg",
  "model_version": "latest"
}
