{
  "timestamp_utc": "2026-04-20T13:24:23Z",
  "class_index": 0,
  "class_name": "not_out",
  "is_out": false,
  "confidence": {
    "not_out": 0.9557943940162659,
    "full": 0.0006860085413791239,
    "partial": 0.04351956769824028
  },
  "weather": {
    "station": "KSEA",
    "visibility_sm": 10.0,
    "ceiling_ft": 19000.0,
    "raw": "KSEA 201253Z 01009KT 10SM SCT140 BKN190 BKN230 13/04 A2980 RMK AO2 SLP095 T01280044 $"
  },
  "webcam_url": "https://atmos.uw.edu/data/images/webcam2_latest.jpg",
  "model_version": "d446891"
}
