{
  "timestamp_utc": "2026-04-20T17:35:54Z",
  "class_index": 0,
  "class_name": "not_out",
  "is_out": false,
  "confidence": {
    "not_out": 0.9349183440208435,
    "full": 0.03680362552404404,
    "partial": 0.028277989476919174
  },
  "weather": {
    "station": "KSEA",
    "visibility_sm": 10.0,
    "ceiling_ft": 23000.0,
    "raw": "KSEA 201653Z 04005KT 10SM FEW130 SCT150 BKN230 14/06 A2980 RMK AO2 SLP097 T01440061"
  },
  "webcam_url": "https://atmos.uw.edu/data/images/webcam2_latest.jpg",
  "model_version": "f4efb1b"
}
