{
  "timestamp_utc": "2026-05-17T10:54:35Z",
  "class_index": 0,
  "class_name": "not_out",
  "is_out": false,
  "confidence": {
    "not_out": 0.9979988932609558,
    "full": 0.001200826489366591,
    "partial": 0.0008003464317880571
  },
  "weather": {
    "station": "KSEA",
    "visibility_sm": 10.0,
    "ceiling_ft": null,
    "raw": "KSEA 170953Z 15004KT 10SM SCT080 SCT200 06/04 A3023 RMK AO2 SLP243 T00560044 $"
  },
  "webcam_url": "https://atmos.uw.edu/data/images/webcam2_latest.jpg",
  "model_version": "latest"
}
