{
  "timestamp_utc": "2026-05-21T20:07:29Z",
  "class_index": 0,
  "class_name": "not_out",
  "is_out": false,
  "confidence": {
    "not_out": 0.6040964722633362,
    "full": 0.33192309737205505,
    "partial": 0.06398048251867294
  },
  "weather": {
    "station": "KSEA",
    "visibility_sm": 10.0,
    "ceiling_ft": 25000.0,
    "raw": "KSEA 211953Z 28007KT 10SM FEW100 SCT210 BKN250 21/09 A3011 RMK AO2 SLP201 T02060089"
  },
  "webcam_url": "https://atmos.uw.edu/data/images/webcam2_latest.jpg",
  "model_version": "latest"
}
