{
  "timestamp_utc": "2026-05-05T20:14:52Z",
  "class_index": 0,
  "class_name": "not_out",
  "is_out": false,
  "confidence": {
    "not_out": 0.9979594945907593,
    "full": 0.000016345582480425946,
    "partial": 0.002024150686338544
  },
  "weather": {
    "station": "KSEA",
    "visibility_sm": 10.0,
    "ceiling_ft": 1600.0,
    "raw": "KSEA 051953Z 23006KT 10SM BKN016 OVC020 14/10 A3003 RMK AO2 SLP174 T01390100"
  },
  "webcam_url": "https://atmos.uw.edu/data/images/webcam2_latest.jpg",
  "model_version": "latest"
}
