{
  "timestamp_utc": "2026-05-16T10:15:20Z",
  "class_index": 0,
  "class_name": "not_out",
  "is_out": false,
  "confidence": {
    "not_out": 0.9987205862998962,
    "full": 0.0009184346999973059,
    "partial": 0.0003609866835176945
  },
  "weather": {
    "station": "KSEA",
    "visibility_sm": 10.0,
    "ceiling_ft": 1500.0,
    "raw": "KSEA 160953Z 18013G21KT 10SM BKN015 BKN070 BKN110 07/06 A3006 RMK AO2 SLP187 T00720056"
  },
  "webcam_url": "https://atmos.uw.edu/data/images/webcam2_latest.jpg",
  "model_version": "latest"
}
