{
  "timestamp_utc": "2026-05-09T13:05:31Z",
  "class_index": 1,
  "class_name": "full",
  "is_out": true,
  "confidence": {
    "not_out": 0.057279329746961594,
    "full": 0.9024685621261597,
    "partial": 0.04025208577513695
  },
  "weather": {
    "station": "KSEA",
    "visibility_sm": 10.0,
    "ceiling_ft": null,
    "raw": "KSEA 091253Z 00000KT 10SM FEW002 FEW025 09/08 A3020 RMK AO2 SLP231 T00940078"
  },
  "webcam_url": "https://atmos.uw.edu/data/images/webcam2_latest.jpg",
  "model_version": "latest"
}
