{
  "timestamp_utc": "2026-04-22T19:39:11Z",
  "class_index": 0,
  "class_name": "not_out",
  "is_out": false,
  "confidence": {
    "not_out": 0.9993705153465271,
    "full": 3.074220103371772e-06,
    "partial": 0.0006264472031034529
  },
  "weather": {
    "station": "KSEA",
    "visibility_sm": 9.0,
    "ceiling_ft": 1000.0,
    "raw": "KSEA 221900Z 21011KT 9SM SCT005 BKN010 OVC014 10/08 A2996 RMK AO2 T01000083"
  },
  "webcam_url": "https://atmos.uw.edu/data/images/webcam2_latest.jpg",
  "model_version": "14864dd"
}
