{
  "timestamp_utc": "2026-05-20T03:51:05Z",
  "class_index": 0,
  "class_name": "not_out",
  "is_out": false,
  "confidence": {
    "not_out": 0.9797425866127014,
    "full": 0.0014919398818165064,
    "partial": 0.018765458837151527
  },
  "weather": {
    "station": "KSEA",
    "visibility_sm": 10.0,
    "ceiling_ft": 6500.0,
    "raw": "KSEA 200253Z 27005KT 10SM FEW050 BKN065 BKN080 15/08 A3020 RMK AO2 SLP234 T01500078 56005"
  },
  "webcam_url": "https://atmos.uw.edu/data/images/webcam2_latest.jpg",
  "model_version": "latest"
}
