{
  "timestamp_utc": "2026-05-06T18:23:41Z",
  "class_index": 0,
  "class_name": "not_out",
  "is_out": false,
  "confidence": {
    "not_out": 0.9994058609008789,
    "full": 0.000002318326551176142,
    "partial": 0.0005918254610151052
  },
  "weather": {
    "station": "KSEA",
    "visibility_sm": 10.0,
    "ceiling_ft": 1000.0,
    "raw": "KSEA 061753Z 20007KT 10SM BKN010 OVC015 12/09 A3013 RMK AO2 SLP210 CIG 008V012 T01170094 10117 20106 52004 $"
  },
  "webcam_url": "https://atmos.uw.edu/data/images/webcam2_latest.jpg",
  "model_version": "latest"
}
