{
  "timestamp_utc": "2026-05-08T23:14:54Z",
  "class_index": 1,
  "class_name": "full",
  "is_out": true,
  "confidence": {
    "not_out": 0.4589380919933319,
    "full": 0.48126766085624695,
    "partial": 0.059794310480356216
  },
  "weather": {
    "station": "KSEA",
    "visibility_sm": 10.0,
    "ceiling_ft": 9000.0,
    "raw": "KSEA 082253Z 22009KT 10SM FEW042 BKN090 16/06 A3017 RMK AO2 SLP224 T01610056"
  },
  "webcam_url": "https://atmos.uw.edu/data/images/webcam2_latest.jpg",
  "model_version": "latest"
}
