{
  "timestamp_utc": "2026-05-22T01:24:44Z",
  "class_index": 1,
  "class_name": "full",
  "is_out": true,
  "confidence": {
    "not_out": 0.0043561868369579315,
    "full": 0.9827746748924255,
    "partial": 0.012869124300777912
  },
  "weather": {
    "station": "KSEA",
    "visibility_sm": 10.0,
    "ceiling_ft": null,
    "raw": "KSEA 220053Z 33008KT 10SM FEW090 24/05 A3003 RMK AO2 SLP172 T02440050"
  },
  "webcam_url": "https://atmos.uw.edu/data/images/webcam2_latest.jpg",
  "model_version": "latest"
}
