{
  "timestamp_utc": "2026-05-22T07:57:20Z",
  "class_index": 0,
  "class_name": "not_out",
  "is_out": false,
  "confidence": {
    "not_out": 0.9984204769134521,
    "full": 0.0012144322972744703,
    "partial": 0.00036506736068986356
  },
  "weather": {
    "station": "KSEA",
    "visibility_sm": 10.0,
    "ceiling_ft": null,
    "raw": "KSEA 220753Z 03011KT 10SM FEW250 16/07 A2999 RMK AO2 SLP160 T01610067 402440094"
  },
  "webcam_url": "https://atmos.uw.edu/data/images/webcam2_latest.jpg",
  "model_version": "latest"
}
