{
  "timestamp_utc": "2026-05-17T01:21:03Z",
  "class_index": 0,
  "class_name": "not_out",
  "is_out": false,
  "confidence": {
    "not_out": 0.9854072332382202,
    "full": 0.0048798732459545135,
    "partial": 0.00971292145550251
  },
  "weather": {
    "station": "KSEA",
    "visibility_sm": 3.0,
    "ceiling_ft": 3500.0,
    "raw": "KSEA 170053Z 30006KT 3SM -RA BR BKN035 BKN045 BKN055 08/06 A3015 RMK AO2 RAB03 SLP218 TCU DSNT N P0006 T00830061"
  },
  "webcam_url": "https://atmos.uw.edu/data/images/webcam2_latest.jpg",
  "model_version": "latest"
}
