{
  "timestamp_utc": "2026-05-11T13:55:19Z",
  "class_index": 1,
  "class_name": "full",
  "is_out": true,
  "confidence": {
    "not_out": 0.006277227308601141,
    "full": 0.9843646883964539,
    "partial": 0.009358095936477184
  },
  "weather": {
    "station": "KSEA",
    "visibility_sm": 10.0,
    "ceiling_ft": null,
    "raw": "KSEA 111253Z 06006KT 10SM FEW020 SCT046 SCT060 11/09 A3022 RMK AO2 SLP240 T01110089 $"
  },
  "webcam_url": "https://atmos.uw.edu/data/images/webcam2_latest.jpg",
  "model_version": "latest"
}
