{
  "timestamp_utc": "2026-05-19T08:43:17Z",
  "class_index": 0,
  "class_name": "not_out",
  "is_out": false,
  "confidence": {
    "not_out": 0.9984690546989441,
    "full": 0.0009479291620664299,
    "partial": 0.0005830081063322723
  },
  "weather": {
    "station": "KSEA",
    "visibility_sm": 10.0,
    "ceiling_ft": 8000.0,
    "raw": "KSEA 190653Z 03008KT 10SM FEW060 BKN080 13/08 A3024 RMK AO2 SLP247 T01330083"
  },
  "webcam_url": "https://atmos.uw.edu/data/images/webcam2_latest.jpg",
  "model_version": "latest"
}
