{
  "timestamp_utc": "2026-05-19T19:02:33Z",
  "class_index": 0,
  "class_name": "not_out",
  "is_out": false,
  "confidence": {
    "not_out": 0.9740085601806641,
    "full": 0.00009303223487222567,
    "partial": 0.025898365303874016
  },
  "weather": {
    "station": "KSEA",
    "visibility_sm": 10.0,
    "ceiling_ft": 1600.0,
    "raw": "KSEA 191853Z VRB05KT 10SM BKN016 OVC021 13/09 A3028 RMK AO2 SLP259 T01330089"
  },
  "webcam_url": "https://atmos.uw.edu/data/images/webcam2_latest.jpg",
  "model_version": "latest"
}
