{
  "timestamp_utc": "2026-05-19T06:27:22Z",
  "class_index": 0,
  "class_name": "not_out",
  "is_out": false,
  "confidence": {
    "not_out": 0.9984233379364014,
    "full": 0.0009583162609487772,
    "partial": 0.0006182783399708569
  },
  "weather": {
    "station": "KSEA",
    "visibility_sm": 10.0,
    "ceiling_ft": 9000.0,
    "raw": "KSEA 190553Z 00000KT 10SM BKN090 13/08 A3024 RMK AO2 SLP247 T01280078 10189 20122 53010"
  },
  "webcam_url": "https://atmos.uw.edu/data/images/webcam2_latest.jpg",
  "model_version": "latest"
}
