{
  "timestamp_utc": "2026-05-24T15:34:39Z",
  "class_index": 0,
  "class_name": "not_out",
  "is_out": false,
  "confidence": {
    "not_out": 0.660783588886261,
    "full": 0.0048242309130728245,
    "partial": 0.3343922197818756
  },
  "weather": {
    "station": "KSEA",
    "visibility_sm": 10.0,
    "ceiling_ft": 3000.0,
    "raw": "KSEA 241453Z 21007KT 10SM FEW015 OVC030 11/07 A3004 RMK AO2 SLP178 T01060072 51007"
  },
  "webcam_url": "https://atmos.uw.edu/data/images/webcam2_latest.jpg",
  "model_version": "latest"
}
