{
  "timestamp_utc": "2026-05-07T13:16:07Z",
  "class_index": 0,
  "class_name": "not_out",
  "is_out": false,
  "confidence": {
    "not_out": 0.9941787719726562,
    "full": 0.0005205111228860915,
    "partial": 0.005300743971019983
  },
  "weather": {
    "station": "KSEA",
    "visibility_sm": 10.0,
    "ceiling_ft": 3200.0,
    "raw": "KSEA 071253Z 16005KT 10SM FEW023 BKN032 10/07 A3014 RMK AO2 SLP211 T01000072 $"
  },
  "webcam_url": "https://atmos.uw.edu/data/images/webcam2_latest.jpg",
  "model_version": "latest"
}
