{
  "timestamp_utc": "2026-05-11T14:10:25Z",
  "class_index": 1,
  "class_name": "full",
  "is_out": true,
  "confidence": {
    "not_out": 0.0030785317067056894,
    "full": 0.9940912127494812,
    "partial": 0.0028301996644586325
  },
  "weather": {
    "station": "KSEA",
    "visibility_sm": 10.0,
    "ceiling_ft": null,
    "raw": "KSEA 111353Z 33005KT 10SM FEW020 FEW050 SCT240 12/08 A3023 RMK AO2 SLP241 T01170078"
  },
  "webcam_url": "https://atmos.uw.edu/data/images/webcam2_latest.jpg",
  "model_version": "latest"
}
