{
  "timestamp_utc": "2026-05-19T09:43:42Z",
  "class_index": 0,
  "class_name": "not_out",
  "is_out": false,
  "confidence": {
    "not_out": 0.9986926913261414,
    "full": 0.0008304239599965513,
    "partial": 0.0004769377992488444
  },
  "weather": {
    "station": "KSEA",
    "visibility_sm": 10.0,
    "ceiling_ft": 6000.0,
    "raw": "KSEA 190933Z 23005KT 10SM FEW023 OVC060 11/09 A3026 RMK AO2 T01110089"
  },
  "webcam_url": "https://atmos.uw.edu/data/images/webcam2_latest.jpg",
  "model_version": "latest"
}
