{
  "timestamp_utc": "2026-05-10T14:30:46Z",
  "class_index": 0,
  "class_name": "not_out",
  "is_out": false,
  "confidence": {
    "not_out": 0.8318501114845276,
    "full": 0.0025942709762603045,
    "partial": 0.16555562615394592
  },
  "weather": {
    "station": "KSEA",
    "visibility_sm": 10.0,
    "ceiling_ft": 24000.0,
    "raw": "KSEA 101353Z 12005KT 10SM FEW060 SCT140 BKN240 11/09 A3003 RMK AO2 SLP173 T01110089 $"
  },
  "webcam_url": "https://atmos.uw.edu/data/images/webcam2_latest.jpg",
  "model_version": "latest"
}
