{
  "timestamp_utc": "2026-05-13T22:34:39Z",
  "class_index": 0,
  "class_name": "not_out",
  "is_out": false,
  "confidence": {
    "not_out": 0.8751640915870667,
    "full": 0.00010413743439130485,
    "partial": 0.12473175674676895
  },
  "weather": {
    "station": "KSEA",
    "visibility_sm": 10.0,
    "ceiling_ft": 8500.0,
    "raw": "KSEA 132153Z 20017G29KT 10SM FEW025 SCT045 BKN085 13/09 A3002 RMK AO2 PK WND 20029/2149 SLP171 T01330094"
  },
  "webcam_url": "https://atmos.uw.edu/data/images/webcam2_latest.jpg",
  "model_version": "latest"
}
