{
  "timestamp_utc": "2026-05-17T03:36:53Z",
  "class_index": 0,
  "class_name": "not_out",
  "is_out": false,
  "confidence": {
    "not_out": 0.9559379816055298,
    "full": 0.02473035268485546,
    "partial": 0.019331693649291992
  },
  "weather": {
    "station": "KSEA",
    "visibility_sm": 10.0,
    "ceiling_ft": 4500.0,
    "raw": "KSEA 170253Z 17006KT 10SM SCT035 BKN045 BKN050 09/07 A3016 RMK AO2 SLP222 60008 T00890067 53004"
  },
  "webcam_url": "https://atmos.uw.edu/data/images/webcam2_latest.jpg",
  "model_version": "latest"
}
