{
  "timestamp_utc": "2026-05-08T12:40:20Z",
  "class_index": 0,
  "class_name": "not_out",
  "is_out": false,
  "confidence": {
    "not_out": 0.9504094123840332,
    "full": 0.0008899901295080781,
    "partial": 0.04870067536830902
  },
  "weather": {
    "station": "KSEA",
    "visibility_sm": 10.0,
    "ceiling_ft": 19000.0,
    "raw": "KSEA 081153Z 20006KT 10SM BKN190 BKN210 10/07 A3005 RMK AO2 SLP181 T01000072 10144 20094 53008 $"
  },
  "webcam_url": "https://atmos.uw.edu/data/images/webcam2_latest.jpg",
  "model_version": "latest"
}
