{
  "timestamp_utc": "2026-05-17T07:53:28Z",
  "class_index": 0,
  "class_name": "not_out",
  "is_out": false,
  "confidence": {
    "not_out": 0.9983866214752197,
    "full": 0.001088939607143402,
    "partial": 0.0005245598731562495
  },
  "weather": {
    "station": "KSEA",
    "visibility_sm": 10.0,
    "ceiling_ft": null,
    "raw": "KSEA 170653Z 11008KT 10SM SCT035 SCT070 07/05 A3020 RMK AO2 SLP236 T00720050"
  },
  "webcam_url": "https://atmos.uw.edu/data/images/webcam2_latest.jpg",
  "model_version": "latest"
}
