{
  "timestamp_utc": "2026-05-13T01:55:21Z",
  "class_index": 0,
  "class_name": "not_out",
  "is_out": false,
  "confidence": {
    "not_out": 0.9638548493385315,
    "full": 0.005910596810281277,
    "partial": 0.03023453801870346
  },
  "weather": {
    "station": "KSEA",
    "visibility_sm": 10.0,
    "ceiling_ft": 11000.0,
    "raw": "KSEA 130053Z 24009KT 10SM FEW060 BKN110 BKN230 24/09 A2981 RMK AO2 SLP099 T02440089"
  },
  "webcam_url": "https://atmos.uw.edu/data/images/webcam2_latest.jpg",
  "model_version": "latest"
}
