{
  "timestamp_utc": "2026-05-06T10:35:33Z",
  "class_index": 0,
  "class_name": "not_out",
  "is_out": false,
  "confidence": {
    "not_out": 0.9996434450149536,
    "full": 0.00022572901798412204,
    "partial": 0.00013083168596494943
  },
  "weather": {
    "station": "KSEA",
    "visibility_sm": 10.0,
    "ceiling_ft": 1200.0,
    "raw": "KSEA 060953Z 21007KT 10SM BKN012 OVC021 11/09 A3006 RMK AO2 SLP186 T01110094"
  },
  "webcam_url": "https://atmos.uw.edu/data/images/webcam2_latest.jpg",
  "model_version": "latest"
}
