{
  "timestamp_utc": "2026-05-03T16:39:10Z",
  "class_index": 2,
  "class_name": "partial",
  "is_out": true,
  "confidence": {
    "not_out": 0.0074211726896464825,
    "full": 0.01879284903407097,
    "partial": 0.973785936832428
  },
  "weather": {
    "station": "KSEA",
    "visibility_sm": 10.0,
    "ceiling_ft": null,
    "raw": "KSEA 031553Z 02011KT 10SM FEW120 18/09 A2996 RMK AO2 SLP149 T01780094 $"
  },
  "webcam_url": "https://atmos.uw.edu/data/images/webcam2_latest.jpg",
  "model_version": "latest"
}
