{
  "timestamp_utc": "2026-05-08T17:27:35Z",
  "class_index": 0,
  "class_name": "not_out",
  "is_out": false,
  "confidence": {
    "not_out": 0.9777414202690125,
    "full": 0.000016608139048912562,
    "partial": 0.022242004051804543
  },
  "weather": {
    "station": "KSEA",
    "visibility_sm": 10.0,
    "ceiling_ft": 2700.0,
    "raw": "KSEA 081700Z 19008KT 10SM SCT022 BKN027 BKN200 11/06 A3012 RMK AO2 T01110061"
  },
  "webcam_url": "https://atmos.uw.edu/data/images/webcam2_latest.jpg",
  "model_version": "latest"
}
