{
  "timestamp_utc": "2026-05-16T10:45:32Z",
  "class_index": 0,
  "class_name": "not_out",
  "is_out": false,
  "confidence": {
    "not_out": 0.998588502407074,
    "full": 0.0010257374960929155,
    "partial": 0.00038567566662095487
  },
  "weather": {
    "station": "KSEA",
    "visibility_sm": 10.0,
    "ceiling_ft": null,
    "raw": "KSEA 161023Z 18013KT 10SM SCT013 SCT070 07/05 A3006 RMK AO2 T00720050"
  },
  "webcam_url": "https://atmos.uw.edu/data/images/webcam2_latest.jpg",
  "model_version": "latest"
}
