{
  "timestamp_utc": "2026-05-24T12:03:15Z",
  "class_index": 0,
  "class_name": "not_out",
  "is_out": false,
  "confidence": {
    "not_out": 0.9559581279754639,
    "full": 0.0029432610608637333,
    "partial": 0.04109867289662361
  },
  "weather": {
    "station": "KSEA",
    "visibility_sm": 10.0,
    "ceiling_ft": 5000.0,
    "raw": "KSEA 241153Z 21006KT 10SM SCT028 BKN050 BKN250 10/08 A3002 RMK AO2 SLP170 T01000078 10144 20100 50001"
  },
  "webcam_url": "https://atmos.uw.edu/data/images/webcam2_latest.jpg",
  "model_version": "latest"
}
