{
  "timestamp_utc": "2026-05-20T05:21:40Z",
  "class_index": 0,
  "class_name": "not_out",
  "is_out": false,
  "confidence": {
    "not_out": 0.9985055923461914,
    "full": 0.0007945799734443426,
    "partial": 0.0006998481112532318
  },
  "weather": {
    "station": "KSEA",
    "visibility_sm": 10.0,
    "ceiling_ft": 8000.0,
    "raw": "KSEA 200453Z 27003KT 10SM FEW035 OVC080 14/08 A3021 RMK AO2 SLP237 T01440083"
  },
  "webcam_url": "https://atmos.uw.edu/data/images/webcam2_latest.jpg",
  "model_version": "latest"
}
