{
  "timestamp_utc": "2026-05-21T00:59:42Z",
  "class_index": 1,
  "class_name": "full",
  "is_out": true,
  "confidence": {
    "not_out": 0.14733195304870605,
    "full": 0.667151153087616,
    "partial": 0.18551680445671082
  },
  "weather": {
    "station": "KSEA",
    "visibility_sm": 10.0,
    "ceiling_ft": 20000.0,
    "raw": "KSEA 210053Z 33009KT 10SM FEW040 BKN200 BKN250 19/06 A3016 RMK AO2 SLP219 T01940061"
  },
  "webcam_url": "https://atmos.uw.edu/data/images/webcam2_latest.jpg",
  "model_version": "latest"
}
