{
  "timestamp_utc": "2026-05-23T16:25:20Z",
  "class_index": 0,
  "class_name": "not_out",
  "is_out": false,
  "confidence": {
    "not_out": 0.9999274015426636,
    "full": 0.000012418717233231291,
    "partial": 0.000060244154155952856
  },
  "weather": {
    "station": "KSEA",
    "visibility_sm": 9.0,
    "ceiling_ft": 600.0,
    "raw": "KSEA 231553Z 20009KT 9SM OVC006 12/09 A2997 RMK AO2 SLP155 T01170094"
  },
  "webcam_url": "https://atmos.uw.edu/data/images/webcam2_latest.jpg",
  "model_version": "latest"
}
