{
  "timestamp_utc": "2026-05-08T13:25:37Z",
  "class_index": 0,
  "class_name": "not_out",
  "is_out": false,
  "confidence": {
    "not_out": 0.9967869520187378,
    "full": 0.0022762464359402657,
    "partial": 0.0009368108585476875
  },
  "weather": {
    "station": "KSEA",
    "visibility_sm": 10.0,
    "ceiling_ft": 20000.0,
    "raw": "KSEA 081253Z 19010KT 10SM BKN200 09/07 A3006 RMK AO2 SLP184 T00940067 $"
  },
  "webcam_url": "https://atmos.uw.edu/data/images/webcam2_latest.jpg",
  "model_version": "latest"
}
