{
  "timestamp_utc": "2026-05-21T21:23:01Z",
  "class_index": 0,
  "class_name": "not_out",
  "is_out": false,
  "confidence": {
    "not_out": 0.9888063669204712,
    "full": 0.000738635309971869,
    "partial": 0.010455047711730003
  },
  "weather": {
    "station": "KSEA",
    "visibility_sm": 10.0,
    "ceiling_ft": 25000.0,
    "raw": "KSEA 212053Z 29009KT 10SM FEW080 FEW180 BKN250 22/09 A3009 RMK AO2 SLP195 T02170089 58015"
  },
  "webcam_url": "https://atmos.uw.edu/data/images/webcam2_latest.jpg",
  "model_version": "latest"
}
