{
  "timestamp_utc": "2026-05-05T18:14:03Z",
  "class_index": 0,
  "class_name": "not_out",
  "is_out": false,
  "confidence": {
    "not_out": 0.9993094205856323,
    "full": 0.0000170170624187449,
    "partial": 0.0006735333008691669
  },
  "weather": {
    "station": "KSEA",
    "visibility_sm": 10.0,
    "ceiling_ft": 1400.0,
    "raw": "KSEA 051753Z 24004KT 10SM OVC014 13/10 A3002 RMK AO2 SLP172 CIG 013V015 T01330100 10133 20122 52008"
  },
  "webcam_url": "https://atmos.uw.edu/data/images/webcam2_latest.jpg",
  "model_version": "latest"
}
