{
  "timestamp_utc": "2026-05-09T17:07:11Z",
  "class_index": 2,
  "class_name": "partial",
  "is_out": true,
  "confidence": {
    "not_out": 0.04579296335577965,
    "full": 0.009564929641783237,
    "partial": 0.9446421265602112
  },
  "weather": {
    "station": "KSEA",
    "visibility_sm": 10.0,
    "ceiling_ft": 25000.0,
    "raw": "KSEA 091653Z 27005KT 10SM SCT016 BKN250 14/10 A3017 RMK AO2 SLP222 T01440100"
  },
  "webcam_url": "https://atmos.uw.edu/data/images/webcam2_latest.jpg",
  "model_version": "latest"
}
