{
  "timestamp_utc": "2026-05-06T19:54:16Z",
  "class_index": 0,
  "class_name": "not_out",
  "is_out": false,
  "confidence": {
    "not_out": 0.9877161383628845,
    "full": 0.000013219237189332489,
    "partial": 0.012270680628716946
  },
  "weather": {
    "station": "KSEA",
    "visibility_sm": 10.0,
    "ceiling_ft": 1600.0,
    "raw": "KSEA 061918Z 20007KT 10SM SCT012 OVC016 12/08 A3014 RMK AO2 T01220083 $"
  },
  "webcam_url": "https://atmos.uw.edu/data/images/webcam2_latest.jpg",
  "model_version": "latest"
}
