{
  "timestamp_utc": "2026-05-05T03:53:24Z",
  "class_index": 2,
  "class_name": "partial",
  "is_out": true,
  "confidence": {
    "not_out": 0.020581534132361412,
    "full": 0.0015352098271250725,
    "partial": 0.9778832197189331
  },
  "weather": {
    "station": "KSEA",
    "visibility_sm": 10.0,
    "ceiling_ft": null,
    "raw": "KSEA 050253Z 23007KT 10SM FEW040 SCT250 19/11 A2983 RMK AO2 SLP104 T01940111 55000"
  },
  "webcam_url": "https://atmos.uw.edu/data/images/webcam2_latest.jpg",
  "model_version": "latest"
}
