{
  "timestamp_utc": "2026-05-19T05:42:04Z",
  "class_index": 0,
  "class_name": "not_out",
  "is_out": false,
  "confidence": {
    "not_out": 0.9975889921188354,
    "full": 0.0017135998932644725,
    "partial": 0.0006974259158596396
  },
  "weather": {
    "station": "KSEA",
    "visibility_sm": 10.0,
    "ceiling_ft": 9000.0,
    "raw": "KSEA 190453Z 03007KT 10SM SCT070 BKN090 16/03 A3023 RMK AO2 SLP243 T01610033"
  },
  "webcam_url": "https://atmos.uw.edu/data/images/webcam2_latest.jpg",
  "model_version": "latest"
}
