{
  "timestamp_utc": "2026-05-14T07:53:41Z",
  "class_index": 0,
  "class_name": "not_out",
  "is_out": false,
  "confidence": {
    "not_out": 0.9986169338226318,
    "full": 0.000971494591794908,
    "partial": 0.00041157074156217277
  },
  "weather": {
    "station": "KSEA",
    "visibility_sm": 10.0,
    "ceiling_ft": 1200.0,
    "raw": "KSEA 140653Z 18014KT 10SM BKN012 OVC090 11/08 A3013 RMK AO2 SLP208 T01110083"
  },
  "webcam_url": "https://atmos.uw.edu/data/images/webcam2_latest.jpg",
  "model_version": "latest"
}
