{
  "timestamp_utc": "2026-05-22T03:40:39Z",
  "class_index": 1,
  "class_name": "full",
  "is_out": true,
  "confidence": {
    "not_out": 0.29746028780937195,
    "full": 0.6851769089698792,
    "partial": 0.017362728714942932
  },
  "weather": {
    "station": "KSEA",
    "visibility_sm": 10.0,
    "ceiling_ft": null,
    "raw": "KSEA 220253Z 35009KT 10SM FEW100 21/07 A3000 RMK AO2 SLP165 T02060067 58011"
  },
  "webcam_url": "https://atmos.uw.edu/data/images/webcam2_latest.jpg",
  "model_version": "latest"
}
