{
  "timestamp_utc": "2026-05-12T03:46:03Z",
  "class_index": 2,
  "class_name": "partial",
  "is_out": true,
  "confidence": {
    "not_out": 0.02144666202366352,
    "full": 0.04658754542469978,
    "partial": 0.9319657683372498
  },
  "weather": {
    "station": "KSEA",
    "visibility_sm": 10.0,
    "ceiling_ft": null,
    "raw": "KSEA 120253Z 34007KT 10SM FEW250 18/07 A3004 RMK AO2 SLP178 T01780067 56012"
  },
  "webcam_url": "https://atmos.uw.edu/data/images/webcam2_latest.jpg",
  "model_version": "latest"
}
