{
  "timestamp_utc": "2026-05-14T01:36:07Z",
  "class_index": 0,
  "class_name": "not_out",
  "is_out": false,
  "confidence": {
    "not_out": 0.9755151867866516,
    "full": 0.00001515760141046485,
    "partial": 0.02446969784796238
  },
  "weather": {
    "station": "KSEA",
    "visibility_sm": 10.0,
    "ceiling_ft": 8500.0,
    "raw": "KSEA 140116Z 20016G26KT 10SM SCT020 BKN085 BKN110 13/08 A3008 RMK AO2 PK WND 21030/0057 T01330078"
  },
  "webcam_url": "https://atmos.uw.edu/data/images/webcam2_latest.jpg",
  "model_version": "latest"
}
