{
  "timestamp_utc": "2026-05-16T08:14:32Z",
  "class_index": 0,
  "class_name": "not_out",
  "is_out": false,
  "confidence": {
    "not_out": 0.9984993934631348,
    "full": 0.0010688112815842032,
    "partial": 0.00043187299161218107
  },
  "weather": {
    "station": "KSEA",
    "visibility_sm": 10.0,
    "ceiling_ft": 10000.0,
    "raw": "KSEA 160753Z 18013KT 10SM FEW015 FEW048 BKN100 OVC140 08/06 A3006 RMK AO2 RAB05E16 SLP185 P0000 T00780056 401060078"
  },
  "webcam_url": "https://atmos.uw.edu/data/images/webcam2_latest.jpg",
  "model_version": "latest"
}
