{
  "timestamp_utc": "2026-05-06T11:51:05Z",
  "class_index": 0,
  "class_name": "not_out",
  "is_out": false,
  "confidence": {
    "not_out": 0.9994780421257019,
    "full": 0.00024261583166662604,
    "partial": 0.0002793708408717066
  },
  "weather": {
    "station": "KSEA",
    "visibility_sm": 10.0,
    "ceiling_ft": 800.0,
    "raw": "KSEA 061146Z 18006KT 10SM BKN008 OVC019 11/09 A3008 RMK AO2 T01110094"
  },
  "webcam_url": "https://atmos.uw.edu/data/images/webcam2_latest.jpg",
  "model_version": "latest"
}
