{
  "timestamp_utc": "2026-05-20T14:25:17Z",
  "class_index": 0,
  "class_name": "not_out",
  "is_out": false,
  "confidence": {
    "not_out": 0.9997512698173523,
    "full": 0.000018217831893707626,
    "partial": 0.00023044581757858396
  },
  "weather": {
    "station": "KSEA",
    "visibility_sm": 9.0,
    "ceiling_ft": 700.0,
    "raw": "KSEA 201353Z 28003KT 9SM BKN007 OVC016 11/09 A3022 RMK AO2 SLP241 T01060089"
  },
  "webcam_url": "https://atmos.uw.edu/data/images/webcam2_latest.jpg",
  "model_version": "latest"
}
