{
  "timestamp_utc": "2026-05-03T22:11:21Z",
  "class_index": 2,
  "class_name": "partial",
  "is_out": true,
  "confidence": {
    "not_out": 0.2747937738895416,
    "full": 0.35579878091812134,
    "partial": 0.3694075047969818
  },
  "weather": {
    "station": "KSEA",
    "visibility_sm": 10.0,
    "ceiling_ft": null,
    "raw": "KSEA 032153Z 36009KT 10SM FEW070 SCT240 26/09 A2988 RMK AO2 SLP121 T02610089 $"
  },
  "webcam_url": "https://atmos.uw.edu/data/images/webcam2_latest.jpg",
  "model_version": "latest"
}
