{
  "timestamp_utc": "2026-04-20T19:47:06Z",
  "class_index": 0,
  "class_name": "not_out",
  "is_out": false,
  "confidence": {
    "not_out": 0.9972666501998901,
    "full": 0.0012235428439453244,
    "partial": 0.0015098222065716982
  },
  "weather": {
    "station": "KSEA",
    "visibility_sm": 10.0,
    "ceiling_ft": 17000.0,
    "raw": "KSEA 201853Z 35003KT 10SM FEW130 BKN170 17/07 A2979 RMK AO2 SLP092 T01670067"
  },
  "webcam_url": "https://atmos.uw.edu/data/images/webcam2_latest.jpg",
  "model_version": "ae02e35"
}
