{
  "timestamp_utc": "2026-05-09T18:52:54Z",
  "class_index": 0,
  "class_name": "not_out",
  "is_out": false,
  "confidence": {
    "not_out": 0.8569665551185608,
    "full": 0.13551758229732513,
    "partial": 0.0075159030966460705
  },
  "weather": {
    "station": "KSEA",
    "visibility_sm": 10.0,
    "ceiling_ft": 25000.0,
    "raw": "KSEA 091753Z 31005KT 10SM FEW024 BKN250 16/10 A3015 RMK AO2 SLP218 T01610100 10161 20089 56014"
  },
  "webcam_url": "https://atmos.uw.edu/data/images/webcam2_latest.jpg",
  "model_version": "latest"
}
