{
  "timestamp_utc": "2026-05-15T06:48:29Z",
  "class_index": 0,
  "class_name": "not_out",
  "is_out": false,
  "confidence": {
    "not_out": 0.9988850951194763,
    "full": 0.0007977274945005774,
    "partial": 0.00031722677522338927
  },
  "weather": {
    "station": "KSEA",
    "visibility_sm": 10.0,
    "ceiling_ft": 1300.0,
    "raw": "KSEA 150604Z 20012KT 10SM BKN013 BKN028 10/08 A3011 RMK AO2 T01000083 $"
  },
  "webcam_url": "https://atmos.uw.edu/data/images/webcam2_latest.jpg",
  "model_version": "latest"
}
