{
  "timestamp_utc": "2026-05-03T03:49:15Z",
  "class_index": 2,
  "class_name": "partial",
  "is_out": true,
  "confidence": {
    "not_out": 0.06916351616382599,
    "full": 0.007620574440807104,
    "partial": 0.9232159852981567
  },
  "weather": {
    "station": "KSEA",
    "visibility_sm": 10.0,
    "ceiling_ft": null,
    "raw": "KSEA 030253Z 34007KT 10SM FEW200 20/09 A2992 RMK AO2 SLP136 T02000094 55004 $"
  },
  "webcam_url": "https://atmos.uw.edu/data/images/webcam2_latest.jpg",
  "model_version": "latest"
}
