{
  "timestamp_utc": "2026-05-10T10:14:03Z",
  "class_index": 0,
  "class_name": "not_out",
  "is_out": false,
  "confidence": {
    "not_out": 0.9975171089172363,
    "full": 0.0011210835073143244,
    "partial": 0.0013617781223729253
  },
  "weather": {
    "station": "KSEA",
    "visibility_sm": 10.0,
    "ceiling_ft": null,
    "raw": "KSEA 100953Z 00000KT 10SM FEW190 SCT250 11/08 A3002 RMK AO2 SLP172 T01060083"
  },
  "webcam_url": "https://atmos.uw.edu/data/images/webcam2_latest.jpg",
  "model_version": "latest"
}
