{
  "timestamp_utc": "2026-05-11T19:57:51Z",
  "class_index": 1,
  "class_name": "full",
  "is_out": true,
  "confidence": {
    "not_out": 0.0046379887498915195,
    "full": 0.9756820797920227,
    "partial": 0.019679943099617958
  },
  "weather": {
    "station": "KSEA",
    "visibility_sm": 10.0,
    "ceiling_ft": null,
    "raw": "KSEA 111953Z 35010G18KT 10SM FEW040 FEW250 19/07 A3015 RMK AO2 SLP215 T01940072"
  },
  "webcam_url": "https://atmos.uw.edu/data/images/webcam2_latest.jpg",
  "model_version": "latest"
}
