{
  "timestamp_utc": "2026-05-20T18:42:02Z",
  "class_index": 0,
  "class_name": "not_out",
  "is_out": false,
  "confidence": {
    "not_out": 0.9801862239837646,
    "full": 0.00007312800880754367,
    "partial": 0.019740624353289604
  },
  "weather": {
    "station": "KSEA",
    "visibility_sm": 10.0,
    "ceiling_ft": 3200.0,
    "raw": "KSEA 201810Z 27009KT 10SM SCT022 BKN032 BKN230 13/09 A3023 RMK AO2 T01330094"
  },
  "webcam_url": "https://atmos.uw.edu/data/images/webcam2_latest.jpg",
  "model_version": "latest"
}
