{
  "timestamp_utc": "2026-05-22T18:31:36Z",
  "class_index": 1,
  "class_name": "full",
  "is_out": true,
  "confidence": {
    "not_out": 0.0030016556847840548,
    "full": 0.9922904372215271,
    "partial": 0.004707907326519489
  },
  "weather": {
    "station": "KSEA",
    "visibility_sm": 10.0,
    "ceiling_ft": null,
    "raw": "KSEA 221753Z 28006KT 10SM FEW100 FEW230 18/10 A2997 RMK AO2 SLP152 T01830100 10189 20106 58006"
  },
  "webcam_url": "https://atmos.uw.edu/data/images/webcam2_latest.jpg",
  "model_version": "latest"
}
