{
  "timestamp_utc": "2026-05-03T17:24:27Z",
  "class_index": 2,
  "class_name": "partial",
  "is_out": true,
  "confidence": {
    "not_out": 0.008445408195257187,
    "full": 0.048467088490724564,
    "partial": 0.9430875182151794
  },
  "weather": {
    "station": "KSEA",
    "visibility_sm": 10.0,
    "ceiling_ft": null,
    "raw": "KSEA 031653Z 02009KT 10SM FEW120 20/10 A2995 RMK AO2 SLP146 T02000100 $"
  },
  "webcam_url": "https://atmos.uw.edu/data/images/webcam2_latest.jpg",
  "model_version": "latest"
}
