{
  "timestamp_utc": "2026-05-09T07:18:15Z",
  "class_index": 0,
  "class_name": "not_out",
  "is_out": false,
  "confidence": {
    "not_out": 0.9973607659339905,
    "full": 0.001088976045139134,
    "partial": 0.0015502849128097296
  },
  "weather": {
    "station": "KSEA",
    "visibility_sm": 10.0,
    "ceiling_ft": 1600.0,
    "raw": "KSEA 090653Z 21006KT 10SM BKN016 11/08 A3021 RMK AO2 SLP237 T01110083"
  },
  "webcam_url": "https://atmos.uw.edu/data/images/webcam2_latest.jpg",
  "model_version": "latest"
}
