{
  "timestamp_utc": "2026-05-23T10:07:49Z",
  "class_index": 0,
  "class_name": "not_out",
  "is_out": false,
  "confidence": {
    "not_out": 0.9984921216964722,
    "full": 0.0009939454030245543,
    "partial": 0.0005139301065355539
  },
  "weather": {
    "station": "KSEA",
    "visibility_sm": 10.0,
    "ceiling_ft": null,
    "raw": "KSEA 230953Z 19005KT 10SM CLR 12/10 A2989 RMK AO2 SLP126 T01170100"
  },
  "webcam_url": "https://atmos.uw.edu/data/images/webcam2_latest.jpg",
  "model_version": "latest"
}
