{
  "timestamp_utc": "2026-05-11T23:44:23Z",
  "class_index": 1,
  "class_name": "full",
  "is_out": true,
  "confidence": {
    "not_out": 0.0066564567387104034,
    "full": 0.9871070981025696,
    "partial": 0.006236385554075241
  },
  "weather": {
    "station": "KSEA",
    "visibility_sm": 10.0,
    "ceiling_ft": null,
    "raw": "KSEA 112253Z 35008KT 320V020 10SM FEW040 SCT230 22/07 A3010 RMK AO2 SLP197 T02170072"
  },
  "webcam_url": "https://atmos.uw.edu/data/images/webcam2_latest.jpg",
  "model_version": "latest"
}
