{
  "timestamp_utc": "2026-05-22T10:28:21Z",
  "class_index": 0,
  "class_name": "not_out",
  "is_out": false,
  "confidence": {
    "not_out": 0.9980701804161072,
    "full": 0.0014043723931536078,
    "partial": 0.0005253602284938097
  },
  "weather": {
    "station": "KSEA",
    "visibility_sm": 10.0,
    "ceiling_ft": null,
    "raw": "KSEA 220953Z 00000KT 10SM CLR 15/07 A2998 RMK AO2 SLP156 T01500072"
  },
  "webcam_url": "https://atmos.uw.edu/data/images/webcam2_latest.jpg",
  "model_version": "latest"
}
