{
  "timestamp_utc": "2026-04-24T00:03:34Z",
  "class_index": 0,
  "class_name": "not_out",
  "is_out": false,
  "confidence": {
    "not_out": 0.9881013631820679,
    "full": 0.006971162278205156,
    "partial": 0.004927399568259716
  },
  "weather": {
    "station": "KSEA",
    "visibility_sm": 10.0,
    "ceiling_ft": 5000.0,
    "raw": "KSEA 232353Z 28005KT 10SM SCT035 BKN050 14/05 A3015 RMK AO2 SLP216 T01390050 10144 20100 56015"
  },
  "webcam_url": "https://atmos.uw.edu/data/images/webcam2_latest.jpg",
  "model_version": "d4b9572"
}
