{
  "timestamp_utc": "2026-05-20T11:24:04Z",
  "class_index": 0,
  "class_name": "not_out",
  "is_out": false,
  "confidence": {
    "not_out": 0.9986118078231812,
    "full": 0.0008825156837701797,
    "partial": 0.0005057381349615753
  },
  "weather": {
    "station": "KSEA",
    "visibility_sm": 10.0,
    "ceiling_ft": 1000.0,
    "raw": "KSEA 201053Z 28004KT 10SM OVC010 11/09 A3023 RMK AO2 SLP241 T01110094 $"
  },
  "webcam_url": "https://atmos.uw.edu/data/images/webcam2_latest.jpg",
  "model_version": "latest"
}
