{
  "timestamp_utc": "2026-05-14T20:59:20Z",
  "class_index": 0,
  "class_name": "not_out",
  "is_out": false,
  "confidence": {
    "not_out": 0.9956899285316467,
    "full": 0.000028231286705704406,
    "partial": 0.0042817676439881325
  },
  "weather": {
    "station": "KSEA",
    "visibility_sm": 10.0,
    "ceiling_ft": 5500.0,
    "raw": "KSEA 142053Z 23012G23KT 10SM FEW034 SCT042 BKN055 BKN160 BKN200 14/06 A3013 RMK AO2 SLP208 VIRGA T01440056 55007 $"
  },
  "webcam_url": "https://atmos.uw.edu/data/images/webcam2_latest.jpg",
  "model_version": "latest"
}
