{
  "timestamp_utc": "2026-05-05T06:54:32Z",
  "class_index": 0,
  "class_name": "not_out",
  "is_out": false,
  "confidence": {
    "not_out": 0.9991052746772766,
    "full": 0.00044942370732314885,
    "partial": 0.0004453654692042619
  },
  "weather": {
    "station": "KSEA",
    "visibility_sm": 10.0,
    "ceiling_ft": null,
    "raw": "KSEA 050553Z 20008KT 10SM CLR 13/10 A2988 RMK AO2 SLP124 T01280100 10244 20128 51019"
  },
  "webcam_url": "https://atmos.uw.edu/data/images/webcam2_latest.jpg",
  "model_version": "latest"
}
