{
  "timestamp_utc": "2026-04-20T08:29:22Z",
  "class_index": 0,
  "class_name": "not_out",
  "is_out": false,
  "confidence": {
    "not_out": 0.9990071654319763,
    "full": 0.0005362699739634991,
    "partial": 0.00045660496107302606
  },
  "weather": {
    "station": "KSEA",
    "visibility_sm": 10.0,
    "ceiling_ft": null,
    "raw": "KSEA 200753Z 05005KT 10SM FEW160 SCT250 14/07 A2987 RMK AO2 SLP119 T01440067 402330072"
  },
  "webcam_url": "https://atmos.uw.edu/data/images/webcam2_latest.jpg",
  "model_version": "6ac5597"
}
