{
  "timestamp_utc": "2026-05-15T21:10:12Z",
  "class_index": 0,
  "class_name": "not_out",
  "is_out": false,
  "confidence": {
    "not_out": 0.9974939823150635,
    "full": 0.0000036611206724046497,
    "partial": 0.0025023252237588167
  },
  "weather": {
    "station": "KSEA",
    "visibility_sm": 10.0,
    "ceiling_ft": 4300.0,
    "raw": "KSEA 152053Z 20013G22KT 10SM -RA FEW011 SCT032 OVC043 09/08 A3012 RMK AO2 SLP206 P0001 60004 T00940078 58006"
  },
  "webcam_url": "https://atmos.uw.edu/data/images/webcam2_latest.jpg",
  "model_version": "latest"
}
