{
  "timestamp_utc": "2026-05-21T14:20:03Z",
  "class_index": 1,
  "class_name": "full",
  "is_out": true,
  "confidence": {
    "not_out": 0.009744339622557163,
    "full": 0.8801094889640808,
    "partial": 0.11014619469642639
  },
  "weather": {
    "station": "KSEA",
    "visibility_sm": 10.0,
    "ceiling_ft": null,
    "raw": "KSEA 211353Z 00000KT 10SM CLR 12/08 A3017 RMK AO2 SLP222 T01170083"
  },
  "webcam_url": "https://atmos.uw.edu/data/images/webcam2_latest.jpg",
  "model_version": "latest"
}
