{
  "timestamp_utc": "2026-05-12T07:47:41Z",
  "class_index": 0,
  "class_name": "not_out",
  "is_out": false,
  "confidence": {
    "not_out": 0.9978826642036438,
    "full": 0.001336241140961647,
    "partial": 0.0007811199175193906
  },
  "weather": {
    "station": "KSEA",
    "visibility_sm": 10.0,
    "ceiling_ft": null,
    "raw": "KSEA 120653Z 02010KT 10SM FEW250 16/08 A3001 RMK AO2 SLP166 T01560078 $"
  },
  "webcam_url": "https://atmos.uw.edu/data/images/webcam2_latest.jpg",
  "model_version": "latest"
}
