{
  "timestamp_utc": "2026-05-11T04:21:19Z",
  "class_index": 0,
  "class_name": "not_out",
  "is_out": false,
  "confidence": {
    "not_out": 0.9984118938446045,
    "full": 0.0009163435897789896,
    "partial": 0.0006717792712152004
  },
  "weather": {
    "station": "KSEA",
    "visibility_sm": 10.0,
    "ceiling_ft": 7000.0,
    "raw": "KSEA 110353Z 00000KT 10SM FEW041 BKN070 15/08 A3014 RMK AO2 SLP214 T01500083 $"
  },
  "webcam_url": "https://atmos.uw.edu/data/images/webcam2_latest.jpg",
  "model_version": "latest"
}
