{
  "timestamp_utc": "2026-05-20T06:22:03Z",
  "class_index": 0,
  "class_name": "not_out",
  "is_out": false,
  "confidence": {
    "not_out": 0.998406708240509,
    "full": 0.0009307925938628614,
    "partial": 0.0006624637171626091
  },
  "weather": {
    "station": "KSEA",
    "visibility_sm": 10.0,
    "ceiling_ft": null,
    "raw": "KSEA 200553Z 25004KT 10SM SCT080 13/09 A3021 RMK AO2 SLP238 T01330094 10172 20133 53004"
  },
  "webcam_url": "https://atmos.uw.edu/data/images/webcam2_latest.jpg",
  "model_version": "latest"
}
