{
  "timestamp_utc": "2026-05-19T15:00:53Z",
  "class_index": 0,
  "class_name": "not_out",
  "is_out": false,
  "confidence": {
    "not_out": 0.9993416666984558,
    "full": 0.000051482431445037946,
    "partial": 0.0006069006049074233
  },
  "weather": {
    "station": "KSEA",
    "visibility_sm": 10.0,
    "ceiling_ft": 1600.0,
    "raw": "KSEA 191453Z 22005KT 10SM FEW013 BKN016 OVC035 11/08 A3027 RMK AO2 SLP255 T01110083 53006"
  },
  "webcam_url": "https://atmos.uw.edu/data/images/webcam2_latest.jpg",
  "model_version": "latest"
}
