{
  "timestamp_utc": "2026-05-23T04:35:37Z",
  "class_index": 0,
  "class_name": "not_out",
  "is_out": false,
  "confidence": {
    "not_out": 0.9976091384887695,
    "full": 0.000981264398433268,
    "partial": 0.0014096605591475964
  },
  "weather": {
    "station": "KSEA",
    "visibility_sm": 10.0,
    "ceiling_ft": null,
    "raw": "KSEA 230353Z 31005KT 10SM FEW100 SCT250 18/09 A2984 RMK AO2 SLP111 T01830089"
  },
  "webcam_url": "https://atmos.uw.edu/data/images/webcam2_latest.jpg",
  "model_version": "latest"
}
