{
  "timestamp_utc": "2026-04-24T06:07:11Z",
  "class_index": 0,
  "class_name": "not_out",
  "is_out": false,
  "confidence": {
    "not_out": 0.9991053938865662,
    "full": 0.000522082787938416,
    "partial": 0.000372514157788828
  },
  "weather": {
    "station": "KSEA",
    "visibility_sm": 10.0,
    "ceiling_ft": null,
    "raw": "KSEA 240553Z 00000KT 10SM SCT044 11/05 A3015 RMK AO2 SLP218 T01060050 10144 20100 51009"
  },
  "webcam_url": "https://atmos.uw.edu/data/images/webcam2_latest.jpg",
  "model_version": "c3c616e"
}
