{
  "timestamp_utc": "2026-05-03T21:10:58Z",
  "class_index": 2,
  "class_name": "partial",
  "is_out": true,
  "confidence": {
    "not_out": 0.05225528031587601,
    "full": 0.16136467456817627,
    "partial": 0.7863799929618835
  },
  "weather": {
    "station": "KSEA",
    "visibility_sm": 10.0,
    "ceiling_ft": null,
    "raw": "KSEA 032053Z 34010KT 10SM FEW080 SCT230 25/10 A2989 RMK AO2 SLP127 T02500100 58017 $"
  },
  "webcam_url": "https://atmos.uw.edu/data/images/webcam2_latest.jpg",
  "model_version": "latest"
}
