{
  "timestamp_utc": "2026-05-21T00:14:24Z",
  "class_index": 1,
  "class_name": "full",
  "is_out": true,
  "confidence": {
    "not_out": 0.06700725853443146,
    "full": 0.7745458483695984,
    "partial": 0.15844698250293732
  },
  "weather": {
    "station": "KSEA",
    "visibility_sm": 10.0,
    "ceiling_ft": 25000.0,
    "raw": "KSEA 202353Z 30008KT 10SM FEW040 SCT200 BKN250 19/08 A3018 RMK AO2 SLP224 T01890078 10194 20133 56015"
  },
  "webcam_url": "https://atmos.uw.edu/data/images/webcam2_latest.jpg",
  "model_version": "latest"
}
