{
  "timestamp_utc": "2026-05-19T02:25:44Z",
  "class_index": 0,
  "class_name": "not_out",
  "is_out": false,
  "confidence": {
    "not_out": 0.8671802878379822,
    "full": 0.07006038725376129,
    "partial": 0.06275931745767593
  },
  "weather": {
    "station": "KSEA",
    "visibility_sm": 10.0,
    "ceiling_ft": 9500.0,
    "raw": "KSEA 190153Z 08004KT 10SM FEW045 BKN095 19/05 A3021 RMK AO2 SLP235 T01890050"
  },
  "webcam_url": "https://atmos.uw.edu/data/images/webcam2_latest.jpg",
  "model_version": "latest"
}
