{
  "timestamp_utc": "2026-05-06T12:06:11Z",
  "class_index": 0,
  "class_name": "not_out",
  "is_out": false,
  "confidence": {
    "not_out": 0.9996970891952515,
    "full": 0.0001469973794883117,
    "partial": 0.00015601803897880018
  },
  "weather": {
    "station": "KSEA",
    "visibility_sm": 9.0,
    "ceiling_ft": 700.0,
    "raw": "KSEA 061153Z 19007KT 9SM BKN007 OVC020 11/09 A3008 RMK AO2 SLP193 T01110094 10128 20111 51010"
  },
  "webcam_url": "https://atmos.uw.edu/data/images/webcam2_latest.jpg",
  "model_version": "latest"
}
