{
  "timestamp_utc": "2026-05-21T13:19:38Z",
  "class_index": 1,
  "class_name": "full",
  "is_out": true,
  "confidence": {
    "not_out": 0.015014508739113808,
    "full": 0.9324464201927185,
    "partial": 0.05253897234797478
  },
  "weather": {
    "station": "KSEA",
    "visibility_sm": 10.0,
    "ceiling_ft": null,
    "raw": "KSEA 211253Z 31003KT 10SM CLR 11/08 A3016 RMK AO2 SLP218 T01060078 $"
  },
  "webcam_url": "https://atmos.uw.edu/data/images/webcam2_latest.jpg",
  "model_version": "latest"
}
