{
  "timestamp_utc": "2026-05-19T12:29:49Z",
  "class_index": 0,
  "class_name": "not_out",
  "is_out": false,
  "confidence": {
    "not_out": 0.9944705963134766,
    "full": 0.000021513209503609687,
    "partial": 0.005507948808372021
  },
  "weather": {
    "station": "KSEA",
    "visibility_sm": 10.0,
    "ceiling_ft": 2400.0,
    "raw": "KSEA 191153Z 21004KT 10SM FEW013 BKN024 BKN060 11/08 A3025 RMK AO2 SLP249 T01110083 10139 20111 55001"
  },
  "webcam_url": "https://atmos.uw.edu/data/images/webcam2_latest.jpg",
  "model_version": "latest"
}
