{
  "timestamp_utc": "2026-05-23T18:41:16Z",
  "class_index": 0,
  "class_name": "not_out",
  "is_out": false,
  "confidence": {
    "not_out": 0.9997614026069641,
    "full": 0.00006759944517398253,
    "partial": 0.00017096585361286998
  },
  "weather": {
    "station": "KSEA",
    "visibility_sm": 10.0,
    "ceiling_ft": 1000.0,
    "raw": "KSEA 231823Z 20007KT 10SM OVC010 12/09 A3000 RMK AO2 T01220094"
  },
  "webcam_url": "https://atmos.uw.edu/data/images/webcam2_latest.jpg",
  "model_version": "latest"
}
