{
  "timestamp_utc": "2026-05-10T08:13:17Z",
  "class_index": 0,
  "class_name": "not_out",
  "is_out": false,
  "confidence": {
    "not_out": 0.9978109002113342,
    "full": 0.0010076917242258787,
    "partial": 0.0011814400786533952
  },
  "weather": {
    "station": "KSEA",
    "visibility_sm": 10.0,
    "ceiling_ft": null,
    "raw": "KSEA 100753Z 02005KT 10SM SCT230 13/08 A3001 RMK AO2 SLP168 T01330078 402060089"
  },
  "webcam_url": "https://atmos.uw.edu/data/images/webcam2_latest.jpg",
  "model_version": "latest"
}
