{
  "timestamp_utc": "2026-05-11T06:22:07Z",
  "class_index": 0,
  "class_name": "not_out",
  "is_out": false,
  "confidence": {
    "not_out": 0.9981727600097656,
    "full": 0.001018901471979916,
    "partial": 0.0008083406137302518
  },
  "weather": {
    "station": "KSEA",
    "visibility_sm": 10.0,
    "ceiling_ft": null,
    "raw": "KSEA 110553Z 25005KT 10SM SCT040 13/09 A3016 RMK AO2 SLP220 T01280089 10189 20128 53009 $"
  },
  "webcam_url": "https://atmos.uw.edu/data/images/webcam2_latest.jpg",
  "model_version": "latest"
}
