{
  "timestamp_utc": "2026-05-20T21:13:12Z",
  "class_index": 0,
  "class_name": "not_out",
  "is_out": false,
  "confidence": {
    "not_out": 0.5890552997589111,
    "full": 0.36882925033569336,
    "partial": 0.04211542755365372
  },
  "weather": {
    "station": "KSEA",
    "visibility_sm": 10.0,
    "ceiling_ft": 24000.0,
    "raw": "KSEA 202053Z 29007KT 10SM SCT025 BKN240 17/09 A3022 RMK AO2 SLP240 T01670089 58004"
  },
  "webcam_url": "https://atmos.uw.edu/data/images/webcam2_latest.jpg",
  "model_version": "latest"
}
