{
  "timestamp_utc": "2026-04-22T02:12:54Z",
  "class_index": 2,
  "class_name": "partial",
  "is_out": true,
  "confidence": {
    "not_out": 0.18601839244365692,
    "full": 0.000598460144829005,
    "partial": 0.8133832216262817
  },
  "weather": {
    "station": "KSEA",
    "visibility_sm": 10.0,
    "ceiling_ft": 6000.0,
    "raw": "KSEA 220153Z 23006KT 10SM FEW034 BKN060 BKN080 14/09 A2983 RMK AO2 SLP107 T01390089"
  },
  "webcam_url": "https://atmos.uw.edu/data/images/webcam2_latest.jpg",
  "model_version": "fd76b1d"
}
