{
  "timestamp_utc": "2026-05-13T14:45:40Z",
  "class_index": 0,
  "class_name": "not_out",
  "is_out": false,
  "confidence": {
    "not_out": 0.9827228784561157,
    "full": 0.00004941346196574159,
    "partial": 0.017227735370397568
  },
  "weather": {
    "station": "KSEA",
    "visibility_sm": 10.0,
    "ceiling_ft": 6500.0,
    "raw": "KSEA 131353Z 18007KT 10SM SCT023 BKN065 OVC095 11/10 A2987 RMK AO2 SLP122 T01110100"
  },
  "webcam_url": "https://atmos.uw.edu/data/images/webcam2_latest.jpg",
  "model_version": "latest"
}
