{
  "timestamp_utc": "2026-05-14T13:56:24Z",
  "class_index": 0,
  "class_name": "not_out",
  "is_out": false,
  "confidence": {
    "not_out": 0.9990056157112122,
    "full": 0.00023203331511467695,
    "partial": 0.0007624334539286792
  },
  "weather": {
    "station": "KSEA",
    "visibility_sm": 10.0,
    "ceiling_ft": null,
    "raw": "KSEA 141353Z 16010KT 10SM SCT012 SCT150 11/08 A3016 RMK AO2 SLP218 T01060078 $"
  },
  "webcam_url": "https://atmos.uw.edu/data/images/webcam2_latest.jpg",
  "model_version": "latest"
}
