{
  "timestamp_utc": "2026-05-06T09:04:56Z",
  "class_index": 0,
  "class_name": "not_out",
  "is_out": false,
  "confidence": {
    "not_out": 0.9996570348739624,
    "full": 0.0001791683753253892,
    "partial": 0.00016382064495701343
  },
  "weather": {
    "station": "KSEA",
    "visibility_sm": 10.0,
    "ceiling_ft": 2400.0,
    "raw": "KSEA 060853Z 22007KT 10SM OVC024 12/09 A3005 RMK AO2 SLP182 T01170094 51013"
  },
  "webcam_url": "https://atmos.uw.edu/data/images/webcam2_latest.jpg",
  "model_version": "latest"
}
