{
  "timestamp_utc": "2026-05-17T18:42:43Z",
  "class_index": 0,
  "class_name": "not_out",
  "is_out": false,
  "confidence": {
    "not_out": 0.9914820194244385,
    "full": 0.00006108330853749067,
    "partial": 0.008456837385892868
  },
  "weather": {
    "station": "KSEA",
    "visibility_sm": 10.0,
    "ceiling_ft": 2100.0,
    "raw": "KSEA 171753Z 17005KT 10SM SCT014 BKN021 OVC026 10/07 A3031 RMK AO2 SLP271 T01000067 10100 20050 51008 $"
  },
  "webcam_url": "https://atmos.uw.edu/data/images/webcam2_latest.jpg",
  "model_version": "latest"
}
