{
  "timestamp_utc": "2026-05-09T10:19:25Z",
  "class_index": 0,
  "class_name": "not_out",
  "is_out": false,
  "confidence": {
    "not_out": 0.9973803162574768,
    "full": 0.0010592759354040027,
    "partial": 0.0015603868523612618
  },
  "weather": {
    "station": "KSEA",
    "visibility_sm": 10.0,
    "ceiling_ft": 2500.0,
    "raw": "KSEA 090953Z 20004KT 10SM FEW013 BKN025 11/09 A3021 RMK AO2 SLP238 T01110089"
  },
  "webcam_url": "https://atmos.uw.edu/data/images/webcam2_latest.jpg",
  "model_version": "latest"
}
