{
  "timestamp_utc": "2026-05-04T14:32:38Z",
  "class_index": 2,
  "class_name": "partial",
  "is_out": true,
  "confidence": {
    "not_out": 0.012606387957930565,
    "full": 0.33838939666748047,
    "partial": 0.6490042209625244
  },
  "weather": {
    "station": "KSEA",
    "visibility_sm": 10.0,
    "ceiling_ft": 25000.0,
    "raw": "KSEA 041353Z 22003KT 10SM BKN250 14/09 A2984 RMK AO2 SLP108 T01390089 $"
  },
  "webcam_url": "https://atmos.uw.edu/data/images/webcam2_latest.jpg",
  "model_version": "latest"
}
