{
  "timestamp_utc": "2026-05-19T19:47:52Z",
  "class_index": 0,
  "class_name": "not_out",
  "is_out": false,
  "confidence": {
    "not_out": 0.9442479610443115,
    "full": 0.00004661918501369655,
    "partial": 0.055705476552248
  },
  "weather": {
    "station": "KSEA",
    "visibility_sm": 10.0,
    "ceiling_ft": 5000.0,
    "raw": "KSEA 191943Z VRB04KT 10SM SCT018 OVC050 14/09 A3027 RMK AO2 SCT018 V BKN T01390094"
  },
  "webcam_url": "https://atmos.uw.edu/data/images/webcam2_latest.jpg",
  "model_version": "latest"
}
