{
  "timestamp_utc": "2026-05-22T02:25:09Z",
  "class_index": 1,
  "class_name": "full",
  "is_out": true,
  "confidence": {
    "not_out": 0.001044823438860476,
    "full": 0.9892472624778748,
    "partial": 0.009707885794341564
  },
  "weather": {
    "station": "KSEA",
    "visibility_sm": 10.0,
    "ceiling_ft": null,
    "raw": "KSEA 220153Z 35011KT 10SM FEW090 23/07 A3001 RMK AO2 SLP169 T02280067"
  },
  "webcam_url": "https://atmos.uw.edu/data/images/webcam2_latest.jpg",
  "model_version": "latest"
}
