{
  "timestamp_utc": "2026-04-21T03:29:02Z",
  "class_index": 0,
  "class_name": "not_out",
  "is_out": false,
  "confidence": {
    "not_out": 0.6505418419837952,
    "full": 0.004739983472973108,
    "partial": 0.34471824765205383
  },
  "weather": {
    "station": "KSEA",
    "visibility_sm": 10.0,
    "ceiling_ft": 14000.0,
    "raw": "KSEA 210253Z VRB03KT 10SM FEW120 BKN140 BKN250 19/07 A2976 RMK AO2 SLP084 T01890067 50000"
  },
  "webcam_url": "https://atmos.uw.edu/data/images/webcam2_latest.jpg",
  "model_version": "b46c24a"
}
