{
  "timestamp_utc": "2026-05-21T07:17:11Z",
  "class_index": 0,
  "class_name": "not_out",
  "is_out": false,
  "confidence": {
    "not_out": 0.9982150793075562,
    "full": 0.0013394835405051708,
    "partial": 0.00044548753066919744
  },
  "weather": {
    "station": "KSEA",
    "visibility_sm": 10.0,
    "ceiling_ft": null,
    "raw": "KSEA 210653Z 03008KT 10SM SCT250 15/08 A3016 RMK AO2 SLP218 T01500078 $"
  },
  "webcam_url": "https://atmos.uw.edu/data/images/webcam2_latest.jpg",
  "model_version": "latest"
}
