{
  "timestamp_utc": "2026-05-24T03:14:42Z",
  "class_index": 0,
  "class_name": "not_out",
  "is_out": false,
  "confidence": {
    "not_out": 0.7630395889282227,
    "full": 0.1769796758890152,
    "partial": 0.059980712831020355
  },
  "weather": {
    "station": "KSEA",
    "visibility_sm": 10.0,
    "ceiling_ft": 25000.0,
    "raw": "KSEA 240253Z 21008KT 10SM SCT080 BKN250 17/10 A2998 RMK AO2 SLP156 T01720100 55002"
  },
  "webcam_url": "https://atmos.uw.edu/data/images/webcam2_latest.jpg",
  "model_version": "latest"
}
