{
  "timestamp_utc": "2026-05-16T01:26:53Z",
  "class_index": 0,
  "class_name": "not_out",
  "is_out": false,
  "confidence": {
    "not_out": 0.9992839694023132,
    "full": 0.00012095141573809087,
    "partial": 0.0005951932980678976
  },
  "weather": {
    "station": "KSEA",
    "visibility_sm": 10.0,
    "ceiling_ft": 5500.0,
    "raw": "KSEA 160053Z 19009KT 10SM -RA FEW015 SCT020 BKN055 09/07 A3008 RMK AO2 RAB41 SLP194 P0001 T00940072"
  },
  "webcam_url": "https://atmos.uw.edu/data/images/webcam2_latest.jpg",
  "model_version": "latest"
}
