{
  "timestamp_utc": "2026-05-12T10:18:43Z",
  "class_index": 0,
  "class_name": "not_out",
  "is_out": false,
  "confidence": {
    "not_out": 0.9983275532722473,
    "full": 0.0010380601743236184,
    "partial": 0.0006344892899505794
  },
  "weather": {
    "station": "KSEA",
    "visibility_sm": 10.0,
    "ceiling_ft": null,
    "raw": "KSEA 120953Z 35005KT 10SM SCT250 13/07 A2997 RMK AO2 SLP152 T01280072 $"
  },
  "webcam_url": "https://atmos.uw.edu/data/images/webcam2_latest.jpg",
  "model_version": "latest"
}
