{
  "timestamp_utc": "2026-05-20T23:14:00Z",
  "class_index": 0,
  "class_name": "not_out",
  "is_out": false,
  "confidence": {
    "not_out": 0.5047338008880615,
    "full": 0.23241081833839417,
    "partial": 0.2628554105758667
  },
  "weather": {
    "station": "KSEA",
    "visibility_sm": 10.0,
    "ceiling_ft": 23000.0,
    "raw": "KSEA 202253Z 31007KT 10SM FEW035 BKN230 19/08 A3018 RMK AO2 SLP227 T01890078"
  },
  "webcam_url": "https://atmos.uw.edu/data/images/webcam2_latest.jpg",
  "model_version": "latest"
}
