{
  "timestamp_utc": "2026-05-04T09:45:47Z",
  "class_index": 0,
  "class_name": "not_out",
  "is_out": false,
  "confidence": {
    "not_out": 0.9993570446968079,
    "full": 0.00036133849062025547,
    "partial": 0.0002816003980115056
  },
  "weather": {
    "station": "KSEA",
    "visibility_sm": 10.0,
    "ceiling_ft": null,
    "raw": "KSEA 040853Z 15005KT 10SM FEW250 16/09 A2981 RMK AO2 SLP099 T01610089 58001 $"
  },
  "webcam_url": "https://atmos.uw.edu/data/images/webcam2_latest.jpg",
  "model_version": "latest"
}
