{
  "timestamp_utc": "2026-05-09T14:36:08Z",
  "class_index": 2,
  "class_name": "partial",
  "is_out": true,
  "confidence": {
    "not_out": 0.00398272043094039,
    "full": 0.15577059984207153,
    "partial": 0.8402466773986816
  },
  "weather": {
    "station": "KSEA",
    "visibility_sm": 10.0,
    "ceiling_ft": null,
    "raw": "KSEA 091353Z 00000KT 10SM FEW002 FEW025 11/09 A3020 RMK AO2 SLP232 T01060089"
  },
  "webcam_url": "https://atmos.uw.edu/data/images/webcam2_latest.jpg",
  "model_version": "latest"
}
