{
  "timestamp_utc": "2026-05-24T05:15:33Z",
  "class_index": 0,
  "class_name": "not_out",
  "is_out": false,
  "confidence": {
    "not_out": 0.9985767602920532,
    "full": 0.0011079974938184023,
    "partial": 0.00031524847145192325
  },
  "weather": {
    "station": "KSEA",
    "visibility_sm": 10.0,
    "ceiling_ft": 3700.0,
    "raw": "KSEA 240453Z 24005KT 10SM BKN037 15/10 A3000 RMK AO2 SLP165 T01500100"
  },
  "webcam_url": "https://atmos.uw.edu/data/images/webcam2_latest.jpg",
  "model_version": "latest"
}
