{
  "timestamp_utc": "2026-05-07T08:29:14Z",
  "class_index": 0,
  "class_name": "not_out",
  "is_out": false,
  "confidence": {
    "not_out": 0.9992840886116028,
    "full": 0.0003564686339814216,
    "partial": 0.00035948381992056966
  },
  "weather": {
    "station": "KSEA",
    "visibility_sm": 10.0,
    "ceiling_ft": 3200.0,
    "raw": "KSEA 070802Z 20005KT 10SM SCT021 BKN032 OVC039 11/08 A3016 RMK AO2 T01060083 $"
  },
  "webcam_url": "https://atmos.uw.edu/data/images/webcam2_latest.jpg",
  "model_version": "latest"
}
