{
  "timestamp_utc": "2026-05-20T13:24:52Z",
  "class_index": 0,
  "class_name": "not_out",
  "is_out": false,
  "confidence": {
    "not_out": 0.9993392825126648,
    "full": 0.00032257341081276536,
    "partial": 0.00033811802859418094
  },
  "weather": {
    "station": "KSEA",
    "visibility_sm": 10.0,
    "ceiling_ft": 800.0,
    "raw": "KSEA 201253Z 24004KT 10SM BKN008 OVC015 11/09 A3023 RMK AO2 SLP244 T01060089 $"
  },
  "webcam_url": "https://atmos.uw.edu/data/images/webcam2_latest.jpg",
  "model_version": "latest"
}
