{
  "timestamp_utc": "2026-05-18T01:45:42Z",
  "class_index": 1,
  "class_name": "full",
  "is_out": true,
  "confidence": {
    "not_out": 0.025400931015610695,
    "full": 0.7641183137893677,
    "partial": 0.21048077940940857
  },
  "weather": {
    "station": "KSEA",
    "visibility_sm": 10.0,
    "ceiling_ft": null,
    "raw": "KSEA 180053Z 28006KT 10SM SCT043 16/04 A3027 RMK AO2 SLP255 T01610044 $"
  },
  "webcam_url": "https://atmos.uw.edu/data/images/webcam2_latest.jpg",
  "model_version": "latest"
}
