{
  "timestamp_utc": "2026-05-14T18:28:19Z",
  "class_index": 0,
  "class_name": "not_out",
  "is_out": false,
  "confidence": {
    "not_out": 0.9201250672340393,
    "full": 0.00003582357021514326,
    "partial": 0.07983910292387009
  },
  "weather": {
    "station": "KSEA",
    "visibility_sm": 10.0,
    "ceiling_ft": 3700.0,
    "raw": "KSEA 141753Z 21011G19KT 10SM SCT028 BKN037 BKN060 BKN200 14/06 A3015 RMK AO2 SLP215 T01390061 10144 20094 56003 $"
  },
  "webcam_url": "https://atmos.uw.edu/data/images/webcam2_latest.jpg",
  "model_version": "latest"
}
