{
  "timestamp_utc": "2026-04-20T11:51:34Z",
  "class_index": 0,
  "class_name": "not_out",
  "is_out": false,
  "confidence": {
    "not_out": 0.9994595646858215,
    "full": 0.00024135179410222918,
    "partial": 0.00029907686985097826
  },
  "weather": {
    "station": "KSEA",
    "visibility_sm": 10.0,
    "ceiling_ft": 25000.0,
    "raw": "KSEA 201053Z 03014KT 10SM BKN250 14/06 A2982 RMK AO2 SLP103 T01390061"
  },
  "webcam_url": "https://atmos.uw.edu/data/images/webcam2_latest.jpg",
  "model_version": "7d86879"
}
