{
  "timestamp_utc": "2026-05-05T16:28:19Z",
  "class_index": 0,
  "class_name": "not_out",
  "is_out": false,
  "confidence": {
    "not_out": 0.9987780451774597,
    "full": 0.000025962854124372825,
    "partial": 0.0011959719704464078
  },
  "weather": {
    "station": "KSEA",
    "visibility_sm": 10.0,
    "ceiling_ft": 1200.0,
    "raw": "KSEA 051553Z 23005KT 10SM OVC012 13/09 A3000 RMK AO2 SLP165 T01280094"
  },
  "webcam_url": "https://atmos.uw.edu/data/images/webcam2_latest.jpg",
  "model_version": "latest"
}
