{
  "timestamp_utc": "2026-04-21T15:01:39Z",
  "class_index": 0,
  "class_name": "not_out",
  "is_out": false,
  "confidence": {
    "not_out": 0.9930562376976013,
    "full": 0.0020854275207966566,
    "partial": 0.00485835038125515
  },
  "weather": {
    "station": "KSEA",
    "visibility_sm": 10.0,
    "ceiling_ft": 17000.0,
    "raw": "KSEA 211453Z 19006KT 10SM FEW020 FEW110 SCT140 BKN170 BKN250 11/06 A2980 RMK AO2 RAB04E15 SLP095 VIRGA W ACSL DSNT SE P0000 60000 T01110056 53002"
  },
  "webcam_url": "https://atmos.uw.edu/data/images/webcam2_latest.jpg",
  "model_version": "d4aa672"
}
