{
  "timestamp_utc": "2026-05-05T23:16:05Z",
  "class_index": 0,
  "class_name": "not_out",
  "is_out": false,
  "confidence": {
    "not_out": 0.6048629879951477,
    "full": 0.38432037830352783,
    "partial": 0.010816558264195919
  },
  "weather": {
    "station": "KSEA",
    "visibility_sm": 10.0,
    "ceiling_ft": 2300.0,
    "raw": "KSEA 052253Z 25007KT 10SM FEW018 BKN023 16/11 A3001 RMK AO2 SLP168 T01560106"
  },
  "webcam_url": "https://atmos.uw.edu/data/images/webcam2_latest.jpg",
  "model_version": "latest"
}
