{
  "timestamp_utc": "2026-04-23T14:59:31Z",
  "class_index": 0,
  "class_name": "not_out",
  "is_out": false,
  "confidence": {
    "not_out": 0.999534010887146,
    "full": 2.6557321689324453e-05,
    "partial": 0.00043948821257799864
  },
  "weather": {
    "station": "KSEA",
    "visibility_sm": 10.0,
    "ceiling_ft": 5000.0,
    "raw": "KSEA 231453Z 16007KT 10SM BKN050 BKN065 08/04 A3021 RMK AO2 SLP238 T00830044 53008"
  },
  "webcam_url": "https://atmos.uw.edu/data/images/webcam2_latest.jpg",
  "model_version": "8dc8f0e"
}
