{
  "timestamp_utc": "2026-05-09T03:31:44Z",
  "class_index": 2,
  "class_name": "partial",
  "is_out": true,
  "confidence": {
    "not_out": 0.01724305748939514,
    "full": 0.015993621200323105,
    "partial": 0.9667633175849915
  },
  "weather": {
    "station": "KSEA",
    "visibility_sm": 10.0,
    "ceiling_ft": null,
    "raw": "KSEA 090253Z 24006KT 10SM FEW040 FEW085 14/07 A3017 RMK AO2 SLP223 T01440072 55001"
  },
  "webcam_url": "https://atmos.uw.edu/data/images/webcam2_latest.jpg",
  "model_version": "latest"
}
