{
  "timestamp_utc": "2026-05-22T06:26:45Z",
  "class_index": 0,
  "class_name": "not_out",
  "is_out": false,
  "confidence": {
    "not_out": 0.9985631108283997,
    "full": 0.000980799668468535,
    "partial": 0.00045613310066983104
  },
  "weather": {
    "station": "KSEA",
    "visibility_sm": 10.0,
    "ceiling_ft": null,
    "raw": "KSEA 220553Z 35009KT 10SM FEW100 17/07 A3000 RMK AO2 SLP162 T01720067 10244 20172 58001"
  },
  "webcam_url": "https://atmos.uw.edu/data/images/webcam2_latest.jpg",
  "model_version": "latest"
}
