{
  "timestamp_utc": "2026-05-07T18:33:13Z",
  "class_index": 0,
  "class_name": "not_out",
  "is_out": false,
  "confidence": {
    "not_out": 0.9818785786628723,
    "full": 0.00003808857218245976,
    "partial": 0.018083378672599792
  },
  "weather": {
    "station": "KSEA",
    "visibility_sm": 10.0,
    "ceiling_ft": 3200.0,
    "raw": "KSEA 071753Z 29005KT 10SM SCT023 BKN032 BKN200 13/07 A3014 RMK AO2 SLP213 SCT023 V BKN T01280067 10133 20100 57002 $"
  },
  "webcam_url": "https://atmos.uw.edu/data/images/webcam2_latest.jpg",
  "model_version": "latest"
}
