{
  "timestamp_utc": "2026-05-07T11:45:33Z",
  "class_index": 0,
  "class_name": "not_out",
  "is_out": false,
  "confidence": {
    "not_out": 0.9989150762557983,
    "full": 0.00046662925160489976,
    "partial": 0.0006182375364005566
  },
  "weather": {
    "station": "KSEA",
    "visibility_sm": 10.0,
    "ceiling_ft": 2000.0,
    "raw": "KSEA 071053Z 13005KT 10SM SCT014 OVC020 11/08 A3016 RMK AO2 SLP218 T01060078 $"
  },
  "webcam_url": "https://atmos.uw.edu/data/images/webcam2_latest.jpg",
  "model_version": "latest"
}
