{
  "timestamp_utc": "2026-05-16T23:05:09Z",
  "class_index": 0,
  "class_name": "not_out",
  "is_out": false,
  "confidence": {
    "not_out": 0.9743703603744507,
    "full": 0.00029165600426495075,
    "partial": 0.02533789537847042
  },
  "weather": {
    "station": "KSEA",
    "visibility_sm": 10.0,
    "ceiling_ft": 4000.0,
    "raw": "KSEA 162253Z 00000KT 10SM -RA SCT035 BKN040 BKN050 13/04 A3013 RMK AO2 RAE03B32 SLP212 P0000 T01280039"
  },
  "webcam_url": "https://atmos.uw.edu/data/images/webcam2_latest.jpg",
  "model_version": "latest"
}
