{
  "timestamp_utc": "2026-05-24T14:19:09Z",
  "class_index": 0,
  "class_name": "not_out",
  "is_out": false,
  "confidence": {
    "not_out": 0.9419235587120056,
    "full": 0.0010351366363465786,
    "partial": 0.057041265070438385
  },
  "weather": {
    "station": "KSEA",
    "visibility_sm": 10.0,
    "ceiling_ft": 2600.0,
    "raw": "KSEA 241353Z 21004KT 10SM OVC026 10/07 A3003 RMK AO2 SLP176 T01000072"
  },
  "webcam_url": "https://atmos.uw.edu/data/images/webcam2_latest.jpg",
  "model_version": "latest"
}
