{
  "timestamp_utc": "2026-05-16T07:29:15Z",
  "class_index": 0,
  "class_name": "not_out",
  "is_out": false,
  "confidence": {
    "not_out": 0.9986728429794312,
    "full": 0.000990318600088358,
    "partial": 0.00033694697776809335
  },
  "weather": {
    "station": "KSEA",
    "visibility_sm": 10.0,
    "ceiling_ft": 7000.0,
    "raw": "KSEA 160653Z 18011KT 10SM SCT016 OVC070 08/06 A3006 RMK AO2 RAB01E10 SLP187 VIRGA P0000 T00780061"
  },
  "webcam_url": "https://atmos.uw.edu/data/images/webcam2_latest.jpg",
  "model_version": "latest"
}
