{
  "timestamp_utc": "2026-05-14T03:21:50Z",
  "class_index": 0,
  "class_name": "not_out",
  "is_out": false,
  "confidence": {
    "not_out": 0.6931192278862,
    "full": 0.027582816779613495,
    "partial": 0.27929794788360596
  },
  "weather": {
    "station": "KSEA",
    "visibility_sm": 10.0,
    "ceiling_ft": null,
    "raw": "KSEA 140253Z 20013G26KT 10SM FEW027 FEW065 SCT090 SCT200 13/07 A3009 RMK AO2 PK WND 21028/0157 SLP196 T01280067 51009"
  },
  "webcam_url": "https://atmos.uw.edu/data/images/webcam2_latest.jpg",
  "model_version": "latest"
}
