{
  "timestamp_utc": "2026-05-13T11:44:25Z",
  "class_index": 0,
  "class_name": "not_out",
  "is_out": false,
  "confidence": {
    "not_out": 0.9987497329711914,
    "full": 0.0006307637668214738,
    "partial": 0.0006195097230374813
  },
  "weather": {
    "station": "KSEA",
    "visibility_sm": 10.0,
    "ceiling_ft": 2400.0,
    "raw": "KSEA 131135Z 15005KT 10SM SCT018 BKN024 OVC085 11/09 A2986 RMK AO2 RAB00E21 P0000 T01110094"
  },
  "webcam_url": "https://atmos.uw.edu/data/images/webcam2_latest.jpg",
  "model_version": "latest"
}
