{
  "timestamp_utc": "2026-05-15T04:47:42Z",
  "class_index": 0,
  "class_name": "not_out",
  "is_out": false,
  "confidence": {
    "not_out": 0.9986568689346313,
    "full": 0.0010259343544021249,
    "partial": 0.00031715884688310325
  },
  "weather": {
    "station": "KSEA",
    "visibility_sm": 10.0,
    "ceiling_ft": 3500.0,
    "raw": "KSEA 150353Z 19010KT 10SM FEW026 BKN035 BKN065 12/07 A3010 RMK AO2 SLP200 T01170072 $"
  },
  "webcam_url": "https://atmos.uw.edu/data/images/webcam2_latest.jpg",
  "model_version": "latest"
}
