{
  "timestamp_utc": "2026-05-17T02:51:36Z",
  "class_index": 0,
  "class_name": "not_out",
  "is_out": false,
  "confidence": {
    "not_out": 0.9562774300575256,
    "full": 0.0006686420529149473,
    "partial": 0.04305398091673851
  },
  "weather": {
    "station": "KSEA",
    "visibility_sm": 10.0,
    "ceiling_ft": 7500.0,
    "raw": "KSEA 170153Z 00000KT 10SM FEW035 SCT050 BKN075 11/05 A3015 RMK AO2 RAE12 SLP217 P0002 T01060050"
  },
  "webcam_url": "https://atmos.uw.edu/data/images/webcam2_latest.jpg",
  "model_version": "latest"
}
