{
  "timestamp_utc": "2026-05-20T15:10:36Z",
  "class_index": 0,
  "class_name": "not_out",
  "is_out": false,
  "confidence": {
    "not_out": 0.9990781545639038,
    "full": 0.00007920622010715306,
    "partial": 0.0008426293497905135
  },
  "weather": {
    "station": "KSEA",
    "visibility_sm": 10.0,
    "ceiling_ft": 700.0,
    "raw": "KSEA 201453Z 27003KT 10SM BKN007 OVC012 11/09 A3023 RMK AO2 SLP244 T01110094 53001"
  },
  "webcam_url": "https://atmos.uw.edu/data/images/webcam2_latest.jpg",
  "model_version": "latest"
}
