{
  "timestamp_utc": "2026-05-09T01:46:03Z",
  "class_index": 1,
  "class_name": "full",
  "is_out": true,
  "confidence": {
    "not_out": 0.014081171713769436,
    "full": 0.7482950687408447,
    "partial": 0.23762375116348267
  },
  "weather": {
    "station": "KSEA",
    "visibility_sm": 10.0,
    "ceiling_ft": 9500.0,
    "raw": "KSEA 090053Z 22006KT 10SM FEW040 BKN095 16/06 A3018 RMK AO2 SLP225 T01560061"
  },
  "webcam_url": "https://atmos.uw.edu/data/images/webcam2_latest.jpg",
  "model_version": "latest"
}
