{
  "timestamp_utc": "2026-05-11T17:41:54Z",
  "class_index": 1,
  "class_name": "full",
  "is_out": true,
  "confidence": {
    "not_out": 0.005313679575920105,
    "full": 0.9173802733421326,
    "partial": 0.07730594277381897
  },
  "weather": {
    "station": "KSEA",
    "visibility_sm": 10.0,
    "ceiling_ft": null,
    "raw": "KSEA 111653Z 36012KT 10SM FEW030 FEW240 16/07 A3021 RMK AO2 SLP234 T01560072"
  },
  "webcam_url": "https://atmos.uw.edu/data/images/webcam2_latest.jpg",
  "model_version": "latest"
}
