{
  "timestamp_utc": "2026-05-04T22:35:59Z",
  "class_index": 1,
  "class_name": "full",
  "is_out": true,
  "confidence": {
    "not_out": 0.06550075858831406,
    "full": 0.823723554611206,
    "partial": 0.11077573895454407
  },
  "weather": {
    "station": "KSEA",
    "visibility_sm": 10.0,
    "ceiling_ft": null,
    "raw": "KSEA 042153Z 25007KT 10SM FEW040 SCT250 24/09 A2985 RMK AO2 SLP113 T02390089"
  },
  "webcam_url": "https://atmos.uw.edu/data/images/webcam2_latest.jpg",
  "model_version": "latest"
}
