{
  "timestamp_utc": "2026-05-11T15:25:55Z",
  "class_index": 2,
  "class_name": "partial",
  "is_out": true,
  "confidence": {
    "not_out": 0.008496061898767948,
    "full": 0.4445446729660034,
    "partial": 0.5469592809677124
  },
  "weather": {
    "station": "KSEA",
    "visibility_sm": 10.0,
    "ceiling_ft": null,
    "raw": "KSEA 111453Z 36009KT 10SM FEW020 FEW050 SCT240 13/07 A3022 RMK AO2 SLP240 T01330072 56005"
  },
  "webcam_url": "https://atmos.uw.edu/data/images/webcam2_latest.jpg",
  "model_version": "latest"
}
