{
  "timestamp_utc": "2026-05-06T06:33:56Z",
  "class_index": 0,
  "class_name": "not_out",
  "is_out": false,
  "confidence": {
    "not_out": 0.9991207718849182,
    "full": 0.0005084905424155295,
    "partial": 0.00037072799750603735
  },
  "weather": {
    "station": "KSEA",
    "visibility_sm": 10.0,
    "ceiling_ft": null,
    "raw": "KSEA 060553Z 20006KT 10SM CLR 13/10 A3001 RMK AO2 SLP169 T01280100 10172 20128 51011"
  },
  "webcam_url": "https://atmos.uw.edu/data/images/webcam2_latest.jpg",
  "model_version": "latest"
}
