{
  "timestamp_utc": "2026-04-22T07:06:12Z",
  "class_index": 0,
  "class_name": "not_out",
  "is_out": false,
  "confidence": {
    "not_out": 0.9992809891700745,
    "full": 0.0003406491596251726,
    "partial": 0.0003782816347666085
  },
  "weather": {
    "station": "KSEA",
    "visibility_sm": 1.5,
    "ceiling_ft": 300.0,
    "raw": "KSEA 220653Z 20004KT 1 1/2SM -RA BR OVC003 11/10 A2984 RMK AO2 SFC VIS 4 RAB09 SLP112 P0000 T01060100"
  },
  "webcam_url": "https://atmos.uw.edu/data/images/webcam2_latest.jpg",
  "model_version": "0c7ffaa"
}
