{
  "timestamp_utc": "2026-05-12T04:16:16Z",
  "class_index": 0,
  "class_name": "not_out",
  "is_out": false,
  "confidence": {
    "not_out": 0.8996067643165588,
    "full": 0.0037166120018810034,
    "partial": 0.09667669236660004
  },
  "weather": {
    "station": "KSEA",
    "visibility_sm": 10.0,
    "ceiling_ft": null,
    "raw": "KSEA 120353Z 35009KT 10SM FEW250 16/08 A3004 RMK AO2 SLP177 T01560078"
  },
  "webcam_url": "https://atmos.uw.edu/data/images/webcam2_latest.jpg",
  "model_version": "latest"
}
