{
  "timestamp_utc": "2026-05-14T06:38:10Z",
  "class_index": 0,
  "class_name": "not_out",
  "is_out": false,
  "confidence": {
    "not_out": 0.9982086420059204,
    "full": 0.0014004367403686047,
    "partial": 0.00039091211510822177
  },
  "weather": {
    "station": "KSEA",
    "visibility_sm": 10.0,
    "ceiling_ft": 1000.0,
    "raw": "KSEA 140633Z 17015G22KT 10SM BKN010 BKN016 OVC095 11/09 A3013 RMK AO2 T01110089"
  },
  "webcam_url": "https://atmos.uw.edu/data/images/webcam2_latest.jpg",
  "model_version": "latest"
}
