{
  "timestamp_utc": "2026-05-05T13:42:09Z",
  "class_index": 0,
  "class_name": "not_out",
  "is_out": false,
  "confidence": {
    "not_out": 0.9995970129966736,
    "full": 0.000009914448128256481,
    "partial": 0.0003931562532670796
  },
  "weather": {
    "station": "KSEA",
    "visibility_sm": 10.0,
    "ceiling_ft": 1100.0,
    "raw": "KSEA 051253Z 22007KT 10SM OVC011 12/09 A2996 RMK AO2 SLP150 T01220094"
  },
  "webcam_url": "https://atmos.uw.edu/data/images/webcam2_latest.jpg",
  "model_version": "latest"
}
