{
  "timestamp_utc": "2026-05-13T18:17:49Z",
  "class_index": 0,
  "class_name": "not_out",
  "is_out": false,
  "confidence": {
    "not_out": 0.9966431856155396,
    "full": 0.000025672967240097933,
    "partial": 0.003331136191263795
  },
  "weather": {
    "station": "KSEA",
    "visibility_sm": 8.0,
    "ceiling_ft": 1700.0,
    "raw": "KSEA 131753Z 20010KT 8SM -RA BKN017 BKN033 OVC050 11/08 A2993 RMK AO2 SLP141 P0002 60003 T01060083 10117 20106 53018"
  },
  "webcam_url": "https://atmos.uw.edu/data/images/webcam2_latest.jpg",
  "model_version": "latest"
}
