{
  "timestamp_utc": "2026-05-24T01:28:58Z",
  "class_index": 1,
  "class_name": "full",
  "is_out": true,
  "confidence": {
    "not_out": 0.1772824227809906,
    "full": 0.7764744162559509,
    "partial": 0.04624317213892937
  },
  "weather": {
    "station": "KSEA",
    "visibility_sm": 10.0,
    "ceiling_ft": null,
    "raw": "KSEA 240053Z 21005KT 10SM FEW100 SCT200 18/10 A2998 RMK AO2 SLP157 T01830100"
  },
  "webcam_url": "https://atmos.uw.edu/data/images/webcam2_latest.jpg",
  "model_version": "latest"
}
