{
  "timestamp_utc": "2026-05-12T13:35:06Z",
  "class_index": 0,
  "class_name": "not_out",
  "is_out": false,
  "confidence": {
    "not_out": 0.6941882371902466,
    "full": 0.05111014470458031,
    "partial": 0.2547016143798828
  },
  "weather": {
    "station": "KSEA",
    "visibility_sm": 10.0,
    "ceiling_ft": 25000.0,
    "raw": "KSEA 121253Z 35006KT 10SM SCT220 BKN250 11/08 A2991 RMK AO2 SLP134 T01110083 $"
  },
  "webcam_url": "https://atmos.uw.edu/data/images/webcam2_latest.jpg",
  "model_version": "latest"
}
