{
  "timestamp_utc": "2026-05-04T15:17:56Z",
  "class_index": 1,
  "class_name": "full",
  "is_out": true,
  "confidence": {
    "not_out": 0.009339805692434311,
    "full": 0.5146021246910095,
    "partial": 0.47605812549591064
  },
  "weather": {
    "station": "KSEA",
    "visibility_sm": 10.0,
    "ceiling_ft": 25000.0,
    "raw": "KSEA 041453Z 19005KT 10SM BKN250 16/09 A2985 RMK AO2 SLP111 T01560094 53010"
  },
  "webcam_url": "https://atmos.uw.edu/data/images/webcam2_latest.jpg",
  "model_version": "latest"
}
