{
  "timestamp_utc": "2026-04-21T18:45:35Z",
  "class_index": 0,
  "class_name": "not_out",
  "is_out": false,
  "confidence": {
    "not_out": 0.8579226136207581,
    "full": 0.0034162176307290792,
    "partial": 0.13866113126277924
  },
  "weather": {
    "station": "KSEA",
    "visibility_sm": 10.0,
    "ceiling_ft": 10000.0,
    "raw": "KSEA 211753Z 20006KT 10SM FEW030 SCT060 BKN100 BKN160 BKN240 13/04 A2981 RMK AO2 SLP101 60000 T01330039 10133 20100 53005"
  },
  "webcam_url": "https://atmos.uw.edu/data/images/webcam2_latest.jpg",
  "model_version": "308ae57"
}
