{
  "timestamp_utc": "2026-05-03T11:22:09Z",
  "class_index": 0,
  "class_name": "not_out",
  "is_out": false,
  "confidence": {
    "not_out": 0.9995032548904419,
    "full": 0.00023720671015325934,
    "partial": 0.0002595121040940285
  },
  "weather": {
    "station": "KSEA",
    "visibility_sm": 10.0,
    "ceiling_ft": null,
    "raw": "KSEA 031053Z 03007KT 10SM CLR 14/07 A2996 RMK AO2 SLP148 T01440072 $"
  },
  "webcam_url": "https://atmos.uw.edu/data/images/webcam2_latest.jpg",
  "model_version": "latest"
}
