{
  "timestamp_utc": "2026-05-13T23:20:11Z",
  "class_index": 0,
  "class_name": "not_out",
  "is_out": false,
  "confidence": {
    "not_out": 0.9723725318908691,
    "full": 0.0025916369631886482,
    "partial": 0.025035889819264412
  },
  "weather": {
    "station": "KSEA",
    "visibility_sm": 10.0,
    "ceiling_ft": 6500.0,
    "raw": "KSEA 132253Z 20019G31KT 10SM SCT022 BKN065 13/10 A3003 RMK AO2 PK WND 20031/2247 SLP174 T01330100"
  },
  "webcam_url": "https://atmos.uw.edu/data/images/webcam2_latest.jpg",
  "model_version": "latest"
}
