{
  "timestamp_utc": "2026-05-21T06:01:40Z",
  "class_index": 0,
  "class_name": "not_out",
  "is_out": false,
  "confidence": {
    "not_out": 0.9981874823570251,
    "full": 0.0012948054354637861,
    "partial": 0.0005176856648176908
  },
  "weather": {
    "station": "KSEA",
    "visibility_sm": 10.0,
    "ceiling_ft": null,
    "raw": "KSEA 210553Z 02006KT 10SM SCT250 15/07 A3016 RMK AO2 SLP218 T01500072 10200 20139 50004"
  },
  "webcam_url": "https://atmos.uw.edu/data/images/webcam2_latest.jpg",
  "model_version": "latest"
}
