{
  "timestamp_utc": "2026-05-14T23:30:20Z",
  "class_index": 0,
  "class_name": "not_out",
  "is_out": false,
  "confidence": {
    "not_out": 0.9923797845840454,
    "full": 0.000711664673872292,
    "partial": 0.006908489856868982
  },
  "weather": {
    "station": "KSEA",
    "visibility_sm": 10.0,
    "ceiling_ft": 3200.0,
    "raw": "KSEA 142253Z 22012G22KT 10SM -RA BKN032 BKN060 12/07 A3013 RMK AO2 RAB47 SLP209 P0000 T01220072 $"
  },
  "webcam_url": "https://atmos.uw.edu/data/images/webcam2_latest.jpg",
  "model_version": "latest"
}
