{
  "timestamp_utc": "2026-05-19T01:40:26Z",
  "class_index": 0,
  "class_name": "not_out",
  "is_out": false,
  "confidence": {
    "not_out": 0.5140127539634705,
    "full": 0.03324933722615242,
    "partial": 0.452737957239151
  },
  "weather": {
    "station": "KSEA",
    "visibility_sm": 10.0,
    "ceiling_ft": 9500.0,
    "raw": "KSEA 190053Z VRB03KT 10SM FEW040 BKN095 BKN230 18/06 A3021 RMK AO2 SLP237 T01830056"
  },
  "webcam_url": "https://atmos.uw.edu/data/images/webcam2_latest.jpg",
  "model_version": "latest"
}
