{
  "timestamp_utc": "2026-05-22T21:17:43Z",
  "class_index": 1,
  "class_name": "full",
  "is_out": true,
  "confidence": {
    "not_out": 0.06289325654506683,
    "full": 0.8348162770271301,
    "partial": 0.10229040682315826
  },
  "weather": {
    "station": "KSEA",
    "visibility_sm": 10.0,
    "ceiling_ft": null,
    "raw": "KSEA 222053Z 29005KT 10SM FEW060 FEW100 SCT250 24/09 A2992 RMK AO2 SLP136 T02390089 58016"
  },
  "webcam_url": "https://atmos.uw.edu/data/images/webcam2_latest.jpg",
  "model_version": "latest"
}
