{
  "timestamp_utc": "2026-05-08T14:26:01Z",
  "class_index": 0,
  "class_name": "not_out",
  "is_out": false,
  "confidence": {
    "not_out": 0.9678748250007629,
    "full": 0.010676363483071327,
    "partial": 0.021448802202939987
  },
  "weather": {
    "station": "KSEA",
    "visibility_sm": 10.0,
    "ceiling_ft": 20000.0,
    "raw": "KSEA 081353Z 19009KT 10SM FEW015 BKN200 BKN250 09/07 A3008 RMK AO2 SLP193 T00940067"
  },
  "webcam_url": "https://atmos.uw.edu/data/images/webcam2_latest.jpg",
  "model_version": "latest"
}
