{
  "timestamp_utc": "2026-05-08T04:52:15Z",
  "class_index": 2,
  "class_name": "partial",
  "is_out": true,
  "confidence": {
    "not_out": 0.4830624461174011,
    "full": 0.023852292448282242,
    "partial": 0.49308520555496216
  },
  "weather": {
    "station": "KSEA",
    "visibility_sm": 10.0,
    "ceiling_ft": 25000.0,
    "raw": "KSEA 080353Z 04005KT 10SM FEW040 SCT200 BKN250 16/07 A3003 RMK AO2 SLP176 T01610067 $"
  },
  "webcam_url": "https://atmos.uw.edu/data/images/webcam2_latest.jpg",
  "model_version": "latest"
}
