{
  "timestamp_utc": "2026-05-21T22:38:33Z",
  "class_index": 1,
  "class_name": "full",
  "is_out": true,
  "confidence": {
    "not_out": 0.12840479612350464,
    "full": 0.47304755449295044,
    "partial": 0.39854758977890015
  },
  "weather": {
    "station": "KSEA",
    "visibility_sm": 10.0,
    "ceiling_ft": null,
    "raw": "KSEA 212153Z 27007KT 10SM FEW080 FEW180 SCT250 23/09 A3007 RMK AO2 SLP188 T02280089"
  },
  "webcam_url": "https://atmos.uw.edu/data/images/webcam2_latest.jpg",
  "model_version": "latest"
}
