{
  "timestamp_utc": "2026-04-21T13:20:23Z",
  "class_index": 0,
  "class_name": "not_out",
  "is_out": false,
  "confidence": {
    "not_out": 0.7288042902946472,
    "full": 0.2646680176258087,
    "partial": 0.00652777124196291
  },
  "weather": {
    "station": "KSEA",
    "visibility_sm": 10.0,
    "ceiling_ft": 14000.0,
    "raw": "KSEA 211253Z 15006KT 10SM BKN140 BKN250 10/07 A2978 RMK AO2 SLP089 T01000067"
  },
  "webcam_url": "https://atmos.uw.edu/data/images/webcam2_latest.jpg",
  "model_version": "88d5950"
}
