{
  "timestamp_utc": "2026-05-03T20:10:32Z",
  "class_index": 2,
  "class_name": "partial",
  "is_out": true,
  "confidence": {
    "not_out": 0.033387139439582825,
    "full": 0.3839964270591736,
    "partial": 0.5826164484024048
  },
  "weather": {
    "station": "KSEA",
    "visibility_sm": 10.0,
    "ceiling_ft": null,
    "raw": "KSEA 031953Z 34006KT 10SM FEW110 SCT230 24/11 A2991 RMK AO2 SLP133 T02390106 $"
  },
  "webcam_url": "https://atmos.uw.edu/data/images/webcam2_latest.jpg",
  "model_version": "latest"
}
