{
  "timestamp_utc": "2026-05-19T03:11:02Z",
  "class_index": 0,
  "class_name": "not_out",
  "is_out": false,
  "confidence": {
    "not_out": 0.8921430706977844,
    "full": 0.1008000522851944,
    "partial": 0.007056893315166235
  },
  "weather": {
    "station": "KSEA",
    "visibility_sm": 10.0,
    "ceiling_ft": 8000.0,
    "raw": "KSEA 190253Z 35005KT 10SM FEW040 BKN080 17/05 A3021 RMK AO2 SLP236 T01720050 55005"
  },
  "webcam_url": "https://atmos.uw.edu/data/images/webcam2_latest.jpg",
  "model_version": "latest"
}
