{
  "timestamp_utc": "2026-05-09T20:23:32Z",
  "class_index": 0,
  "class_name": "not_out",
  "is_out": false,
  "confidence": {
    "not_out": 0.9953610301017761,
    "full": 0.002513439394533634,
    "partial": 0.0021255447063595057
  },
  "weather": {
    "station": "KSEA",
    "visibility_sm": 10.0,
    "ceiling_ft": 25000.0,
    "raw": "KSEA 091953Z 29009KT 10SM BKN250 18/09 A3013 RMK AO2 SLP207 T01830094"
  },
  "webcam_url": "https://atmos.uw.edu/data/images/webcam2_latest.jpg",
  "model_version": "latest"
}
