{
  "timestamp_utc": "2026-05-11T16:11:15Z",
  "class_index": 2,
  "class_name": "partial",
  "is_out": true,
  "confidence": {
    "not_out": 0.010440792888402939,
    "full": 0.23445914685726166,
    "partial": 0.7551001310348511
  },
  "weather": {
    "station": "KSEA",
    "visibility_sm": 10.0,
    "ceiling_ft": null,
    "raw": "KSEA 111553Z 36011KT 10SM FEW025 FEW060 SCT240 14/07 A3022 RMK AO2 SLP239 T01390072"
  },
  "webcam_url": "https://atmos.uw.edu/data/images/webcam2_latest.jpg",
  "model_version": "latest"
}
