{
  "timestamp_utc": "2026-05-22T13:14:28Z",
  "class_index": 1,
  "class_name": "full",
  "is_out": true,
  "confidence": {
    "not_out": 0.0026112988125532866,
    "full": 0.9932214021682739,
    "partial": 0.004167208448052406
  },
  "weather": {
    "station": "KSEA",
    "visibility_sm": 10.0,
    "ceiling_ft": null,
    "raw": "KSEA 221253Z 00000KT 10SM FEW130 FEW250 12/08 A2997 RMK AO2 SLP153 T01170078"
  },
  "webcam_url": "https://atmos.uw.edu/data/images/webcam2_latest.jpg",
  "model_version": "latest"
}
