{
  "timestamp_utc": "2026-05-13T10:13:48Z",
  "class_index": 0,
  "class_name": "not_out",
  "is_out": false,
  "confidence": {
    "not_out": 0.9986133575439453,
    "full": 0.001028820755891502,
    "partial": 0.0003578225150704384
  },
  "weather": {
    "station": "KSEA",
    "visibility_sm": 9.0,
    "ceiling_ft": 8000.0,
    "raw": "KSEA 130953Z 14008KT 9SM -RA OVC080 11/09 A2987 RMK AO2 SLP119 P0007 T01110094"
  },
  "webcam_url": "https://atmos.uw.edu/data/images/webcam2_latest.jpg",
  "model_version": "latest"
}
