{
  "timestamp_utc": "2026-05-17T08:23:39Z",
  "class_index": 0,
  "class_name": "not_out",
  "is_out": false,
  "confidence": {
    "not_out": 0.9981335997581482,
    "full": 0.0011829385766759515,
    "partial": 0.0006835017702542245
  },
  "weather": {
    "station": "KSEA",
    "visibility_sm": 10.0,
    "ceiling_ft": 25000.0,
    "raw": "KSEA 170753Z 13008KT 10SM SCT034 BKN250 07/04 A3022 RMK AO2 SLP239 T00670044 401500067"
  },
  "webcam_url": "https://atmos.uw.edu/data/images/webcam2_latest.jpg",
  "model_version": "latest"
}
