{
  "timestamp_utc": "2026-04-25T20:36:22Z",
  "class_index": 2,
  "class_name": "partial",
  "is_out": true,
  "confidence": {
    "not_out": 0.1291060894727707,
    "full": 0.3830024302005768,
    "partial": 0.48789146542549133
  },
  "weather": {
    "station": "KSEA",
    "visibility_sm": 10.0,
    "ceiling_ft": null,
    "raw": "KSEA 251953Z 31007KT 10SM FEW040 16/01 A2988 RMK AO2 SLP125 T01610006"
  },
  "webcam_url": "https://atmos.uw.edu/data/images/webcam2_latest.jpg",
  "model_version": "947296a"
}
