{
  "timestamp_utc": "2026-04-24T08:23:07Z",
  "class_index": 0,
  "class_name": "not_out",
  "is_out": false,
  "confidence": {
    "not_out": 0.9993100166320801,
    "full": 0.0003564748330973089,
    "partial": 0.00033360434463247657
  },
  "weather": {
    "station": "KSEA",
    "visibility_sm": 10.0,
    "ceiling_ft": null,
    "raw": "KSEA 240753Z 00000KT 10SM FEW060 08/06 A3016 RMK AO2 SLP220 T00830061 401440072"
  },
  "webcam_url": "https://atmos.uw.edu/data/images/webcam2_latest.jpg",
  "model_version": "a9d71f2"
}
