{
  "timestamp_utc": "2026-05-20T10:23:39Z",
  "class_index": 0,
  "class_name": "not_out",
  "is_out": false,
  "confidence": {
    "not_out": 0.998570442199707,
    "full": 0.0009633642621338367,
    "partial": 0.00046620675129815936
  },
  "weather": {
    "station": "KSEA",
    "visibility_sm": 10.0,
    "ceiling_ft": 1200.0,
    "raw": "KSEA 200953Z 00000KT 10SM OVC012 11/09 A3023 RMK AO2 SLP242 T01110094 $"
  },
  "webcam_url": "https://atmos.uw.edu/data/images/webcam2_latest.jpg",
  "model_version": "latest"
}
