{
  "timestamp_utc": "2026-05-10T07:43:05Z",
  "class_index": 0,
  "class_name": "not_out",
  "is_out": false,
  "confidence": {
    "not_out": 0.9959562420845032,
    "full": 0.0016981196822598577,
    "partial": 0.0023455785121768713
  },
  "weather": {
    "station": "KSEA",
    "visibility_sm": 10.0,
    "ceiling_ft": null,
    "raw": "KSEA 100653Z 36003KT 10SM SCT230 14/08 A3001 RMK AO2 SLP167 T01390078"
  },
  "webcam_url": "https://atmos.uw.edu/data/images/webcam2_latest.jpg",
  "model_version": "latest"
}
