{
  "timestamp_utc": "2026-05-05T19:44:39Z",
  "class_index": 0,
  "class_name": "not_out",
  "is_out": false,
  "confidence": {
    "not_out": 0.998462438583374,
    "full": 0.000020062856492586434,
    "partial": 0.0015174694126471877
  },
  "weather": {
    "station": "KSEA",
    "visibility_sm": 10.0,
    "ceiling_ft": 1500.0,
    "raw": "KSEA 051911Z 21008KT 10SM OVC015 14/10 A3002 RMK AO2 CIG 013V017 T01390100"
  },
  "webcam_url": "https://atmos.uw.edu/data/images/webcam2_latest.jpg",
  "model_version": "latest"
}
