{
  "timestamp_utc": "2026-05-07T09:14:32Z",
  "class_index": 0,
  "class_name": "not_out",
  "is_out": false,
  "confidence": {
    "not_out": 0.9994127750396729,
    "full": 0.00024269925779663026,
    "partial": 0.00034455262357369065
  },
  "weather": {
    "station": "KSEA",
    "visibility_sm": 10.0,
    "ceiling_ft": 3800.0,
    "raw": "KSEA 070853Z 20005KT 10SM SCT022 BKN038 10/08 A3016 RMK AO2 SLP218 60000 T01000078 55000 $"
  },
  "webcam_url": "https://atmos.uw.edu/data/images/webcam2_latest.jpg",
  "model_version": "latest"
}
