{
  "timestamp_utc": "2026-05-20T04:51:28Z",
  "class_index": 0,
  "class_name": "not_out",
  "is_out": false,
  "confidence": {
    "not_out": 0.9977509379386902,
    "full": 0.0016217806842178106,
    "partial": 0.0006273037288337946
  },
  "weather": {
    "station": "KSEA",
    "visibility_sm": 10.0,
    "ceiling_ft": 4800.0,
    "raw": "KSEA 200353Z 28003KT 10SM BKN048 BKN080 14/08 A3020 RMK AO2 SLP234 T01440078"
  },
  "webcam_url": "https://atmos.uw.edu/data/images/webcam2_latest.jpg",
  "model_version": "latest"
}
