{
  "timestamp_utc": "2026-04-21T23:52:05Z",
  "class_index": 0,
  "class_name": "not_out",
  "is_out": false,
  "confidence": {
    "not_out": 0.9896650910377502,
    "full": 4.4372511183610186e-05,
    "partial": 0.010290569625794888
  },
  "weather": {
    "station": "KSEA",
    "visibility_sm": 10.0,
    "ceiling_ft": 2300.0,
    "raw": "KSEA 212337Z 21010KT 10SM BKN023 OVC065 14/09 A2984 RMK AO2 T01440094"
  },
  "webcam_url": "https://atmos.uw.edu/data/images/webcam2_latest.jpg",
  "model_version": "f5737b0"
}
