{
  "timestamp_utc": "2026-05-07T12:15:44Z",
  "class_index": 0,
  "class_name": "not_out",
  "is_out": false,
  "confidence": {
    "not_out": 0.9981503486633301,
    "full": 0.000710059714037925,
    "partial": 0.0011396337067708373
  },
  "weather": {
    "station": "KSEA",
    "visibility_sm": 10.0,
    "ceiling_ft": 2900.0,
    "raw": "KSEA 071153Z 18004KT 10SM SCT019 OVC029 11/07 A3015 RMK AO2 SLP215 60000 T01060072 10106 20100 58003 $"
  },
  "webcam_url": "https://atmos.uw.edu/data/images/webcam2_latest.jpg",
  "model_version": "latest"
}
