{
  "timestamp_utc": "2026-05-04T01:12:34Z",
  "class_index": 1,
  "class_name": "full",
  "is_out": true,
  "confidence": {
    "not_out": 0.011467358097434044,
    "full": 0.9855734705924988,
    "partial": 0.0029591969214379787
  },
  "weather": {
    "station": "KSEA",
    "visibility_sm": 10.0,
    "ceiling_ft": null,
    "raw": "KSEA 040053Z 35008KT 10SM FEW050 27/09 A2982 RMK AO2 SLP102 T02670094 $"
  },
  "webcam_url": "https://atmos.uw.edu/data/images/webcam2_latest.jpg",
  "model_version": "latest"
}
