{
  "timestamp_utc": "2026-05-10T02:10:53Z",
  "class_index": 0,
  "class_name": "not_out",
  "is_out": false,
  "confidence": {
    "not_out": 0.9596607685089111,
    "full": 0.015574298799037933,
    "partial": 0.024764979258179665
  },
  "weather": {
    "station": "KSEA",
    "visibility_sm": 10.0,
    "ceiling_ft": 20000.0,
    "raw": "KSEA 100153Z 30004KT 10SM BKN200 19/08 A3002 RMK AO2 SLP172 T01890083"
  },
  "webcam_url": "https://atmos.uw.edu/data/images/webcam2_latest.jpg",
  "model_version": "latest"
}
