{
  "timestamp_utc": "2026-05-04T18:04:04Z",
  "class_index": 2,
  "class_name": "partial",
  "is_out": true,
  "confidence": {
    "not_out": 0.023475397378206253,
    "full": 0.09626895934343338,
    "partial": 0.8802556991577148
  },
  "weather": {
    "station": "KSEA",
    "visibility_sm": 10.0,
    "ceiling_ft": 25000.0,
    "raw": "KSEA 041753Z 20007KT 10SM BKN250 19/10 A2988 RMK AO2 SLP121 T01890100 10189 20133 51010"
  },
  "webcam_url": "https://atmos.uw.edu/data/images/webcam2_latest.jpg",
  "model_version": "latest"
}
