{
  "timestamp_utc": "2026-05-23T07:21:44Z",
  "class_index": 0,
  "class_name": "not_out",
  "is_out": false,
  "confidence": {
    "not_out": 0.9983218312263489,
    "full": 0.0008851251332089305,
    "partial": 0.0007931214640848339
  },
  "weather": {
    "station": "KSEA",
    "visibility_sm": 10.0,
    "ceiling_ft": null,
    "raw": "KSEA 230653Z 27003KT 10SM SCT250 14/10 A2986 RMK AO2 SLP117 T01440100"
  },
  "webcam_url": "https://atmos.uw.edu/data/images/webcam2_latest.jpg",
  "model_version": "latest"
}
