{
  "timestamp_utc": "2026-04-24T22:10:52Z",
  "class_index": 0,
  "class_name": "not_out",
  "is_out": false,
  "confidence": {
    "not_out": 0.7119612693786621,
    "full": 0.04224168509244919,
    "partial": 0.2457970827817917
  },
  "weather": {
    "station": "KSEA",
    "visibility_sm": 10.0,
    "ceiling_ft": null,
    "raw": "KSEA 242153Z 35019KT 10SM FEW040 FEW070 SCT240 17/M06 A3006 RMK AO2 PK WND 32027/2115 SLP186 T01671056"
  },
  "webcam_url": "https://atmos.uw.edu/data/images/webcam2_latest.jpg",
  "model_version": "04e66ec"
}
