{
  "timestamp_utc": "2026-05-22T17:16:06Z",
  "class_index": 2,
  "class_name": "partial",
  "is_out": true,
  "confidence": {
    "not_out": 0.08799882233142853,
    "full": 0.2639574408531189,
    "partial": 0.6480438113212585
  },
  "weather": {
    "station": "KSEA",
    "visibility_sm": 10.0,
    "ceiling_ft": null,
    "raw": "KSEA 221653Z 26004KT 10SM FEW080 SCT230 17/10 A2998 RMK AO2 SLP156 T01720100"
  },
  "webcam_url": "https://atmos.uw.edu/data/images/webcam2_latest.jpg",
  "model_version": "latest"
}
