{
  "timestamp_utc": "2026-05-04T00:42:22Z",
  "class_index": 1,
  "class_name": "full",
  "is_out": true,
  "confidence": {
    "not_out": 0.015516637824475765,
    "full": 0.9615151286125183,
    "partial": 0.02296820655465126
  },
  "weather": {
    "station": "KSEA",
    "visibility_sm": 10.0,
    "ceiling_ft": null,
    "raw": "KSEA 032353Z 36010KT 10SM FEW050 SCT140 SCT250 27/08 A2984 RMK AO2 SLP108 T02670083 10272 20217 58018 $"
  },
  "webcam_url": "https://atmos.uw.edu/data/images/webcam2_latest.jpg",
  "model_version": "latest"
}
