{
  "timestamp_utc": "2026-05-18T17:06:54Z",
  "class_index": 0,
  "class_name": "not_out",
  "is_out": false,
  "confidence": {
    "not_out": 0.7862623929977417,
    "full": 0.017236268147826195,
    "partial": 0.19650135934352875
  },
  "weather": {
    "station": "KSEA",
    "visibility_sm": 10.0,
    "ceiling_ft": 1500.0,
    "raw": "KSEA 181653Z 25006KT 10SM BKN015 BKN200 12/08 A3026 RMK AO2 SLP252 T01170078"
  },
  "webcam_url": "https://atmos.uw.edu/data/images/webcam2_latest.jpg",
  "model_version": "latest"
}
