{
  "timestamp_utc": "2026-05-18T19:22:52Z",
  "class_index": 1,
  "class_name": "full",
  "is_out": true,
  "confidence": {
    "not_out": 0.018867697566747665,
    "full": 0.8822659850120544,
    "partial": 0.09886623919010162
  },
  "weather": {
    "station": "KSEA",
    "visibility_sm": 10.0,
    "ceiling_ft": 20000.0,
    "raw": "KSEA 181853Z 26007KT 10SM FEW020 FEW080 BKN200 14/08 A3026 RMK AO2 SLP252 T01390078"
  },
  "webcam_url": "https://atmos.uw.edu/data/images/webcam2_latest.jpg",
  "model_version": "latest"
}
