{
  "timestamp_utc": "2026-05-08T10:39:32Z",
  "class_index": 0,
  "class_name": "not_out",
  "is_out": false,
  "confidence": {
    "not_out": 0.9943482279777527,
    "full": 0.004588418640196323,
    "partial": 0.0010634070495143533
  },
  "weather": {
    "station": "KSEA",
    "visibility_sm": 10.0,
    "ceiling_ft": 25000.0,
    "raw": "KSEA 080953Z 18005KT 10SM SCT190 OVC250 10/08 A3002 RMK AO2 SLP172 T01000083 $"
  },
  "webcam_url": "https://atmos.uw.edu/data/images/webcam2_latest.jpg",
  "model_version": "latest"
}
