{
  "timestamp_utc": "2026-05-03T08:36:06Z",
  "class_index": 0,
  "class_name": "not_out",
  "is_out": false,
  "confidence": {
    "not_out": 0.9983034133911133,
    "full": 0.0007989134173840284,
    "partial": 0.0008977064280770719
  },
  "weather": {
    "station": "KSEA",
    "visibility_sm": 10.0,
    "ceiling_ft": null,
    "raw": "KSEA 030753Z 02004KT 10SM CLR 17/06 A2996 RMK AO2 SLP149 T01720061 402330094 $"
  },
  "webcam_url": "https://atmos.uw.edu/data/images/webcam2_latest.jpg",
  "model_version": "latest"
}
