{
  "timestamp_utc": "2026-05-04T04:13:44Z",
  "class_index": 0,
  "class_name": "not_out",
  "is_out": false,
  "confidence": {
    "not_out": 0.9995336532592773,
    "full": 0.00017903473053593189,
    "partial": 0.0002872443583328277
  },
  "weather": {
    "station": "KSEA",
    "visibility_sm": 10.0,
    "ceiling_ft": null,
    "raw": "KSEA 040353Z 01008KT 10SM CLR 21/07 A2981 RMK AO2 SLP098 T02060072 $"
  },
  "webcam_url": "https://atmos.uw.edu/data/images/webcam2_latest.jpg",
  "model_version": "latest"
}
