{
  "timestamp_utc": "2026-04-21T19:53:40Z",
  "class_index": 0,
  "class_name": "not_out",
  "is_out": false,
  "confidence": {
    "not_out": 0.758749783039093,
    "full": 0.005903161596506834,
    "partial": 0.23534709215164185
  },
  "weather": {
    "station": "KSEA",
    "visibility_sm": 10.0,
    "ceiling_ft": 6000.0,
    "raw": "KSEA 211853Z 21007KT 10SM FEW040 BKN060 BKN100 BKN160 14/07 A2981 RMK AO2 SLP100 T01390067"
  },
  "webcam_url": "https://atmos.uw.edu/data/images/webcam2_latest.jpg",
  "model_version": "c984de1"
}
