{
  "timestamp_utc": "2026-05-12T18:37:18Z",
  "class_index": 0,
  "class_name": "not_out",
  "is_out": false,
  "confidence": {
    "not_out": 0.9485219717025757,
    "full": 0.034152258187532425,
    "partial": 0.01732577197253704
  },
  "weather": {
    "station": "KSEA",
    "visibility_sm": 10.0,
    "ceiling_ft": 24000.0,
    "raw": "KSEA 121753Z 27005KT 10SM FEW080 FEW140 BKN240 20/10 A2989 RMK AO2 SLP124 T02000100 10200 20111 58006"
  },
  "webcam_url": "https://atmos.uw.edu/data/images/webcam2_latest.jpg",
  "model_version": "latest"
}
