{
  "timestamp_utc": "2026-05-08T18:27:58Z",
  "class_index": 0,
  "class_name": "not_out",
  "is_out": false,
  "confidence": {
    "not_out": 0.992060661315918,
    "full": 0.000007399849891953636,
    "partial": 0.007931831292808056
  },
  "weather": {
    "station": "KSEA",
    "visibility_sm": 10.0,
    "ceiling_ft": 2700.0,
    "raw": "KSEA 081753Z 22010KT 10SM BKN027 OVC200 12/06 A3014 RMK AO2 SLP213 T01220056 10122 20094 53010"
  },
  "webcam_url": "https://atmos.uw.edu/data/images/webcam2_latest.jpg",
  "model_version": "latest"
}
