{
  "timestamp_utc": "2026-05-08T22:14:30Z",
  "class_index": 0,
  "class_name": "not_out",
  "is_out": false,
  "confidence": {
    "not_out": 0.9630863070487976,
    "full": 0.00550646148622036,
    "partial": 0.031407248228788376
  },
  "weather": {
    "station": "KSEA",
    "visibility_sm": 10.0,
    "ceiling_ft": 3800.0,
    "raw": "KSEA 082153Z 21012G18KT 10SM BKN038 BKN110 16/05 A3017 RMK AO2 SLP224 T01610050"
  },
  "webcam_url": "https://atmos.uw.edu/data/images/webcam2_latest.jpg",
  "model_version": "latest"
}
