{
  "timestamp_utc": "2026-05-07T03:57:27Z",
  "class_index": 0,
  "class_name": "not_out",
  "is_out": false,
  "confidence": {
    "not_out": 0.9967268705368042,
    "full": 0.002695049624890089,
    "partial": 0.0005780024803243577
  },
  "weather": {
    "station": "KSEA",
    "visibility_sm": 10.0,
    "ceiling_ft": 2500.0,
    "raw": "KSEA 070253Z 23007KT 10SM OVC025 13/09 A3014 RMK AO2 SLP212 T01280089 55001 $"
  },
  "webcam_url": "https://atmos.uw.edu/data/images/webcam2_latest.jpg",
  "model_version": "latest"
}
