{
  "timestamp_utc": "2026-05-19T13:45:21Z",
  "class_index": 0,
  "class_name": "not_out",
  "is_out": false,
  "confidence": {
    "not_out": 0.9995914101600647,
    "full": 0.000017967564417631365,
    "partial": 0.00039055829984135926
  },
  "weather": {
    "station": "KSEA",
    "visibility_sm": 10.0,
    "ceiling_ft": 1500.0,
    "raw": "KSEA 191253Z 19005KT 10SM BKN015 BKN024 OVC060 11/08 A3025 RMK AO2 SLP248 T01110083"
  },
  "webcam_url": "https://atmos.uw.edu/data/images/webcam2_latest.jpg",
  "model_version": "latest"
}
