{
  "timestamp_utc": "2026-05-16T16:32:44Z",
  "class_index": 0,
  "class_name": "not_out",
  "is_out": false,
  "confidence": {
    "not_out": 0.9952497482299805,
    "full": 0.00011108573380624875,
    "partial": 0.004639203194528818
  },
  "weather": {
    "station": "KSEA",
    "visibility_sm": 10.0,
    "ceiling_ft": 2400.0,
    "raw": "KSEA 161553Z 20007KT 10SM SCT014 BKN024 OVC030 08/06 A3013 RMK AO2 SLP211 T00830056"
  },
  "webcam_url": "https://atmos.uw.edu/data/images/webcam2_latest.jpg",
  "model_version": "latest"
}
