{
  "timestamp_utc": "2026-05-12T05:46:53Z",
  "class_index": 0,
  "class_name": "not_out",
  "is_out": false,
  "confidence": {
    "not_out": 0.9979503750801086,
    "full": 0.0012175159063190222,
    "partial": 0.0008322016219608486
  },
  "weather": {
    "station": "KSEA",
    "visibility_sm": 10.0,
    "ceiling_ft": null,
    "raw": "KSEA 120453Z 36010KT 10SM FEW250 16/07 A3004 RMK AO2 SLP178 T01610072"
  },
  "webcam_url": "https://atmos.uw.edu/data/images/webcam2_latest.jpg",
  "model_version": "latest"
}
