{
  "timestamp_utc": "2026-05-21T08:17:34Z",
  "class_index": 0,
  "class_name": "not_out",
  "is_out": false,
  "confidence": {
    "not_out": 0.9986044764518738,
    "full": 0.0010385174537077546,
    "partial": 0.00035703618777915835
  },
  "weather": {
    "station": "KSEA",
    "visibility_sm": 10.0,
    "ceiling_ft": null,
    "raw": "KSEA 210753Z 05007KT 10SM SCT250 14/08 A3016 RMK AO2 SLP218 T01390078 402000100 $"
  },
  "webcam_url": "https://atmos.uw.edu/data/images/webcam2_latest.jpg",
  "model_version": "latest"
}
