{
  "timestamp_utc": "2026-05-22T20:32:25Z",
  "class_index": 1,
  "class_name": "full",
  "is_out": true,
  "confidence": {
    "not_out": 0.01989094913005829,
    "full": 0.7374152541160583,
    "partial": 0.24269382655620575
  },
  "weather": {
    "station": "KSEA",
    "visibility_sm": 10.0,
    "ceiling_ft": null,
    "raw": "KSEA 221953Z 26005KT 10SM FEW060 FEW100 SCT240 22/08 A2994 RMK AO2 SLP144 T02170083"
  },
  "webcam_url": "https://atmos.uw.edu/data/images/webcam2_latest.jpg",
  "model_version": "latest"
}
