{
  "timestamp_utc": "2026-05-22T23:33:37Z",
  "class_index": 1,
  "class_name": "full",
  "is_out": true,
  "confidence": {
    "not_out": 0.0814327821135521,
    "full": 0.8920922875404358,
    "partial": 0.026474859565496445
  },
  "weather": {
    "station": "KSEA",
    "visibility_sm": 10.0,
    "ceiling_ft": 25000.0,
    "raw": "KSEA 222253Z VRB05KT 10SM FEW060 BKN250 24/10 A2989 RMK AO2 SLP125 T02440100"
  },
  "webcam_url": "https://atmos.uw.edu/data/images/webcam2_latest.jpg",
  "model_version": "latest"
}
