{
  "timestamp_utc": "2026-05-06T21:24:53Z",
  "class_index": 0,
  "class_name": "not_out",
  "is_out": false,
  "confidence": {
    "not_out": 0.9872931241989136,
    "full": 0.000029821529096807353,
    "partial": 0.012677057646214962
  },
  "weather": {
    "station": "KSEA",
    "visibility_sm": 10.0,
    "ceiling_ft": 2000.0,
    "raw": "KSEA 062053Z 24006KT 10SM OVC020 13/08 A3015 RMK AO2 SLP216 T01330083 53006 $"
  },
  "webcam_url": "https://atmos.uw.edu/data/images/webcam2_latest.jpg",
  "model_version": "latest"
}
