{
  "timestamp_utc": "2026-05-04T08:15:15Z",
  "class_index": 0,
  "class_name": "not_out",
  "is_out": false,
  "confidence": {
    "not_out": 0.9983025789260864,
    "full": 0.0010597852524369955,
    "partial": 0.0006376179517246783
  },
  "weather": {
    "station": "KSEA",
    "visibility_sm": 10.0,
    "ceiling_ft": null,
    "raw": "KSEA 040753Z 00000KT 10SM FEW250 19/06 A2982 RMK AO2 SLP100 T01890061 402720133 $"
  },
  "webcam_url": "https://atmos.uw.edu/data/images/webcam2_latest.jpg",
  "model_version": "latest"
}
