{
  "timestamp_utc": "2026-05-15T14:21:29Z",
  "class_index": 0,
  "class_name": "not_out",
  "is_out": false,
  "confidence": {
    "not_out": 0.9963233470916748,
    "full": 0.000005894027708563954,
    "partial": 0.0036706975661218166
  },
  "weather": {
    "station": "KSEA",
    "visibility_sm": 10.0,
    "ceiling_ft": 1700.0,
    "raw": "KSEA 151353Z 17011KT 10SM FEW014 BKN017 BKN024 09/06 A3013 RMK AO2 SLP211 T00890056 $"
  },
  "webcam_url": "https://atmos.uw.edu/data/images/webcam2_latest.jpg",
  "model_version": "latest"
}
