{
  "timestamp_utc": "2026-05-12T21:23:28Z",
  "class_index": 0,
  "class_name": "not_out",
  "is_out": false,
  "confidence": {
    "not_out": 0.6455953121185303,
    "full": 0.23022039234638214,
    "partial": 0.124184250831604
  },
  "weather": {
    "station": "KSEA",
    "visibility_sm": 10.0,
    "ceiling_ft": 11000.0,
    "raw": "KSEA 122053Z 24006KT 10SM FEW032 SCT075 BKN110 BKN240 24/10 A2984 RMK AO2 RAB07E24 SLP109 P0000 60000 T02390100 58015"
  },
  "webcam_url": "https://atmos.uw.edu/data/images/webcam2_latest.jpg",
  "model_version": "latest"
}
