{
  "timestamp_utc": "2026-05-16T13:01:24Z",
  "class_index": 0,
  "class_name": "not_out",
  "is_out": false,
  "confidence": {
    "not_out": 0.9983522891998291,
    "full": 0.000011411932973715011,
    "partial": 0.0016362702008336782
  },
  "weather": {
    "station": "KSEA",
    "visibility_sm": 10.0,
    "ceiling_ft": 12000.0,
    "raw": "KSEA 161253Z 20009KT 10SM FEW011 SCT017 BKN120 07/04 A3008 RMK AO2 SLP194 T00720044"
  },
  "webcam_url": "https://atmos.uw.edu/data/images/webcam2_latest.jpg",
  "model_version": "latest"
}
