{
  "timestamp_utc": "2026-05-05T22:15:41Z",
  "class_index": 0,
  "class_name": "not_out",
  "is_out": false,
  "confidence": {
    "not_out": 0.9829855561256409,
    "full": 0.00007725878822384402,
    "partial": 0.01693721115589142
  },
  "weather": {
    "station": "KSEA",
    "visibility_sm": 10.0,
    "ceiling_ft": 2000.0,
    "raw": "KSEA 052153Z 24007KT 10SM OVC020 16/10 A3002 RMK AO2 SLP173 T01560100"
  },
  "webcam_url": "https://atmos.uw.edu/data/images/webcam2_latest.jpg",
  "model_version": "latest"
}
