{
  "timestamp_utc": "2026-05-13T15:46:25Z",
  "class_index": 0,
  "class_name": "not_out",
  "is_out": false,
  "confidence": {
    "not_out": 0.9954882264137268,
    "full": 0.000007844560059311334,
    "partial": 0.004503991920500994
  },
  "weather": {
    "station": "KSEA",
    "visibility_sm": 10.0,
    "ceiling_ft": 3800.0,
    "raw": "KSEA 131453Z 18009KT 10SM FEW026 BKN038 OVC100 12/10 A2988 RMK AO2 SLP122 T01170100 53008"
  },
  "webcam_url": "https://atmos.uw.edu/data/images/webcam2_latest.jpg",
  "model_version": "latest"
}
