{
  "timestamp_utc": "2026-05-12T00:59:53Z",
  "class_index": 1,
  "class_name": "full",
  "is_out": true,
  "confidence": {
    "not_out": 0.007367956452071667,
    "full": 0.9822925925254822,
    "partial": 0.010339390486478806
  },
  "weather": {
    "station": "KSEA",
    "visibility_sm": 10.0,
    "ceiling_ft": null,
    "raw": "KSEA 120053Z 34009KT 10SM SCT230 21/07 A3006 RMK AO2 SLP184 T02110072"
  },
  "webcam_url": "https://atmos.uw.edu/data/images/webcam2_latest.jpg",
  "model_version": "latest"
}
