{
  "timestamp_utc": "2026-05-16T00:11:24Z",
  "class_index": 0,
  "class_name": "not_out",
  "is_out": false,
  "confidence": {
    "not_out": 0.9705511927604675,
    "full": 0.000019064864318352193,
    "partial": 0.029429703950881958
  },
  "weather": {
    "station": "KSEA",
    "visibility_sm": 10.0,
    "ceiling_ft": 3000.0,
    "raw": "KSEA 152353Z 20012KT 10SM FEW020 BKN030 OVC035 10/06 A3009 RMK AO2 SLP197 60004 T01000061 10100 20083 58006"
  },
  "webcam_url": "https://atmos.uw.edu/data/images/webcam2_latest.jpg",
  "model_version": "latest"
}
