{
  "timestamp_utc": "2026-04-24T14:21:21Z",
  "class_index": 1,
  "class_name": "full",
  "is_out": true,
  "confidence": {
    "not_out": 0.006194170564413071,
    "full": 0.9752110838890076,
    "partial": 0.018594756722450256
  },
  "weather": {
    "station": "KSEA",
    "visibility_sm": 9.0,
    "ceiling_ft": null,
    "raw": "KSEA 241353Z 04003KT 9SM FEW030 FEW130 07/05 A3017 RMK AO2 SLP223 T00720050"
  },
  "webcam_url": "https://atmos.uw.edu/data/images/webcam2_latest.jpg",
  "model_version": "5ef1014"
}
