{
  "timestamp_utc": "2026-05-19T18:17:13Z",
  "class_index": 0,
  "class_name": "not_out",
  "is_out": false,
  "confidence": {
    "not_out": 0.8928598761558533,
    "full": 0.00004626108784577809,
    "partial": 0.10709378868341446
  },
  "weather": {
    "station": "KSEA",
    "visibility_sm": 10.0,
    "ceiling_ft": 1600.0,
    "raw": "KSEA 191753Z 20006KT 10SM BKN016 OVC020 12/08 A3028 RMK AO2 SLP259 T01220078 10128 20106 53003"
  },
  "webcam_url": "https://atmos.uw.edu/data/images/webcam2_latest.jpg",
  "model_version": "latest"
}
