{
  "timestamp_utc": "2026-05-21T12:49:26Z",
  "class_index": 1,
  "class_name": "full",
  "is_out": true,
  "confidence": {
    "not_out": 0.02676534466445446,
    "full": 0.9669439196586609,
    "partial": 0.006290673743933439
  },
  "weather": {
    "station": "KSEA",
    "visibility_sm": 10.0,
    "ceiling_ft": null,
    "raw": "KSEA 211153Z 01003KT 10SM CLR 11/07 A3015 RMK AO2 SLP217 T01110072 10156 20111 56002 $"
  },
  "webcam_url": "https://atmos.uw.edu/data/images/webcam2_latest.jpg",
  "model_version": "latest"
}
