{
  "timestamp_utc": "2026-05-17T14:56:10Z",
  "class_index": 0,
  "class_name": "not_out",
  "is_out": false,
  "confidence": {
    "not_out": 0.9972661733627319,
    "full": 0.00003629025013651699,
    "partial": 0.002697525080293417
  },
  "weather": {
    "station": "KSEA",
    "visibility_sm": 10.0,
    "ceiling_ft": 3500.0,
    "raw": "KSEA 171453Z 28003KT 10SM FEW005 OVC035 07/06 A3028 RMK AO2 SLP262 T00720061 53013 $"
  },
  "webcam_url": "https://atmos.uw.edu/data/images/webcam2_latest.jpg",
  "model_version": "latest"
}
