{
  "timestamp_utc": "2026-05-15T06:03:11Z",
  "class_index": 0,
  "class_name": "not_out",
  "is_out": false,
  "confidence": {
    "not_out": 0.9972792267799377,
    "full": 0.0017225630581378937,
    "partial": 0.0009982278570532799
  },
  "weather": {
    "station": "KSEA",
    "visibility_sm": 10.0,
    "ceiling_ft": 2800.0,
    "raw": "KSEA 150553Z 20012KT 10SM SCT016 BKN028 10/08 A3011 RMK AO2 RAB11E21 SLP201 SCT V BKN P0000 60001 T01000083 10128 20100 56000 $"
  },
  "webcam_url": "https://atmos.uw.edu/data/images/webcam2_latest.jpg",
  "model_version": "latest"
}
