{
  "timestamp_utc": "2026-05-16T13:46:41Z",
  "class_index": 0,
  "class_name": "not_out",
  "is_out": false,
  "confidence": {
    "not_out": 0.9978001713752747,
    "full": 0.00047033437294885516,
    "partial": 0.0017295111902058125
  },
  "weather": {
    "station": "KSEA",
    "visibility_sm": 10.0,
    "ceiling_ft": 2800.0,
    "raw": "KSEA 161319Z 20004KT 10SM SCT014 BKN028 BKN120 07/05 A3009 RMK AO2 T00720050"
  },
  "webcam_url": "https://atmos.uw.edu/data/images/webcam2_latest.jpg",
  "model_version": "latest"
}
