{
  "timestamp_utc": "2026-05-23T19:11:28Z",
  "class_index": 0,
  "class_name": "not_out",
  "is_out": false,
  "confidence": {
    "not_out": 0.9994586110115051,
    "full": 0.00002765556564554572,
    "partial": 0.0005137988482601941
  },
  "weather": {
    "station": "KSEA",
    "visibility_sm": 10.0,
    "ceiling_ft": 1000.0,
    "raw": "KSEA 231853Z 21008KT 10SM OVC010 13/09 A3001 RMK AO2 SLP170 T01280094"
  },
  "webcam_url": "https://atmos.uw.edu/data/images/webcam2_latest.jpg",
  "model_version": "latest"
}
