{
  "timestamp_utc": "2026-05-18T17:52:13Z",
  "class_index": 2,
  "class_name": "partial",
  "is_out": true,
  "confidence": {
    "not_out": 0.3766651451587677,
    "full": 0.1993071734905243,
    "partial": 0.42402762174606323
  },
  "weather": {
    "station": "KSEA",
    "visibility_sm": 10.0,
    "ceiling_ft": 20000.0,
    "raw": "KSEA 181744Z 25008KT 10SM SCT018 BKN200 12/07 A3026 RMK AO2 T01220067"
  },
  "webcam_url": "https://atmos.uw.edu/data/images/webcam2_latest.jpg",
  "model_version": "latest"
}
