{
  "timestamp_utc": "2026-04-25T21:22:17Z",
  "class_index": 2,
  "class_name": "partial",
  "is_out": true,
  "confidence": {
    "not_out": 0.06120143085718155,
    "full": 0.16686159372329712,
    "partial": 0.7719369530677795
  },
  "weather": {
    "station": "KSEA",
    "visibility_sm": 10.0,
    "ceiling_ft": null,
    "raw": "KSEA 252053Z 32010G20KT 10SM FEW040 17/M06 A2986 RMK AO2 SLP119 T01721056 58018"
  },
  "webcam_url": "https://atmos.uw.edu/data/images/webcam2_latest.jpg",
  "model_version": "37d6b96"
}
