{
  "timestamp_utc": "2026-05-21T03:30:41Z",
  "class_index": 0,
  "class_name": "not_out",
  "is_out": false,
  "confidence": {
    "not_out": 0.8577929735183716,
    "full": 0.016351433470845222,
    "partial": 0.12585557997226715
  },
  "weather": {
    "station": "KSEA",
    "visibility_sm": 10.0,
    "ceiling_ft": 22000.0,
    "raw": "KSEA 210253Z 31005KT 10SM FEW035 BKN220 17/07 A3015 RMK AO2 SLP214 T01720067 56009"
  },
  "webcam_url": "https://atmos.uw.edu/data/images/webcam2_latest.jpg",
  "model_version": "latest"
}
