{
  "timestamp_utc": "2026-05-16T22:04:47Z",
  "class_index": 0,
  "class_name": "not_out",
  "is_out": false,
  "confidence": {
    "not_out": 0.9957600235939026,
    "full": 0.00048179778968915343,
    "partial": 0.0037581217475235462
  },
  "weather": {
    "station": "KSEA",
    "visibility_sm": 10.0,
    "ceiling_ft": 6000.0,
    "raw": "KSEA 162153Z VRB03KT 10SM -RA FEW035 BKN060 BKN075 13/04 A3014 RMK AO2 RAB50 SLP212 P0000 T01280044"
  },
  "webcam_url": "https://atmos.uw.edu/data/images/webcam2_latest.jpg",
  "model_version": "latest"
}
