{
  "timestamp_utc": "2026-05-23T15:09:50Z",
  "class_index": 0,
  "class_name": "not_out",
  "is_out": false,
  "confidence": {
    "not_out": 0.9995729327201843,
    "full": 0.00018952321261167526,
    "partial": 0.00023750870604999363
  },
  "weather": {
    "station": "KSEA",
    "visibility_sm": 10.0,
    "ceiling_ft": 400.0,
    "raw": "KSEA 231453Z 20006KT 10SM OVC004 11/09 A2996 RMK AO2 SLP150 T01110094 53019"
  },
  "webcam_url": "https://atmos.uw.edu/data/images/webcam2_latest.jpg",
  "model_version": "latest"
}
