{
  "timestamp_utc": "2026-05-18T13:05:12Z",
  "class_index": 0,
  "class_name": "not_out",
  "is_out": false,
  "confidence": {
    "not_out": 0.9173665642738342,
    "full": 0.08054298162460327,
    "partial": 0.0020905265118926764
  },
  "weather": {
    "station": "KSEA",
    "visibility_sm": 10.0,
    "ceiling_ft": 19000.0,
    "raw": "KSEA 181253Z 17004KT 10SM FEW010 BKN190 08/06 A3024 RMK AO2 SLP248 T00780056 $"
  },
  "webcam_url": "https://atmos.uw.edu/data/images/webcam2_latest.jpg",
  "model_version": "latest"
}
