{
  "timestamp_utc": "2026-05-20T00:34:48Z",
  "class_index": 0,
  "class_name": "not_out",
  "is_out": false,
  "confidence": {
    "not_out": 0.9927886128425598,
    "full": 0.002859486034139991,
    "partial": 0.004351905081421137
  },
  "weather": {
    "station": "KSEA",
    "visibility_sm": 10.0,
    "ceiling_ft": 8000.0,
    "raw": "KSEA 192353Z 27006KT 10SM SCT035 BKN080 BKN180 17/09 A3022 RMK AO2 SLP238 T01720089 10183 20122 58012"
  },
  "webcam_url": "https://atmos.uw.edu/data/images/webcam2_latest.jpg",
  "model_version": "latest"
}
