{
  "timestamp_utc": "2026-05-11T11:39:17Z",
  "class_index": 0,
  "class_name": "not_out",
  "is_out": false,
  "confidence": {
    "not_out": 0.9983983635902405,
    "full": 0.0008971802890300751,
    "partial": 0.0007044450030662119
  },
  "weather": {
    "station": "KSEA",
    "visibility_sm": 10.0,
    "ceiling_ft": 2500.0,
    "raw": "KSEA 111100Z 09003KT 10SM BKN025 OVC043 12/09 A3024 RMK AO2 T01170094 $"
  },
  "webcam_url": "https://atmos.uw.edu/data/images/webcam2_latest.jpg",
  "model_version": "latest"
}
