{
  "timestamp_utc": "2026-05-12T16:06:11Z",
  "class_index": 2,
  "class_name": "partial",
  "is_out": true,
  "confidence": {
    "not_out": 0.013984357938170433,
    "full": 0.024660611525177956,
    "partial": 0.9613550305366516
  },
  "weather": {
    "station": "KSEA",
    "visibility_sm": 10.0,
    "ceiling_ft": 25000.0,
    "raw": "KSEA 121553Z 35004KT 10SM FEW080 FEW180 BKN250 17/09 A2991 RMK AO2 SLP134 T01670094"
  },
  "webcam_url": "https://atmos.uw.edu/data/images/webcam2_latest.jpg",
  "model_version": "latest"
}
