{
  "timestamp_utc": "2026-05-17T11:09:40Z",
  "class_index": 0,
  "class_name": "not_out",
  "is_out": false,
  "confidence": {
    "not_out": 0.9982343912124634,
    "full": 0.0012370279291644692,
    "partial": 0.0005285858642309904
  },
  "weather": {
    "station": "KSEA",
    "visibility_sm": 10.0,
    "ceiling_ft": 9000.0,
    "raw": "KSEA 171053Z 00000KT 10SM SCT060 OVC090 06/04 A3024 RMK AO2 SLP249 T00610044 $"
  },
  "webcam_url": "https://atmos.uw.edu/data/images/webcam2_latest.jpg",
  "model_version": "latest"
}
