{
  "timestamp_utc": "2026-05-11T22:43:59Z",
  "class_index": 2,
  "class_name": "partial",
  "is_out": true,
  "confidence": {
    "not_out": 0.033317532390356064,
    "full": 0.25191593170166016,
    "partial": 0.7147665619850159
  },
  "weather": {
    "station": "KSEA",
    "visibility_sm": 10.0,
    "ceiling_ft": null,
    "raw": "KSEA 112153Z 34013G17KT 10SM FEW040 FEW200 SCT250 21/06 A3012 RMK AO2 SLP205 T02110061"
  },
  "webcam_url": "https://atmos.uw.edu/data/images/webcam2_latest.jpg",
  "model_version": "latest"
}
