{
  "timestamp_utc": "2026-05-08T01:20:51Z",
  "class_index": 2,
  "class_name": "partial",
  "is_out": true,
  "confidence": {
    "not_out": 0.02616022527217865,
    "full": 0.021763794124126434,
    "partial": 0.9520759582519531
  },
  "weather": {
    "station": "KSEA",
    "visibility_sm": 10.0,
    "ceiling_ft": 20000.0,
    "raw": "KSEA 080053Z 00000KT 10SM FEW040 BKN200 17/07 A3006 RMK AO2 SLP184 T01670072 $"
  },
  "webcam_url": "https://atmos.uw.edu/data/images/webcam2_latest.jpg",
  "model_version": "latest"
}
