{
  "timestamp_utc": "2026-05-08T08:53:51Z",
  "class_index": 0,
  "class_name": "not_out",
  "is_out": false,
  "confidence": {
    "not_out": 0.9922803640365601,
    "full": 0.0060951365157961845,
    "partial": 0.0016245708102360368
  },
  "weather": {
    "station": "KSEA",
    "visibility_sm": 10.0,
    "ceiling_ft": 18000.0,
    "raw": "KSEA 080753Z 16004KT 10SM BKN180 BKN250 11/09 A3002 RMK AO2 SLP171 T01110089 401780100 $"
  },
  "webcam_url": "https://atmos.uw.edu/data/images/webcam2_latest.jpg",
  "model_version": "latest"
}
