{
  "timestamp_utc": "2026-05-03T01:48:31Z",
  "class_index": 0,
  "class_name": "not_out",
  "is_out": false,
  "confidence": {
    "not_out": 0.3927476704120636,
    "full": 0.33240586519241333,
    "partial": 0.27484652400016785
  },
  "weather": {
    "station": "KSEA",
    "visibility_sm": 10.0,
    "ceiling_ft": null,
    "raw": "KSEA 030053Z 35009KT 10SM FEW100 FEW250 23/10 A2992 RMK AO2 SLP137 T02280100 $"
  },
  "webcam_url": "https://atmos.uw.edu/data/images/webcam2_latest.jpg",
  "model_version": "latest"
}
