{
  "timestamp_utc": "2026-05-09T22:09:16Z",
  "class_index": 0,
  "class_name": "not_out",
  "is_out": false,
  "confidence": {
    "not_out": 0.9877344965934753,
    "full": 0.005690660793334246,
    "partial": 0.006574708968400955
  },
  "weather": {
    "station": "KSEA",
    "visibility_sm": 10.0,
    "ceiling_ft": 25000.0,
    "raw": "KSEA 092153Z 31008KT 10SM BKN250 19/07 A3010 RMK AO2 SLP198 T01890072"
  },
  "webcam_url": "https://atmos.uw.edu/data/images/webcam2_latest.jpg",
  "model_version": "latest"
}
