{
  "timestamp_utc": "2026-05-14T09:24:19Z",
  "class_index": 0,
  "class_name": "not_out",
  "is_out": false,
  "confidence": {
    "not_out": 0.998428225517273,
    "full": 0.001220044563524425,
    "partial": 0.00035175937227904797
  },
  "weather": {
    "station": "KSEA",
    "visibility_sm": 10.0,
    "ceiling_ft": 1800.0,
    "raw": "KSEA 140853Z 17011G18KT 10SM BKN018 11/08 A3015 RMK AO2 SLP216 T01060078 53007"
  },
  "webcam_url": "https://atmos.uw.edu/data/images/webcam2_latest.jpg",
  "model_version": "latest"
}
