{
  "timestamp_utc": "2026-05-12T17:06:37Z",
  "class_index": 0,
  "class_name": "not_out",
  "is_out": false,
  "confidence": {
    "not_out": 0.7769474983215332,
    "full": 0.029592886567115784,
    "partial": 0.19345960021018982
  },
  "weather": {
    "station": "KSEA",
    "visibility_sm": 10.0,
    "ceiling_ft": 24000.0,
    "raw": "KSEA 121653Z VRB03KT 10SM FEW080 FEW140 BKN240 19/09 A2990 RMK AO2 SLP130 T01890094"
  },
  "webcam_url": "https://atmos.uw.edu/data/images/webcam2_latest.jpg",
  "model_version": "latest"
}
