{
  "timestamp_utc": "2026-05-21T09:02:53Z",
  "class_index": 0,
  "class_name": "not_out",
  "is_out": false,
  "confidence": {
    "not_out": 0.9985161423683167,
    "full": 0.001010511303320527,
    "partial": 0.00047338948934338987
  },
  "weather": {
    "station": "KSEA",
    "visibility_sm": 10.0,
    "ceiling_ft": null,
    "raw": "KSEA 210853Z 03010KT 10SM FEW250 13/07 A3016 RMK AO2 SLP218 T01330072 54000 $"
  },
  "webcam_url": "https://atmos.uw.edu/data/images/webcam2_latest.jpg",
  "model_version": "latest"
}
