{
  "timestamp_utc": "2026-05-10T00:25:10Z",
  "class_index": 0,
  "class_name": "not_out",
  "is_out": false,
  "confidence": {
    "not_out": 0.9552527070045471,
    "full": 0.03195328265428543,
    "partial": 0.012794016860425472
  },
  "weather": {
    "station": "KSEA",
    "visibility_sm": 10.0,
    "ceiling_ft": 20000.0,
    "raw": "KSEA 092353Z 01005KT 10SM BKN200 21/07 A3006 RMK AO2 SLP185 T02060072 10206 20161 58015"
  },
  "webcam_url": "https://atmos.uw.edu/data/images/webcam2_latest.jpg",
  "model_version": "latest"
}
