{
  "timestamp_utc": "2026-05-15T05:48:06Z",
  "class_index": 0,
  "class_name": "not_out",
  "is_out": false,
  "confidence": {
    "not_out": 0.9974229335784912,
    "full": 0.0016909477999433875,
    "partial": 0.0008861381793394685
  },
  "weather": {
    "station": "KSEA",
    "visibility_sm": 10.0,
    "ceiling_ft": 2500.0,
    "raw": "KSEA 150526Z 18012KT 10SM FEW018 BKN025 OVC032 11/08 A3011 RMK AO2 RAB11E21 P0000 T01060078 $"
  },
  "webcam_url": "https://atmos.uw.edu/data/images/webcam2_latest.jpg",
  "model_version": "latest"
}
