{
  "timestamp_utc": "2026-05-08T03:21:36Z",
  "class_index": 0,
  "class_name": "not_out",
  "is_out": false,
  "confidence": {
    "not_out": 0.9409677386283875,
    "full": 0.01197179313749075,
    "partial": 0.04706047847867012
  },
  "weather": {
    "station": "KSEA",
    "visibility_sm": 10.0,
    "ceiling_ft": 22000.0,
    "raw": "KSEA 080253Z 00000KT 10SM FEW030 FEW045 BKN220 16/08 A3003 RMK AO2 SLP175 T01610078 58011 $"
  },
  "webcam_url": "https://atmos.uw.edu/data/images/webcam2_latest.jpg",
  "model_version": "latest"
}
