{
  "timestamp_utc": "2026-05-20T08:53:03Z",
  "class_index": 0,
  "class_name": "not_out",
  "is_out": false,
  "confidence": {
    "not_out": 0.9986850619316101,
    "full": 0.0008346016402356327,
    "partial": 0.00048037467058748007
  },
  "weather": {
    "station": "KSEA",
    "visibility_sm": 10.0,
    "ceiling_ft": 1400.0,
    "raw": "KSEA 200849Z 27004KT 10SM OVC014 11/09 A3023 RMK AO2 $"
  },
  "webcam_url": "https://atmos.uw.edu/data/images/webcam2_latest.jpg",
  "model_version": "latest"
}
