{
  "timestamp_utc": "2026-05-07T17:02:36Z",
  "class_index": 0,
  "class_name": "not_out",
  "is_out": false,
  "confidence": {
    "not_out": 0.9816453456878662,
    "full": 0.00013165462587494403,
    "partial": 0.018223043531179428
  },
  "weather": {
    "station": "KSEA",
    "visibility_sm": 10.0,
    "ceiling_ft": 20000.0,
    "raw": "KSEA 071653Z 21004KT 10SM FEW016 SCT032 BKN200 13/07 A3014 RMK AO2 SLP213 T01280072 $"
  },
  "webcam_url": "https://atmos.uw.edu/data/images/webcam2_latest.jpg",
  "model_version": "latest"
}
