{
  "timestamp_utc": "2026-05-09T15:06:23Z",
  "class_index": 2,
  "class_name": "partial",
  "is_out": true,
  "confidence": {
    "not_out": 0.007522010710090399,
    "full": 0.4258866012096405,
    "partial": 0.5665914416313171
  },
  "weather": {
    "station": "KSEA",
    "visibility_sm": 10.0,
    "ceiling_ft": 2500.0,
    "raw": "KSEA 091453Z 06003KT 10SM SCT005 BKN025 12/09 A3020 RMK AO2 SLP232 T01220089 56001"
  },
  "webcam_url": "https://atmos.uw.edu/data/images/webcam2_latest.jpg",
  "model_version": "latest"
}
