{
  "timestamp_utc": "2026-05-12T14:20:27Z",
  "class_index": 0,
  "class_name": "not_out",
  "is_out": false,
  "confidence": {
    "not_out": 0.6808288097381592,
    "full": 0.07043106108903885,
    "partial": 0.24874016642570496
  },
  "weather": {
    "station": "KSEA",
    "visibility_sm": 10.0,
    "ceiling_ft": 25000.0,
    "raw": "KSEA 121353Z 34006KT 10SM SCT160 SCT220 BKN250 13/09 A2991 RMK AO2 SLP134 VIRGA T01280089"
  },
  "webcam_url": "https://atmos.uw.edu/data/images/webcam2_latest.jpg",
  "model_version": "latest"
}
