{
  "timestamp_utc": "2026-04-24T16:56:49Z",
  "class_index": 2,
  "class_name": "partial",
  "is_out": true,
  "confidence": {
    "not_out": 0.0762232095003128,
    "full": 0.0012573398416861892,
    "partial": 0.9225195050239563
  },
  "weather": {
    "station": "KSEA",
    "visibility_sm": 10.0,
    "ceiling_ft": null,
    "raw": "KSEA 241653Z VRB05KT 10SM FEW018 FEW035 SCT120 12/07 A3014 RMK AO2 SLP212 T01170067"
  },
  "webcam_url": "https://atmos.uw.edu/data/images/webcam2_latest.jpg",
  "model_version": "a71407a"
}
