{
  "timestamp_utc": "2026-05-16T14:31:57Z",
  "class_index": 0,
  "class_name": "not_out",
  "is_out": false,
  "confidence": {
    "not_out": 0.9995158910751343,
    "full": 0.000004181399162916932,
    "partial": 0.0004799339221790433
  },
  "weather": {
    "station": "KSEA",
    "visibility_sm": 10.0,
    "ceiling_ft": 1400.0,
    "raw": "KSEA 161353Z 21009KT 10SM BKN014 BKN020 OVC028 07/05 A3011 RMK AO2 SLP203 T00720050"
  },
  "webcam_url": "https://atmos.uw.edu/data/images/webcam2_latest.jpg",
  "model_version": "latest"
}
