{
  "timestamp_utc": "2026-05-12T00:29:41Z",
  "class_index": 1,
  "class_name": "full",
  "is_out": true,
  "confidence": {
    "not_out": 0.0019236147636547685,
    "full": 0.9973165392875671,
    "partial": 0.0007597631774842739
  },
  "weather": {
    "station": "KSEA",
    "visibility_sm": 10.0,
    "ceiling_ft": null,
    "raw": "KSEA 112353Z 35009KT 10SM FEW040 SCT230 22/08 A3008 RMK AO2 SLP190 T02170078 10222 20172 58020"
  },
  "webcam_url": "https://atmos.uw.edu/data/images/webcam2_latest.jpg",
  "model_version": "latest"
}
