{
  "timestamp_utc": "2026-05-07T02:11:46Z",
  "class_index": 0,
  "class_name": "not_out",
  "is_out": false,
  "confidence": {
    "not_out": 0.9965568780899048,
    "full": 0.000005501139639818575,
    "partial": 0.0034377111587673426
  },
  "weather": {
    "station": "KSEA",
    "visibility_sm": 10.0,
    "ceiling_ft": 2700.0,
    "raw": "KSEA 070153Z 24009KT 10SM OVC027 13/09 A3014 RMK AO2 SLP211 T01330089 $"
  },
  "webcam_url": "https://atmos.uw.edu/data/images/webcam2_latest.jpg",
  "model_version": "latest"
}
