{
  "timestamp_utc": "2026-05-04T06:59:47Z",
  "class_index": 0,
  "class_name": "not_out",
  "is_out": false,
  "confidence": {
    "not_out": 0.9993647933006287,
    "full": 0.00036450926563702524,
    "partial": 0.0002706751402001828
  },
  "weather": {
    "station": "KSEA",
    "visibility_sm": 10.0,
    "ceiling_ft": null,
    "raw": "KSEA 040653Z 04004KT 10SM CLR 21/06 A2981 RMK AO2 SLP099 T02060061 $"
  },
  "webcam_url": "https://atmos.uw.edu/data/images/webcam2_latest.jpg",
  "model_version": "latest"
}
