{
  "timestamp_utc": "2026-05-11T10:23:46Z",
  "class_index": 0,
  "class_name": "not_out",
  "is_out": false,
  "confidence": {
    "not_out": 0.9985824823379517,
    "full": 0.0008686957298777997,
    "partial": 0.0005488726310431957
  },
  "weather": {
    "station": "KSEA",
    "visibility_sm": 10.0,
    "ceiling_ft": 5500.0,
    "raw": "KSEA 110953Z 05006KT 10SM SCT040 BKN055 BKN065 12/09 A3023 RMK AO2 SLP242 T01220094 $"
  },
  "webcam_url": "https://atmos.uw.edu/data/images/webcam2_latest.jpg",
  "model_version": "latest"
}
