{
  "timestamp_utc": "2026-05-18T08:03:12Z",
  "class_index": 0,
  "class_name": "not_out",
  "is_out": false,
  "confidence": {
    "not_out": 0.9984183311462402,
    "full": 0.0009873992530629039,
    "partial": 0.0005942496354691684
  },
  "weather": {
    "station": "KSEA",
    "visibility_sm": 10.0,
    "ceiling_ft": 24000.0,
    "raw": "KSEA 180753Z 12006KT 10SM FEW045 OVC240 11/06 A3025 RMK AO2 SLP250 T01060061 401670050 $"
  },
  "webcam_url": "https://atmos.uw.edu/data/images/webcam2_latest.jpg",
  "model_version": "latest"
}
