{
  "timestamp_utc": "2026-05-11T19:27:38Z",
  "class_index": 1,
  "class_name": "full",
  "is_out": true,
  "confidence": {
    "not_out": 0.009635534137487411,
    "full": 0.9266818761825562,
    "partial": 0.06368254125118256
  },
  "weather": {
    "station": "KSEA",
    "visibility_sm": 10.0,
    "ceiling_ft": null,
    "raw": "KSEA 111853Z 35009KT 10SM FEW040 FEW250 19/07 A3018 RMK AO2 SLP224 T01890072"
  },
  "webcam_url": "https://atmos.uw.edu/data/images/webcam2_latest.jpg",
  "model_version": "latest"
}
