{
  "timestamp_utc": "2026-05-20T16:11:01Z",
  "class_index": 0,
  "class_name": "not_out",
  "is_out": false,
  "confidence": {
    "not_out": 0.9998125433921814,
    "full": 0.000009578615390637424,
    "partial": 0.0001779581216396764
  },
  "weather": {
    "station": "KSEA",
    "visibility_sm": 10.0,
    "ceiling_ft": 1000.0,
    "raw": "KSEA 201553Z 03006KT 10SM BKN010 OVC016 12/09 A3024 RMK AO2 SLP248 CIG 008V012 T01170089"
  },
  "webcam_url": "https://atmos.uw.edu/data/images/webcam2_latest.jpg",
  "model_version": "latest"
}
