{
  "timestamp_utc": "2026-05-20T17:26:32Z",
  "class_index": 0,
  "class_name": "not_out",
  "is_out": false,
  "confidence": {
    "not_out": 0.9994878768920898,
    "full": 0.00006840346759418026,
    "partial": 0.00044369095121510327
  },
  "weather": {
    "station": "KSEA",
    "visibility_sm": 10.0,
    "ceiling_ft": 1700.0,
    "raw": "KSEA 201701Z 25004KT 10SM BKN017 OVC025 12/09 A3024 RMK AO2 CIG 013V020 T01220094"
  },
  "webcam_url": "https://atmos.uw.edu/data/images/webcam2_latest.jpg",
  "model_version": "latest"
}
