{
  "timestamp_utc": "2026-04-20T07:34:32Z",
  "class_index": 0,
  "class_name": "not_out",
  "is_out": false,
  "confidence": {
    "not_out": 0.9993444085121155,
    "full": 0.00030514708487316966,
    "partial": 0.0003505107306409627
  },
  "weather": {
    "station": "KSEA",
    "visibility_sm": 10.0,
    "ceiling_ft": 25000.0,
    "raw": "KSEA 200653Z 04009KT 10SM SCT180 BKN250 16/06 A2987 RMK AO2 SLP120 T01560061"
  },
  "webcam_url": "https://atmos.uw.edu/data/images/webcam2_latest.jpg",
  "model_version": "82f7e95"
}
