{
  "timestamp_utc": "2026-05-10T17:47:03Z",
  "class_index": 0,
  "class_name": "not_out",
  "is_out": false,
  "confidence": {
    "not_out": 0.999455988407135,
    "full": 0.00002314725861651823,
    "partial": 0.0005209525115787983
  },
  "weather": {
    "station": "KSEA",
    "visibility_sm": 10.0,
    "ceiling_ft": 1300.0,
    "raw": "KSEA 101653Z 23007KT 10SM BKN013 BKN020 OVC027 12/09 A3009 RMK AO2 SLP197 T01220094 $"
  },
  "webcam_url": "https://atmos.uw.edu/data/images/webcam2_latest.jpg",
  "model_version": "latest"
}
