{
  "timestamp_utc": "2026-05-11T07:22:32Z",
  "class_index": 0,
  "class_name": "not_out",
  "is_out": false,
  "confidence": {
    "not_out": 0.9981374740600586,
    "full": 0.0009870192734524608,
    "partial": 0.0008755386807024479
  },
  "weather": {
    "station": "KSEA",
    "visibility_sm": 10.0,
    "ceiling_ft": null,
    "raw": "KSEA 110653Z 19004KT 10SM FEW040 12/09 A3017 RMK AO2 SLP223 T01170094 $"
  },
  "webcam_url": "https://atmos.uw.edu/data/images/webcam2_latest.jpg",
  "model_version": "latest"
}
