{
  "timestamp_utc": "2026-05-08T07:23:15Z",
  "class_index": 0,
  "class_name": "not_out",
  "is_out": false,
  "confidence": {
    "not_out": 0.9950874447822571,
    "full": 0.0038109072484076023,
    "partial": 0.0011016897624358535
  },
  "weather": {
    "station": "KSEA",
    "visibility_sm": 10.0,
    "ceiling_ft": 20000.0,
    "raw": "KSEA 080653Z 19003KT 10SM BKN200 BKN250 13/07 A3002 RMK AO2 SLP173 T01330072 $"
  },
  "webcam_url": "https://atmos.uw.edu/data/images/webcam2_latest.jpg",
  "model_version": "latest"
}
