{
  "timestamp_utc": "2026-05-06T14:06:59Z",
  "class_index": 0,
  "class_name": "not_out",
  "is_out": false,
  "confidence": {
    "not_out": 0.9999285936355591,
    "full": 0.000019517015971359797,
    "partial": 0.00005182002860237844
  },
  "weather": {
    "station": "KSEA",
    "visibility_sm": 7.0,
    "ceiling_ft": 700.0,
    "raw": "KSEA 061353Z 22006KT 7SM BKN007 OVC017 11/09 A3011 RMK AO2 SLP203 T01110094 $"
  },
  "webcam_url": "https://atmos.uw.edu/data/images/webcam2_latest.jpg",
  "model_version": "latest"
}
