{
  "timestamp_utc": "2026-05-14T02:51:38Z",
  "class_index": 0,
  "class_name": "not_out",
  "is_out": false,
  "confidence": {
    "not_out": 0.6179627776145935,
    "full": 0.2478664219379425,
    "partial": 0.134170800447464
  },
  "weather": {
    "station": "KSEA",
    "visibility_sm": 10.0,
    "ceiling_ft": 10000.0,
    "raw": "KSEA 140153Z 21021G31KT 10SM FEW028 SCT065 BKN100 14/07 A3009 RMK AO2 PK WND 20032/0129 SLP195 T01390072"
  },
  "webcam_url": "https://atmos.uw.edu/data/images/webcam2_latest.jpg",
  "model_version": "latest"
}
