{
  "timestamp_utc": "2026-05-20T22:13:36Z",
  "class_index": 1,
  "class_name": "full",
  "is_out": true,
  "confidence": {
    "not_out": 0.15920324623584747,
    "full": 0.7246796488761902,
    "partial": 0.11611718684434891
  },
  "weather": {
    "station": "KSEA",
    "visibility_sm": 10.0,
    "ceiling_ft": 23000.0,
    "raw": "KSEA 202153Z 28008KT 10SM FEW030 BKN230 18/09 A3020 RMK AO2 SLP230 T01780089"
  },
  "webcam_url": "https://atmos.uw.edu/data/images/webcam2_latest.jpg",
  "model_version": "latest"
}
