{
  "timestamp_utc": "2026-05-23T12:23:43Z",
  "class_index": 0,
  "class_name": "not_out",
  "is_out": false,
  "confidence": {
    "not_out": 0.9998470544815063,
    "full": 0.0000027356863938621245,
    "partial": 0.0001502182421972975
  },
  "weather": {
    "station": "KSEA",
    "visibility_sm": 8.0,
    "ceiling_ft": 300.0,
    "raw": "KSEA 231153Z 20009KT 8SM OVC003 11/10 A2990 RMK AO2 SLP131 T01060100 10178 20106 51008"
  },
  "webcam_url": "https://atmos.uw.edu/data/images/webcam2_latest.jpg",
  "model_version": "latest"
}
