{
  "timestamp_utc": "2026-05-15T07:48:53Z",
  "class_index": 0,
  "class_name": "not_out",
  "is_out": false,
  "confidence": {
    "not_out": 0.9983709454536438,
    "full": 0.0010467951651662588,
    "partial": 0.0005822876119054854
  },
  "weather": {
    "station": "KSEA",
    "visibility_sm": 10.0,
    "ceiling_ft": 1600.0,
    "raw": "KSEA 150727Z 20011G19KT 10SM SCT012 BKN016 BKN220 09/07 A3012 RMK AO2 T00940072 $"
  },
  "webcam_url": "https://atmos.uw.edu/data/images/webcam2_latest.jpg",
  "model_version": "latest"
}
