{
  "timestamp_utc": "2026-05-05T12:26:40Z",
  "class_index": 0,
  "class_name": "not_out",
  "is_out": false,
  "confidence": {
    "not_out": 0.9997809529304504,
    "full": 0.00007044709491310641,
    "partial": 0.00014866716810502112
  },
  "weather": {
    "station": "KSEA",
    "visibility_sm": 10.0,
    "ceiling_ft": 1000.0,
    "raw": "KSEA 051153Z 22007KT 10SM OVC010 12/09 A2995 RMK AO2 SLP147 T01220094 10128 20117 51006"
  },
  "webcam_url": "https://atmos.uw.edu/data/images/webcam2_latest.jpg",
  "model_version": "latest"
}
