{
  "timestamp_utc": "2026-05-11T00:34:47Z",
  "class_index": 0,
  "class_name": "not_out",
  "is_out": false,
  "confidence": {
    "not_out": 0.9921878576278687,
    "full": 0.0016241483390331268,
    "partial": 0.00618791114538908
  },
  "weather": {
    "station": "KSEA",
    "visibility_sm": 10.0,
    "ceiling_ft": 6000.0,
    "raw": "KSEA 102353Z 36004KT 10SM FEW041 BKN060 BKN075 19/08 A3013 RMK AO2 SLP207 T01890078 10189 20128 51003 $"
  },
  "webcam_url": "https://atmos.uw.edu/data/images/webcam2_latest.jpg",
  "model_version": "latest"
}
