{
  "timestamp_utc": "2026-05-24T13:18:45Z",
  "class_index": 0,
  "class_name": "not_out",
  "is_out": false,
  "confidence": {
    "not_out": 0.9957784414291382,
    "full": 0.003225225256755948,
    "partial": 0.0009962827898561954
  },
  "weather": {
    "station": "KSEA",
    "visibility_sm": 10.0,
    "ceiling_ft": 2000.0,
    "raw": "KSEA 241253Z 19004KT 10SM BKN020 OVC028 10/08 A3002 RMK AO2 SLP172 T01000078"
  },
  "webcam_url": "https://atmos.uw.edu/data/images/webcam2_latest.jpg",
  "model_version": "latest"
}
