{
  "timestamp_utc": "2026-05-06T17:23:16Z",
  "class_index": 0,
  "class_name": "not_out",
  "is_out": false,
  "confidence": {
    "not_out": 0.9997453093528748,
    "full": 0.000005086114470032044,
    "partial": 0.00024954439140856266
  },
  "weather": {
    "station": "KSEA",
    "visibility_sm": 7.0,
    "ceiling_ft": 1500.0,
    "raw": "KSEA 061659Z 21007KT 7SM SCT007 OVC015 12/10 A3013 RMK AO2 T01170100 $"
  },
  "webcam_url": "https://atmos.uw.edu/data/images/webcam2_latest.jpg",
  "model_version": "latest"
}
