{
  "timestamp_utc": "2026-05-14T13:41:18Z",
  "class_index": 0,
  "class_name": "not_out",
  "is_out": false,
  "confidence": {
    "not_out": 0.986629843711853,
    "full": 0.00014080000983085483,
    "partial": 0.013229379430413246
  },
  "weather": {
    "station": "KSEA",
    "visibility_sm": 10.0,
    "ceiling_ft": 15000.0,
    "raw": "KSEA 141255Z 16008KT 10SM SCT014 BKN150 10/08 A3014 RMK AO2 SCT014 V BKN T01000078 $"
  },
  "webcam_url": "https://atmos.uw.edu/data/images/webcam2_latest.jpg",
  "model_version": "latest"
}
