{
  "timestamp_utc": "2026-05-19T16:01:19Z",
  "class_index": 0,
  "class_name": "not_out",
  "is_out": false,
  "confidence": {
    "not_out": 0.9954149723052979,
    "full": 0.00008302310016006231,
    "partial": 0.004501888994127512
  },
  "weather": {
    "station": "KSEA",
    "visibility_sm": 10.0,
    "ceiling_ft": 1600.0,
    "raw": "KSEA 191553Z 19007KT 10SM BKN016 OVC035 12/08 A3027 RMK AO2 SLP254 CIG 014V018 T01170078"
  },
  "webcam_url": "https://atmos.uw.edu/data/images/webcam2_latest.jpg",
  "model_version": "latest"
}
