{
  "timestamp_utc": "2026-05-20T16:56:20Z",
  "class_index": 0,
  "class_name": "not_out",
  "is_out": false,
  "confidence": {
    "not_out": 0.9996423721313477,
    "full": 0.00001879375849966891,
    "partial": 0.00033874917426146567
  },
  "weather": {
    "station": "KSEA",
    "visibility_sm": 10.0,
    "ceiling_ft": 1300.0,
    "raw": "KSEA 201653Z 26004KT 10SM BKN013 OVC023 12/09 A3024 RMK AO2 SLP247 CIG 010V016 T01220094"
  },
  "webcam_url": "https://atmos.uw.edu/data/images/webcam2_latest.jpg",
  "model_version": "latest"
}
