{
  "timestamp_utc": "2026-05-20T15:40:49Z",
  "class_index": 0,
  "class_name": "not_out",
  "is_out": false,
  "confidence": {
    "not_out": 0.9988916516304016,
    "full": 0.00005829695510328747,
    "partial": 0.001050004386343062
  },
  "weather": {
    "station": "KSEA",
    "visibility_sm": 10.0,
    "ceiling_ft": 1000.0,
    "raw": "KSEA 201530Z 34005KT 10SM OVC010 12/09 A3025 RMK AO2 CIG 008V012 T01170094"
  },
  "webcam_url": "https://atmos.uw.edu/data/images/webcam2_latest.jpg",
  "model_version": "latest"
}
