{
  "timestamp_utc": "2026-05-24T19:36:14Z",
  "class_index": 2,
  "class_name": "partial",
  "is_out": true,
  "confidence": {
    "not_out": 0.05707452818751335,
    "full": 0.45227497816085815,
    "partial": 0.49065059423446655
  },
  "weather": {
    "station": "KSEA",
    "visibility_sm": 10.0,
    "ceiling_ft": 18000.0,
    "raw": "KSEA 241853Z 00000KT 10SM FEW030 SCT140 BKN180 16/08 A3001 RMK AO2 SLP169 T01560078"
  },
  "webcam_url": "https://atmos.uw.edu/data/images/webcam2_latest.jpg",
  "model_version": "latest"
}
