{
  "timestamp_utc": "2026-05-07T07:13:43Z",
  "class_index": 0,
  "class_name": "not_out",
  "is_out": false,
  "confidence": {
    "not_out": 0.9994254112243652,
    "full": 0.0003163657383993268,
    "partial": 0.0002583345922175795
  },
  "weather": {
    "station": "KSEA",
    "visibility_sm": 6.0,
    "ceiling_ft": 2000.0,
    "raw": "KSEA 070653Z 20008KT 6SM -DZ BR FEW011 OVC020 11/09 A3015 RMK AO2 SLP218 P0000 T01060089 $"
  },
  "webcam_url": "https://atmos.uw.edu/data/images/webcam2_latest.jpg",
  "model_version": "latest"
}
