{
  "timestamp_utc": "2026-05-07T15:47:06Z",
  "class_index": 0,
  "class_name": "not_out",
  "is_out": false,
  "confidence": {
    "not_out": 0.9757440090179443,
    "full": 0.00005218568549025804,
    "partial": 0.024203738197684288
  },
  "weather": {
    "station": "KSEA",
    "visibility_sm": 10.0,
    "ceiling_ft": null,
    "raw": "KSEA 071453Z 21009KT 10SM FEW021 SCT032 11/07 A3015 RMK AO2 SLP215 T01060067 55000 $"
  },
  "webcam_url": "https://atmos.uw.edu/data/images/webcam2_latest.jpg",
  "model_version": "latest"
}
