{
  "timestamp_utc": "2026-05-11T18:27:13Z",
  "class_index": 1,
  "class_name": "full",
  "is_out": true,
  "confidence": {
    "not_out": 0.045552827417850494,
    "full": 0.8707592487335205,
    "partial": 0.0836879163980484
  },
  "weather": {
    "station": "KSEA",
    "visibility_sm": 10.0,
    "ceiling_ft": null,
    "raw": "KSEA 111753Z 02009G16KT 350V050 10SM FEW030 FEW250 17/08 A3019 RMK AO2 SLP228 T01720083 10172 20111 58012"
  },
  "webcam_url": "https://atmos.uw.edu/data/images/webcam2_latest.jpg",
  "model_version": "latest"
}
