{
  "timestamp_utc": "2026-04-22T05:09:15Z",
  "class_index": 0,
  "class_name": "not_out",
  "is_out": false,
  "confidence": {
    "not_out": 0.9996170997619629,
    "full": 0.00022177683422341943,
    "partial": 0.00016114325262606144
  },
  "weather": {
    "station": "KSEA",
    "visibility_sm": 4.0,
    "ceiling_ft": 1800.0,
    "raw": "KSEA 220453Z 03008KT 4SM -RA BR OVC018 11/10 A2984 RMK AO2 RAE20B39 SLP112 P0001 T01110100"
  },
  "webcam_url": "https://atmos.uw.edu/data/images/webcam2_latest.jpg",
  "model_version": "ddaa7f1"
}
