{
  "timestamp_utc": "2026-04-24T03:51:03Z",
  "class_index": 2,
  "class_name": "partial",
  "is_out": true,
  "confidence": {
    "not_out": 0.3238997161388397,
    "full": 0.0014640577137470245,
    "partial": 0.67463618516922
  },
  "weather": {
    "station": "KSEA",
    "visibility_sm": 10.0,
    "ceiling_ft": null,
    "raw": "KSEA 240253Z 25003KT 10SM FEW037 FEW048 12/05 A3013 RMK AO2 SLP209 T01220050 56008"
  },
  "webcam_url": "https://atmos.uw.edu/data/images/webcam2_latest.jpg",
  "model_version": "034822f"
}
