{
  "timestamp_utc": "2026-04-24T12:44:02Z",
  "class_index": 2,
  "class_name": "partial",
  "is_out": true,
  "confidence": {
    "not_out": 0.08065527677536011,
    "full": 0.03813633322715759,
    "partial": 0.8812084197998047
  },
  "weather": {
    "station": "KSEA",
    "visibility_sm": 10.0,
    "ceiling_ft": 3000.0,
    "raw": "KSEA 241153Z 05004KT 10SM BKN030 07/05 A3016 RMK AO2 SLP221 T00670050 10106 20067 50002"
  },
  "webcam_url": "https://atmos.uw.edu/data/images/webcam2_latest.jpg",
  "model_version": "f2d3412"
}
