{
  "timestamp_utc": "2026-05-07T05:43:08Z",
  "class_index": 0,
  "class_name": "not_out",
  "is_out": false,
  "confidence": {
    "not_out": 0.9995115995407104,
    "full": 0.00022919315961189568,
    "partial": 0.0002592065720818937
  },
  "weather": {
    "station": "KSEA",
    "visibility_sm": 4.0,
    "ceiling_ft": 1300.0,
    "raw": "KSEA 070512Z 21009KT 4SM -DZ BR FEW008 BKN013 OVC024 11/09 A3016 RMK AO2 P0000 T01110094 $"
  },
  "webcam_url": "https://atmos.uw.edu/data/images/webcam2_latest.jpg",
  "model_version": "latest"
}
