{
  "timestamp_utc": "2026-05-10T20:02:58Z",
  "class_index": 0,
  "class_name": "not_out",
  "is_out": false,
  "confidence": {
    "not_out": 0.9852352142333984,
    "full": 0.000022665528376819566,
    "partial": 0.014742097817361355
  },
  "weather": {
    "station": "KSEA",
    "visibility_sm": 10.0,
    "ceiling_ft": 2100.0,
    "raw": "KSEA 101953Z 23007KT 10SM OVC021 14/09 A3011 RMK AO2 SLP203 T01440089 $"
  },
  "webcam_url": "https://atmos.uw.edu/data/images/webcam2_latest.jpg",
  "model_version": "latest"
}
