{
  "timestamp_utc": "2026-05-05T10:25:53Z",
  "class_index": 0,
  "class_name": "not_out",
  "is_out": false,
  "confidence": {
    "not_out": 0.9995757937431335,
    "full": 0.00022653405903838575,
    "partial": 0.00019762948795687407
  },
  "weather": {
    "station": "KSEA",
    "visibility_sm": 10.0,
    "ceiling_ft": 800.0,
    "raw": "KSEA 050953Z 21011KT 10SM OVC008 12/10 A2993 RMK AO2 SLP140 T01220100"
  },
  "webcam_url": "https://atmos.uw.edu/data/images/webcam2_latest.jpg",
  "model_version": "latest"
}
