{
  "timestamp_utc": "2026-05-24T02:14:17Z",
  "class_index": 2,
  "class_name": "partial",
  "is_out": true,
  "confidence": {
    "not_out": 0.024207523092627525,
    "full": 0.052498795092105865,
    "partial": 0.9232937097549438
  },
  "weather": {
    "station": "KSEA",
    "visibility_sm": 10.0,
    "ceiling_ft": null,
    "raw": "KSEA 240153Z 18005KT 10SM FEW100 SCT250 18/10 A2997 RMK AO2 SLP156 T01780100"
  },
  "webcam_url": "https://atmos.uw.edu/data/images/webcam2_latest.jpg",
  "model_version": "latest"
}
