{
  "timestamp_utc": "2026-05-19T00:24:56Z",
  "class_index": 0,
  "class_name": "not_out",
  "is_out": false,
  "confidence": {
    "not_out": 0.8889278769493103,
    "full": 0.012765730731189251,
    "partial": 0.09830642491579056
  },
  "weather": {
    "station": "KSEA",
    "visibility_sm": 10.0,
    "ceiling_ft": 10000.0,
    "raw": "KSEA 182353Z 28004KT 10SM FEW040 BKN100 BKN200 18/05 A3022 RMK AO2 SLP241 T01830050 10189 20128 58008"
  },
  "webcam_url": "https://atmos.uw.edu/data/images/webcam2_latest.jpg",
  "model_version": "latest"
}
