{
  "timestamp_utc": "2026-05-12T19:52:50Z",
  "class_index": 0,
  "class_name": "not_out",
  "is_out": false,
  "confidence": {
    "not_out": 0.9811336994171143,
    "full": 0.00044526561396196485,
    "partial": 0.01842101849615574
  },
  "weather": {
    "station": "KSEA",
    "visibility_sm": 10.0,
    "ceiling_ft": 24000.0,
    "raw": "KSEA 121853Z 28004KT 10SM SCT130 SCT200 BKN240 22/09 A2988 RMK AO2 SLP121 T02170089"
  },
  "webcam_url": "https://atmos.uw.edu/data/images/webcam2_latest.jpg",
  "model_version": "latest"
}
