{
  "timestamp_utc": "2026-05-14T04:37:21Z",
  "class_index": 0,
  "class_name": "not_out",
  "is_out": false,
  "confidence": {
    "not_out": 0.9983626008033752,
    "full": 0.001276884344406426,
    "partial": 0.00036045865272171795
  },
  "weather": {
    "station": "KSEA",
    "visibility_sm": 10.0,
    "ceiling_ft": 3400.0,
    "raw": "KSEA 140353Z 20012G23KT 10SM BKN034 BKN090 12/07 A3011 RMK AO2 PK WND 22026/0304 SLP204 T01220072"
  },
  "webcam_url": "https://atmos.uw.edu/data/images/webcam2_latest.jpg",
  "model_version": "latest"
}
