{
  "timestamp_utc": "2026-05-06T07:34:20Z",
  "class_index": 0,
  "class_name": "not_out",
  "is_out": false,
  "confidence": {
    "not_out": 0.9995278120040894,
    "full": 0.00024113705148920417,
    "partial": 0.00023099713143892586
  },
  "weather": {
    "station": "KSEA",
    "visibility_sm": 10.0,
    "ceiling_ft": null,
    "raw": "KSEA 060653Z 19004KT 10SM CLR 12/09 A3003 RMK AO2 SLP175 T01220094"
  },
  "webcam_url": "https://atmos.uw.edu/data/images/webcam2_latest.jpg",
  "model_version": "latest"
}
