{
  "timestamp_utc": "2026-05-23T05:05:50Z",
  "class_index": 0,
  "class_name": "not_out",
  "is_out": false,
  "confidence": {
    "not_out": 0.9983533620834351,
    "full": 0.0008963346481323242,
    "partial": 0.0007503368542529643
  },
  "weather": {
    "station": "KSEA",
    "visibility_sm": 10.0,
    "ceiling_ft": null,
    "raw": "KSEA 230453Z 33005KT 10SM FEW100 FEW250 18/09 A2985 RMK AO2 SLP114 T01780089"
  },
  "webcam_url": "https://atmos.uw.edu/data/images/webcam2_latest.jpg",
  "model_version": "latest"
}
