{
  "timestamp_utc": "2026-05-18T23:39:39Z",
  "class_index": 2,
  "class_name": "partial",
  "is_out": true,
  "confidence": {
    "not_out": 0.28348028659820557,
    "full": 0.21256373822689056,
    "partial": 0.5039560198783875
  },
  "weather": {
    "station": "KSEA",
    "visibility_sm": 10.0,
    "ceiling_ft": 10000.0,
    "raw": "KSEA 182253Z 29004KT 10SM FEW040 BKN100 17/05 A3023 RMK AO2 SLP245 T01720050"
  },
  "webcam_url": "https://atmos.uw.edu/data/images/webcam2_latest.jpg",
  "model_version": "latest"
}
