{
  "timestamp_utc": "2026-05-03T12:07:27Z",
  "class_index": 0,
  "class_name": "not_out",
  "is_out": false,
  "confidence": {
    "not_out": 0.9965484738349915,
    "full": 0.0003977928136009723,
    "partial": 0.0030538251157850027
  },
  "weather": {
    "station": "KSEA",
    "visibility_sm": 10.0,
    "ceiling_ft": null,
    "raw": "KSEA 031153Z 02007KT 10SM CLR 14/08 A2995 RMK AO2 SLP146 T01390078 10189 20139 56005 $"
  },
  "webcam_url": "https://atmos.uw.edu/data/images/webcam2_latest.jpg",
  "model_version": "latest"
}
