{
  "timestamp_utc": "2026-05-24T17:05:15Z",
  "class_index": 0,
  "class_name": "not_out",
  "is_out": false,
  "confidence": {
    "not_out": 0.4246084690093994,
    "full": 0.22836896777153015,
    "partial": 0.3470226526260376
  },
  "weather": {
    "station": "KSEA",
    "visibility_sm": 10.0,
    "ceiling_ft": 4000.0,
    "raw": "KSEA 241653Z 26005KT 10SM FEW010 BKN040 BKN100 13/07 A3004 RMK AO2 SLP178 T01280072"
  },
  "webcam_url": "https://atmos.uw.edu/data/images/webcam2_latest.jpg",
  "model_version": "latest"
}
