{
  "timestamp_utc": "2026-05-07T04:42:45Z",
  "class_index": 0,
  "class_name": "not_out",
  "is_out": false,
  "confidence": {
    "not_out": 0.9994328618049622,
    "full": 0.00027203618083149195,
    "partial": 0.0002951700007542968
  },
  "weather": {
    "station": "KSEA",
    "visibility_sm": 10.0,
    "ceiling_ft": 2600.0,
    "raw": "KSEA 070353Z 23004KT 10SM OVC026 12/09 A3015 RMK AO2 SLP217 T01220089 $"
  },
  "webcam_url": "https://atmos.uw.edu/data/images/webcam2_latest.jpg",
  "model_version": "latest"
}
