{
  "timestamp_utc": "2026-05-07T20:34:01Z",
  "class_index": 0,
  "class_name": "not_out",
  "is_out": false,
  "confidence": {
    "not_out": 0.9711331129074097,
    "full": 0.0009923033649101853,
    "partial": 0.027874641120433807
  },
  "weather": {
    "station": "KSEA",
    "visibility_sm": 10.0,
    "ceiling_ft": 3200.0,
    "raw": "KSEA 071953Z 00000KT 10SM FEW028 BKN032 BKN220 14/06 A3012 RMK AO2 SLP207 T01440061 $"
  },
  "webcam_url": "https://atmos.uw.edu/data/images/webcam2_latest.jpg",
  "model_version": "latest"
}
