{
  "timestamp_utc": "2026-05-18T09:18:42Z",
  "class_index": 0,
  "class_name": "not_out",
  "is_out": false,
  "confidence": {
    "not_out": 0.9983640313148499,
    "full": 0.0010512217413634062,
    "partial": 0.0005846749409101903
  },
  "weather": {
    "station": "KSEA",
    "visibility_sm": 10.0,
    "ceiling_ft": 23000.0,
    "raw": "KSEA 180853Z 15005KT 10SM BKN230 10/06 A3025 RMK AO2 SLP250 T01000061 50002 $"
  },
  "webcam_url": "https://atmos.uw.edu/data/images/webcam2_latest.jpg",
  "model_version": "latest"
}
