{
  "timestamp_utc": "2026-05-05T14:12:21Z",
  "class_index": 0,
  "class_name": "not_out",
  "is_out": false,
  "confidence": {
    "not_out": 0.9981222748756409,
    "full": 0.00021808435849379748,
    "partial": 0.0016595771303400397
  },
  "weather": {
    "station": "KSEA",
    "visibility_sm": 10.0,
    "ceiling_ft": 1100.0,
    "raw": "KSEA 051353Z 21006KT 10SM OVC011 12/10 A2998 RMK AO2 SLP156 T01220100"
  },
  "webcam_url": "https://atmos.uw.edu/data/images/webcam2_latest.jpg",
  "model_version": "latest"
}
