{
  "timestamp_utc": "2026-05-06T13:06:35Z",
  "class_index": 0,
  "class_name": "not_out",
  "is_out": false,
  "confidence": {
    "not_out": 0.9987937211990356,
    "full": 0.00003013537934748456,
    "partial": 0.001176135498099029
  },
  "weather": {
    "station": "KSEA",
    "visibility_sm": 9.0,
    "ceiling_ft": 800.0,
    "raw": "KSEA 061253Z 20005KT 9SM BKN008 OVC012 11/09 A3009 RMK AO2 SLP196 T01110094"
  },
  "webcam_url": "https://atmos.uw.edu/data/images/webcam2_latest.jpg",
  "model_version": "latest"
}
