{
  "timestamp_utc": "2026-05-04T20:20:05Z",
  "class_index": 2,
  "class_name": "partial",
  "is_out": true,
  "confidence": {
    "not_out": 0.012935678474605083,
    "full": 0.18373791873455048,
    "partial": 0.8033263683319092
  },
  "weather": {
    "station": "KSEA",
    "visibility_sm": 10.0,
    "ceiling_ft": 25000.0,
    "raw": "KSEA 041953Z 19007KT 10SM BKN250 21/11 A2987 RMK AO2 SLP117 T02110111"
  },
  "webcam_url": "https://atmos.uw.edu/data/images/webcam2_latest.jpg",
  "model_version": "latest"
}
