{
  "timestamp_utc": "2026-05-16T06:28:52Z",
  "class_index": 0,
  "class_name": "not_out",
  "is_out": false,
  "confidence": {
    "not_out": 0.998469889163971,
    "full": 0.0012275803601369262,
    "partial": 0.00030251406133174896
  },
  "weather": {
    "station": "KSEA",
    "visibility_sm": 10.0,
    "ceiling_ft": 6000.0,
    "raw": "KSEA 160553Z 18012KT 10SM FEW015 BKN060 OVC080 08/06 A3006 RMK AO2 SLP188 60022 T00830061 10106 20078 55002"
  },
  "webcam_url": "https://atmos.uw.edu/data/images/webcam2_latest.jpg",
  "model_version": "latest"
}
