{
  "timestamp_utc": "2026-05-15T13:51:17Z",
  "class_index": 0,
  "class_name": "not_out",
  "is_out": false,
  "confidence": {
    "not_out": 0.9985520243644714,
    "full": 0.000032491494494024664,
    "partial": 0.0014154680538922548
  },
  "weather": {
    "station": "KSEA",
    "visibility_sm": 10.0,
    "ceiling_ft": 1700.0,
    "raw": "KSEA 151334Z 16009KT 10SM FEW012 BKN017 08/06 A3013 RMK AO2 T00830056 $"
  },
  "webcam_url": "https://atmos.uw.edu/data/images/webcam2_latest.jpg",
  "model_version": "latest"
}
