{
  "timestamp_utc": "2026-05-23T23:13:05Z",
  "class_index": 2,
  "class_name": "partial",
  "is_out": true,
  "confidence": {
    "not_out": 0.1650104820728302,
    "full": 0.324003130197525,
    "partial": 0.5109863877296448
  },
  "weather": {
    "station": "KSEA",
    "visibility_sm": 10.0,
    "ceiling_ft": null,
    "raw": "KSEA 232253Z 24007KT 10SM SCT020 SCT100 17/10 A2999 RMK AO2 SLP163 T01720100"
  },
  "webcam_url": "https://atmos.uw.edu/data/images/webcam2_latest.jpg",
  "model_version": "latest"
}
