{
  "timestamp_utc": "2026-05-14T08:23:54Z",
  "class_index": 0,
  "class_name": "not_out",
  "is_out": false,
  "confidence": {
    "not_out": 0.9981953501701355,
    "full": 0.0013496767496690154,
    "partial": 0.000454989931313321
  },
  "weather": {
    "station": "KSEA",
    "visibility_sm": 10.0,
    "ceiling_ft": 1800.0,
    "raw": "KSEA 140753Z 18012G21KT 10SM BKN018 BKN095 11/08 A3014 RMK AO2 SLP214 T01110078 401440106"
  },
  "webcam_url": "https://atmos.uw.edu/data/images/webcam2_latest.jpg",
  "model_version": "latest"
}
