{
  "timestamp_utc": "2026-05-06T05:33:33Z",
  "class_index": 0,
  "class_name": "not_out",
  "is_out": false,
  "confidence": {
    "not_out": 0.9992266893386841,
    "full": 0.00040271980105899274,
    "partial": 0.0003705232229549438
  },
  "weather": {
    "station": "KSEA",
    "visibility_sm": 10.0,
    "ceiling_ft": null,
    "raw": "KSEA 060453Z 20007KT 10SM CLR 14/11 A3000 RMK AO2 SLP165 T01440106"
  },
  "webcam_url": "https://atmos.uw.edu/data/images/webcam2_latest.jpg",
  "model_version": "latest"
}
