{
  "timestamp_utc": "2026-05-08T11:24:51Z",
  "class_index": 0,
  "class_name": "not_out",
  "is_out": false,
  "confidence": {
    "not_out": 0.9920603036880493,
    "full": 0.005937575362622738,
    "partial": 0.002002070192247629
  },
  "weather": {
    "station": "KSEA",
    "visibility_sm": 10.0,
    "ceiling_ft": 19000.0,
    "raw": "KSEA 081053Z 19006KT 10SM BKN190 OVC230 10/08 A3003 RMK AO2 SLP175 T01000078 $"
  },
  "webcam_url": "https://atmos.uw.edu/data/images/webcam2_latest.jpg",
  "model_version": "latest"
}
