{
  "timestamp_utc": "2026-04-24T11:34:04Z",
  "class_index": 0,
  "class_name": "not_out",
  "is_out": false,
  "confidence": {
    "not_out": 0.9991940855979919,
    "full": 0.00041988800512626767,
    "partial": 0.0003860512806568295
  },
  "weather": {
    "station": "KSEA",
    "visibility_sm": 10.0,
    "ceiling_ft": null,
    "raw": "KSEA 241053Z 03004KT 10SM SCT040 07/04 A3016 RMK AO2 SLP222 T00670044"
  },
  "webcam_url": "https://atmos.uw.edu/data/images/webcam2_latest.jpg",
  "model_version": "cfe990f"
}
