{
  "timestamp_utc": "2026-05-10T21:18:29Z",
  "class_index": 0,
  "class_name": "not_out",
  "is_out": false,
  "confidence": {
    "not_out": 0.9844722151756287,
    "full": 0.006895833183079958,
    "partial": 0.008631967008113861
  },
  "weather": {
    "station": "KSEA",
    "visibility_sm": 10.0,
    "ceiling_ft": null,
    "raw": "KSEA 102100Z 00000KT 10SM CLR 16/08 A3012 RMK AO2 T01610083 $"
  },
  "webcam_url": "https://atmos.uw.edu/data/images/webcam2_latest.jpg",
  "model_version": "latest"
}
