{
  "timestamp_utc": "2026-05-13T12:29:44Z",
  "class_index": 0,
  "class_name": "not_out",
  "is_out": false,
  "confidence": {
    "not_out": 0.9921754002571106,
    "full": 0.00010702088911784813,
    "partial": 0.007717509754002094
  },
  "weather": {
    "station": "KSEA",
    "visibility_sm": 10.0,
    "ceiling_ft": 8500.0,
    "raw": "KSEA 131211Z 18006KT 10SM FEW018 SCT034 OVC085 11/09 A2985 RMK AO2 T01110094"
  },
  "webcam_url": "https://atmos.uw.edu/data/images/webcam2_latest.jpg",
  "model_version": "latest"
}
