{
  "timestamp_utc": "2026-05-15T16:37:25Z",
  "class_index": 0,
  "class_name": "not_out",
  "is_out": false,
  "confidence": {
    "not_out": 0.9905303120613098,
    "full": 0.000016102696463349275,
    "partial": 0.00945369340479374
  },
  "weather": {
    "station": "KSEA",
    "visibility_sm": 10.0,
    "ceiling_ft": 2800.0,
    "raw": "KSEA 151621Z 19012G18KT 10SM SCT019 BKN028 OVC065 10/06 A3013 RMK AO2 T01000056"
  },
  "webcam_url": "https://atmos.uw.edu/data/images/webcam2_latest.jpg",
  "model_version": "latest"
}
