{
  "timestamp_utc": "2026-05-07T21:19:19Z",
  "class_index": 0,
  "class_name": "not_out",
  "is_out": false,
  "confidence": {
    "not_out": 0.9809014201164246,
    "full": 0.006639155559241772,
    "partial": 0.012459426186978817
  },
  "weather": {
    "station": "KSEA",
    "visibility_sm": 10.0,
    "ceiling_ft": 3800.0,
    "raw": "KSEA 072053Z VRB05KT 10SM SCT032 BKN038 BKN220 17/07 A3011 RMK AO2 SLP203 T01670067 58010 $"
  },
  "webcam_url": "https://atmos.uw.edu/data/images/webcam2_latest.jpg",
  "model_version": "latest"
}
