{
  "timestamp_utc": "2026-05-13T03:41:04Z",
  "class_index": 0,
  "class_name": "not_out",
  "is_out": false,
  "confidence": {
    "not_out": 0.9871161580085754,
    "full": 0.0029860162176191807,
    "partial": 0.009897918440401554
  },
  "weather": {
    "station": "KSEA",
    "visibility_sm": 10.0,
    "ceiling_ft": 10000.0,
    "raw": "KSEA 130253Z 21010KT 10SM FEW050 BKN100 BKN220 19/08 A2982 RMK AO2 SLP104 ACSL DSNT SE T01890078 50006"
  },
  "webcam_url": "https://atmos.uw.edu/data/images/webcam2_latest.jpg",
  "model_version": "latest"
}
