{
  "timestamp_utc": "2026-05-21T18:36:52Z",
  "class_index": 1,
  "class_name": "full",
  "is_out": true,
  "confidence": {
    "not_out": 0.035505883395671844,
    "full": 0.9571419358253479,
    "partial": 0.0073521812446415424
  },
  "weather": {
    "station": "KSEA",
    "visibility_sm": 10.0,
    "ceiling_ft": null,
    "raw": "KSEA 211753Z VRB06KT 10SM FEW210 SCT250 18/09 A3014 RMK AO2 SLP211 T01780094 10178 20094 58009"
  },
  "webcam_url": "https://atmos.uw.edu/data/images/webcam2_latest.jpg",
  "model_version": "latest"
}
