{
  "timestamp_utc": "2026-05-09T16:52:05Z",
  "class_index": 2,
  "class_name": "partial",
  "is_out": true,
  "confidence": {
    "not_out": 0.029169151559472084,
    "full": 0.43340325355529785,
    "partial": 0.5374276638031006
  },
  "weather": {
    "station": "KSEA",
    "visibility_sm": 10.0,
    "ceiling_ft": null,
    "raw": "KSEA 091553Z 17003KT 10SM FEW014 SCT025 SCT250 13/09 A3018 RMK AO2 SLP227 T01330089"
  },
  "webcam_url": "https://atmos.uw.edu/data/images/webcam2_latest.jpg",
  "model_version": "latest"
}
