{
  "timestamp_utc": "2026-04-21T17:34:34Z",
  "class_index": 0,
  "class_name": "not_out",
  "is_out": false,
  "confidence": {
    "not_out": 0.7508018016815186,
    "full": 0.010884718969464302,
    "partial": 0.23831340670585632
  },
  "weather": {
    "station": "KSEA",
    "visibility_sm": 10.0,
    "ceiling_ft": 15000.0,
    "raw": "KSEA 211653Z 18004KT 10SM FEW030 SCT100 BKN150 BKN200 12/05 A2980 RMK AO2 SLP097 ACSL DSNT SE T01220050"
  },
  "webcam_url": "https://atmos.uw.edu/data/images/webcam2_latest.jpg",
  "model_version": "58e6cee"
}
