{
  "timestamp_utc": "2026-05-24T12:48:33Z",
  "class_index": 0,
  "class_name": "not_out",
  "is_out": false,
  "confidence": {
    "not_out": 0.9965726137161255,
    "full": 0.00010211886547040194,
    "partial": 0.003325234865769744
  },
  "weather": {
    "station": "KSEA",
    "visibility_sm": 10.0,
    "ceiling_ft": 1900.0,
    "raw": "KSEA 241225Z 22005KT 10SM BKN019 OVC031 10/07 A3003 RMK AO2 T01000072"
  },
  "webcam_url": "https://atmos.uw.edu/data/images/webcam2_latest.jpg",
  "model_version": "latest"
}
