{
  "timestamp_utc": "2026-05-21T17:06:13Z",
  "class_index": 1,
  "class_name": "full",
  "is_out": true,
  "confidence": {
    "not_out": 0.005707241594791412,
    "full": 0.9916819930076599,
    "partial": 0.0026108173187822104
  },
  "weather": {
    "station": "KSEA",
    "visibility_sm": 10.0,
    "ceiling_ft": null,
    "raw": "KSEA 211653Z 29003KT 10SM FEW250 16/09 A3015 RMK AO2 SLP216 T01610094"
  },
  "webcam_url": "https://atmos.uw.edu/data/images/webcam2_latest.jpg",
  "model_version": "latest"
}
