{
  "timestamp_utc": "2026-05-04T03:43:32Z",
  "class_index": 2,
  "class_name": "partial",
  "is_out": true,
  "confidence": {
    "not_out": 0.018745778128504753,
    "full": 0.0029302227776497602,
    "partial": 0.9783239960670471
  },
  "weather": {
    "station": "KSEA",
    "visibility_sm": 10.0,
    "ceiling_ft": null,
    "raw": "KSEA 040253Z 34008KT 10SM FEW250 22/08 A2981 RMK AO2 SLP097 T02220083 56010 $"
  },
  "webcam_url": "https://atmos.uw.edu/data/images/webcam2_latest.jpg",
  "model_version": "latest"
}
