{
  "timestamp_utc": "2026-05-22T11:28:46Z",
  "class_index": 0,
  "class_name": "not_out",
  "is_out": false,
  "confidence": {
    "not_out": 0.9982175230979919,
    "full": 0.0013311151415109634,
    "partial": 0.00045134295942261815
  },
  "weather": {
    "station": "KSEA",
    "visibility_sm": 10.0,
    "ceiling_ft": null,
    "raw": "KSEA 221053Z 00000KT 10SM CLR 13/08 A2997 RMK AO2 SLP154 T01280078"
  },
  "webcam_url": "https://atmos.uw.edu/data/images/webcam2_latest.jpg",
  "model_version": "latest"
}
