{
  "timestamp_utc": "2026-05-12T15:20:52Z",
  "class_index": 0,
  "class_name": "not_out",
  "is_out": false,
  "confidence": {
    "not_out": 0.6303207278251648,
    "full": 0.09242270886898041,
    "partial": 0.2772565484046936
  },
  "weather": {
    "station": "KSEA",
    "visibility_sm": 10.0,
    "ceiling_ft": 21000.0,
    "raw": "KSEA 121453Z 36005KT 10SM SCT170 BKN210 BKN250 14/09 A2990 RMK AO2 SLP132 T01440089 56011"
  },
  "webcam_url": "https://atmos.uw.edu/data/images/webcam2_latest.jpg",
  "model_version": "latest"
}
