{
  "timestamp_utc": "2026-05-17T06:38:00Z",
  "class_index": 0,
  "class_name": "not_out",
  "is_out": false,
  "confidence": {
    "not_out": 0.9982202649116516,
    "full": 0.0011455598287284374,
    "partial": 0.000634077237918973
  },
  "weather": {
    "station": "KSEA",
    "visibility_sm": 10.0,
    "ceiling_ft": 3800.0,
    "raw": "KSEA 170553Z 13009KT 10SM BKN038 BKN060 08/06 A3020 RMK AO2 SLP234 60008 T00780056 10117 20072 51012"
  },
  "webcam_url": "https://atmos.uw.edu/data/images/webcam2_latest.jpg",
  "model_version": "latest"
}
