{
  "timestamp_utc": "2026-05-23T00:34:02Z",
  "class_index": 1,
  "class_name": "full",
  "is_out": true,
  "confidence": {
    "not_out": 0.002757103182375431,
    "full": 0.9965593218803406,
    "partial": 0.000683551246766001
  },
  "weather": {
    "station": "KSEA",
    "visibility_sm": 10.0,
    "ceiling_ft": null,
    "raw": "KSEA 222353Z 24005KT 10SM FEW060 FEW100 SCT250 24/10 A2987 RMK AO2 SLP120 T02390100 10250 20183 56016"
  },
  "webcam_url": "https://atmos.uw.edu/data/images/webcam2_latest.jpg",
  "model_version": "latest"
}
