{
  "timestamp_utc": "2026-05-18T00:14:56Z",
  "class_index": 1,
  "class_name": "full",
  "is_out": true,
  "confidence": {
    "not_out": 0.4132373631000519,
    "full": 0.47951799631118774,
    "partial": 0.10724464803934097
  },
  "weather": {
    "station": "KSEA",
    "visibility_sm": 10.0,
    "ceiling_ft": null,
    "raw": "KSEA 172353Z 25007KT 10SM SCT043 16/05 A3028 RMK AO2 SLP259 T01610050 10167 20100 58014 $"
  },
  "webcam_url": "https://atmos.uw.edu/data/images/webcam2_latest.jpg",
  "model_version": "latest"
}
