{
  "timestamp_utc": "2026-05-13T04:26:22Z",
  "class_index": 0,
  "class_name": "not_out",
  "is_out": false,
  "confidence": {
    "not_out": 0.9986191987991333,
    "full": 0.0008930600597523153,
    "partial": 0.00048774442984722555
  },
  "weather": {
    "station": "KSEA",
    "visibility_sm": 10.0,
    "ceiling_ft": 18000.0,
    "raw": "KSEA 130353Z 22008KT 10SM FEW050 SCT100 BKN180 BKN220 17/07 A2985 RMK AO2 SLP112 T01720072"
  },
  "webcam_url": "https://atmos.uw.edu/data/images/webcam2_latest.jpg",
  "model_version": "latest"
}
