{
  "timestamp_utc": "2026-05-09T15:36:35Z",
  "class_index": 1,
  "class_name": "full",
  "is_out": true,
  "confidence": {
    "not_out": 0.005898727104067802,
    "full": 0.9031273126602173,
    "partial": 0.09097389131784439
  },
  "weather": {
    "station": "KSEA",
    "visibility_sm": 10.0,
    "ceiling_ft": 25000.0,
    "raw": "KSEA 091523Z 00000KT 10SM FEW005 SCT025 BKN250 13/09 A3018 RMK AO2 T01280089"
  },
  "webcam_url": "https://atmos.uw.edu/data/images/webcam2_latest.jpg",
  "model_version": "latest"
}
