{
  "timestamp_utc": "2026-04-25T15:10:57Z",
  "class_index": 2,
  "class_name": "partial",
  "is_out": true,
  "confidence": {
    "not_out": 0.25811609625816345,
    "full": 0.09921199083328247,
    "partial": 0.6426719427108765
  },
  "weather": {
    "station": "KSEA",
    "visibility_sm": 10.0,
    "ceiling_ft": null,
    "raw": "KSEA 251453Z 15003KT 10SM CLR 08/01 A2995 RMK AO2 SLP148 T00830011 55000"
  },
  "webcam_url": "https://atmos.uw.edu/data/images/webcam2_latest.jpg",
  "model_version": "ca83736"
}
