{
  "timestamp_utc": "2026-05-11T08:53:08Z",
  "class_index": 0,
  "class_name": "not_out",
  "is_out": false,
  "confidence": {
    "not_out": 0.9984777569770813,
    "full": 0.0009393637883476913,
    "partial": 0.0005828371504321694
  },
  "weather": {
    "station": "KSEA",
    "visibility_sm": 10.0,
    "ceiling_ft": null,
    "raw": "KSEA 110753Z 00000KT 10SM FEW050 12/10 A3018 RMK AO2 SLP228 T01170100 401890089 $"
  },
  "webcam_url": "https://atmos.uw.edu/data/images/webcam2_latest.jpg",
  "model_version": "latest"
}
