{
  "timestamp_utc": "2026-05-10T04:57:00Z",
  "class_index": 0,
  "class_name": "not_out",
  "is_out": false,
  "confidence": {
    "not_out": 0.9969193935394287,
    "full": 0.001208184170536697,
    "partial": 0.0018724361434578896
  },
  "weather": {
    "station": "KSEA",
    "visibility_sm": 10.0,
    "ceiling_ft": null,
    "raw": "KSEA 100453Z 31003KT 10SM SCT180 SCT230 14/09 A3001 RMK AO2 SLP168 T01440089"
  },
  "webcam_url": "https://atmos.uw.edu/data/images/webcam2_latest.jpg",
  "model_version": "latest"
}
