{
  "timestamp_utc": "2026-05-16T12:16:06Z",
  "class_index": 0,
  "class_name": "not_out",
  "is_out": false,
  "confidence": {
    "not_out": 0.9993007183074951,
    "full": 0.00004149950837017968,
    "partial": 0.0006578147877007723
  },
  "weather": {
    "station": "KSEA",
    "visibility_sm": 10.0,
    "ceiling_ft": 25000.0,
    "raw": "KSEA 161153Z 18013KT 10SM FEW013 SCT022 SCT100 BKN250 07/05 A3007 RMK AO2 SLP191 60000 70026 T00720050 10083 20067 53004"
  },
  "webcam_url": "https://atmos.uw.edu/data/images/webcam2_latest.jpg",
  "model_version": "latest"
}
