{
  "timestamp_utc": "2026-05-07T22:49:54Z",
  "class_index": 0,
  "class_name": "not_out",
  "is_out": false,
  "confidence": {
    "not_out": 0.5601500868797302,
    "full": 0.028202500194311142,
    "partial": 0.41164737939834595
  },
  "weather": {
    "station": "KSEA",
    "visibility_sm": 10.0,
    "ceiling_ft": 3800.0,
    "raw": "KSEA 072153Z 28006KT 10SM BKN038 BKN250 17/07 A3009 RMK AO2 SLP196 T01720072 $"
  },
  "webcam_url": "https://atmos.uw.edu/data/images/webcam2_latest.jpg",
  "model_version": "latest"
}
