{
  "timestamp_utc": "2026-05-16T03:27:42Z",
  "class_index": 0,
  "class_name": "not_out",
  "is_out": false,
  "confidence": {
    "not_out": 0.9991525411605835,
    "full": 0.00009417891124030575,
    "partial": 0.0007531856535933912
  },
  "weather": {
    "station": "KSEA",
    "visibility_sm": 5.0,
    "ceiling_ft": 3800.0,
    "raw": "KSEA 160253Z 18010KT 5SM -RA BR FEW014 BKN038 OVC048 09/07 A3007 RMK AO2 RAB14 SLP189 P0007 60010 T00890072 56007"
  },
  "webcam_url": "https://atmos.uw.edu/data/images/webcam2_latest.jpg",
  "model_version": "latest"
}
