{
  "timestamp_utc": "2026-05-21T04:46:11Z",
  "class_index": 0,
  "class_name": "not_out",
  "is_out": false,
  "confidence": {
    "not_out": 0.9981892704963684,
    "full": 0.0014034947380423546,
    "partial": 0.00040720755350776017
  },
  "weather": {
    "station": "KSEA",
    "visibility_sm": 10.0,
    "ceiling_ft": 23000.0,
    "raw": "KSEA 210353Z 31005KT 10SM FEW030 BKN230 16/08 A3015 RMK AO2 SLP215 T01560083"
  },
  "webcam_url": "https://atmos.uw.edu/data/images/webcam2_latest.jpg",
  "model_version": "latest"
}
