{
  "timestamp_utc": "2026-05-16T02:27:17Z",
  "class_index": 0,
  "class_name": "not_out",
  "is_out": false,
  "confidence": {
    "not_out": 0.9935271739959717,
    "full": 0.000012137075827922672,
    "partial": 0.006460757926106453
  },
  "weather": {
    "station": "KSEA",
    "visibility_sm": 10.0,
    "ceiling_ft": 10000.0,
    "raw": "KSEA 160153Z 18012KT 10SM FEW027 BKN100 OVC110 09/07 A3007 RMK AO2 RAE27 SLP190 P0002 T00940072"
  },
  "webcam_url": "https://atmos.uw.edu/data/images/webcam2_latest.jpg",
  "model_version": "latest"
}
