{
  "timestamp_utc": "2026-05-09T09:34:08Z",
  "class_index": 0,
  "class_name": "not_out",
  "is_out": false,
  "confidence": {
    "not_out": 0.9974212646484375,
    "full": 0.0006991411210037768,
    "partial": 0.0018795867217704654
  },
  "weather": {
    "station": "KSEA",
    "visibility_sm": 10.0,
    "ceiling_ft": 2300.0,
    "raw": "KSEA 090853Z 22005KT 10SM SCT013 OVC023 12/09 A3022 RMK AO2 SLP240 T01170089 51005"
  },
  "webcam_url": "https://atmos.uw.edu/data/images/webcam2_latest.jpg",
  "model_version": "latest"
}
