{
  "timestamp_utc": "2026-05-11T09:23:21Z",
  "class_index": 0,
  "class_name": "not_out",
  "is_out": false,
  "confidence": {
    "not_out": 0.9979273080825806,
    "full": 0.0013105733087286353,
    "partial": 0.0007620849646627903
  },
  "weather": {
    "station": "KSEA",
    "visibility_sm": 10.0,
    "ceiling_ft": 6000.0,
    "raw": "KSEA 110853Z 00000KT 10SM BKN060 11/09 A3020 RMK AO2 SLP234 T01110094 53014 $"
  },
  "webcam_url": "https://atmos.uw.edu/data/images/webcam2_latest.jpg",
  "model_version": "latest"
}
