{
  "timestamp_utc": "2026-05-20T08:22:51Z",
  "class_index": 0,
  "class_name": "not_out",
  "is_out": false,
  "confidence": {
    "not_out": 0.9986475110054016,
    "full": 0.0008630263619124889,
    "partial": 0.0004895473248325288
  },
  "weather": {
    "station": "KSEA",
    "visibility_sm": 10.0,
    "ceiling_ft": null,
    "raw": "KSEA 200753Z 29004KT 10SM FEW012 SCT080 11/09 A3022 RMK AO2 SLP241 T01060094 401830106"
  },
  "webcam_url": "https://atmos.uw.edu/data/images/webcam2_latest.jpg",
  "model_version": "latest"
}
