{
  "timestamp_utc": "2026-05-18T03:31:25Z",
  "class_index": 2,
  "class_name": "partial",
  "is_out": true,
  "confidence": {
    "not_out": 0.0034101412165910006,
    "full": 0.1160062924027443,
    "partial": 0.8805835247039795
  },
  "weather": {
    "station": "KSEA",
    "visibility_sm": 10.0,
    "ceiling_ft": null,
    "raw": "KSEA 180253Z 20004KT 10SM FEW043 SCT250 14/05 A3024 RMK AO2 SLP247 T01440050 58012 $"
  },
  "webcam_url": "https://atmos.uw.edu/data/images/webcam2_latest.jpg",
  "model_version": "latest"
}
