{
  "timestamp_utc": "2026-05-11T21:43:34Z",
  "class_index": 1,
  "class_name": "full",
  "is_out": true,
  "confidence": {
    "not_out": 0.019836625084280968,
    "full": 0.975676953792572,
    "partial": 0.004486376419663429
  },
  "weather": {
    "station": "KSEA",
    "visibility_sm": 10.0,
    "ceiling_ft": null,
    "raw": "KSEA 112053Z 33012KT 10SM FEW040 FEW250 20/08 A3014 RMK AO2 SLP211 T02000078 57017"
  },
  "webcam_url": "https://atmos.uw.edu/data/images/webcam2_latest.jpg",
  "model_version": "latest"
}
