{
  "timestamp_utc": "2026-05-15T05:02:48Z",
  "class_index": 0,
  "class_name": "not_out",
  "is_out": false,
  "confidence": {
    "not_out": 0.9974864721298218,
    "full": 0.0019125728867948055,
    "partial": 0.0006010239594615996
  },
  "weather": {
    "station": "KSEA",
    "visibility_sm": 10.0,
    "ceiling_ft": 3500.0,
    "raw": "KSEA 150453Z 16009KT 10SM FEW017 SCT022 OVC035 11/08 A3011 RMK AO2 RAB26E51 SLP202 P0001 T01060083 $"
  },
  "webcam_url": "https://atmos.uw.edu/data/images/webcam2_latest.jpg",
  "model_version": "latest"
}
