{
  "timestamp_utc": "2026-05-18T16:06:30Z",
  "class_index": 2,
  "class_name": "partial",
  "is_out": true,
  "confidence": {
    "not_out": 0.23338642716407776,
    "full": 0.01506892591714859,
    "partial": 0.7515445947647095
  },
  "weather": {
    "station": "KSEA",
    "visibility_sm": 10.0,
    "ceiling_ft": 1500.0,
    "raw": "KSEA 181600Z 00000KT 10SM BKN015 BKN080 BKN200 11/07 A3026 RMK AO2 T01060072"
  },
  "webcam_url": "https://atmos.uw.edu/data/images/webcam2_latest.jpg",
  "model_version": "latest"
}
