{
  "timestamp_utc": "2026-05-03T09:36:29Z",
  "class_index": 0,
  "class_name": "not_out",
  "is_out": false,
  "confidence": {
    "not_out": 0.9992278814315796,
    "full": 0.0004505176329985261,
    "partial": 0.00032159604597836733
  },
  "weather": {
    "station": "KSEA",
    "visibility_sm": 10.0,
    "ceiling_ft": null,
    "raw": "KSEA 030853Z 02005KT 10SM CLR 17/07 A2997 RMK AO2 SLP151 T01720067 53005 $"
  },
  "webcam_url": "https://atmos.uw.edu/data/images/webcam2_latest.jpg",
  "model_version": "latest"
}
