{
  "timestamp_utc": "2026-05-03T13:38:01Z",
  "class_index": 2,
  "class_name": "partial",
  "is_out": true,
  "confidence": {
    "not_out": 0.004687947686761618,
    "full": 0.36924946308135986,
    "partial": 0.6260625720024109
  },
  "weather": {
    "station": "KSEA",
    "visibility_sm": 10.0,
    "ceiling_ft": null,
    "raw": "KSEA 031253Z 04005KT 10SM CLR 13/08 A2995 RMK AO2 SLP145 T01330083 $"
  },
  "webcam_url": "https://atmos.uw.edu/data/images/webcam2_latest.jpg",
  "model_version": "latest"
}
