{
  "timestamp_utc": "2026-05-07T23:35:11Z",
  "class_index": 0,
  "class_name": "not_out",
  "is_out": false,
  "confidence": {
    "not_out": 0.9838531017303467,
    "full": 0.003051075618714094,
    "partial": 0.013095847330987453
  },
  "weather": {
    "station": "KSEA",
    "visibility_sm": 10.0,
    "ceiling_ft": 22000.0,
    "raw": "KSEA 072253Z 27008KT 10SM FEW040 SCT045 BKN220 17/07 A3007 RMK AO2 SLP190 T01720072 $"
  },
  "webcam_url": "https://atmos.uw.edu/data/images/webcam2_latest.jpg",
  "model_version": "latest"
}
