{
  "timestamp_utc": "2026-05-06T04:18:03Z",
  "class_index": 0,
  "class_name": "not_out",
  "is_out": false,
  "confidence": {
    "not_out": 0.9997358918190002,
    "full": 0.00011716374865500256,
    "partial": 0.0001469702838221565
  },
  "weather": {
    "station": "KSEA",
    "visibility_sm": 10.0,
    "ceiling_ft": null,
    "raw": "KSEA 060353Z 20004KT 10SM CLR 15/11 A2999 RMK AO2 SLP163 T01500106"
  },
  "webcam_url": "https://atmos.uw.edu/data/images/webcam2_latest.jpg",
  "model_version": "latest"
}
