{
  "timestamp_utc": "2026-05-05T04:38:41Z",
  "class_index": 0,
  "class_name": "not_out",
  "is_out": false,
  "confidence": {
    "not_out": 0.9991525411605835,
    "full": 0.00041406648233532906,
    "partial": 0.0004334835975896567
  },
  "weather": {
    "station": "KSEA",
    "visibility_sm": 10.0,
    "ceiling_ft": null,
    "raw": "KSEA 050353Z 23008KT 10SM SCT250 17/11 A2984 RMK AO2 SLP110 T01670106"
  },
  "webcam_url": "https://atmos.uw.edu/data/images/webcam2_latest.jpg",
  "model_version": "latest"
}
