{
  "timestamp_utc": "2026-05-23T11:08:13Z",
  "class_index": 0,
  "class_name": "not_out",
  "is_out": false,
  "confidence": {
    "not_out": 0.9978812336921692,
    "full": 0.0012623051879927516,
    "partial": 0.0008564491872675717
  },
  "weather": {
    "station": "KSEA",
    "visibility_sm": 10.0,
    "ceiling_ft": null,
    "raw": "KSEA 231053Z 19007KT 10SM SCT010 11/09 A2990 RMK AO2 SLP129 T01060094"
  },
  "webcam_url": "https://atmos.uw.edu/data/images/webcam2_latest.jpg",
  "model_version": "latest"
}
