{
  "timestamp_utc": "2026-04-22T11:37:34Z",
  "class_index": 0,
  "class_name": "not_out",
  "is_out": false,
  "confidence": {
    "not_out": 0.9993077516555786,
    "full": 0.0003583675133995712,
    "partial": 0.00033394352067261934
  },
  "weather": {
    "station": "KSEA",
    "visibility_sm": 6.0,
    "ceiling_ft": 300.0,
    "raw": "KSEA 221053Z 21007KT 6SM -RA BR OVC003 10/09 A2984 RMK AO2 SLP110 P0009 T01000094"
  },
  "webcam_url": "https://atmos.uw.edu/data/images/webcam2_latest.jpg",
  "model_version": "6c3bed7"
}
