{
  "timestamp_utc": "2026-04-20T22:33:12Z",
  "class_index": 1,
  "class_name": "full",
  "is_out": true,
  "confidence": {
    "not_out": 0.21170324087142944,
    "full": 0.7803335785865784,
    "partial": 0.007963125593960285
  },
  "weather": {
    "station": "KSEA",
    "visibility_sm": 10.0,
    "ceiling_ft": 19000.0,
    "raw": "KSEA 202153Z 29004KT 10SM FEW150 BKN190 BKN250 19/08 A2978 RMK AO2 SLP089 ACSL DSNT SE T01940078"
  },
  "webcam_url": "https://atmos.uw.edu/data/images/webcam2_latest.jpg",
  "model_version": "666f099"
}
