{
  "timestamp_utc": "2026-05-18T21:23:41Z",
  "class_index": 0,
  "class_name": "not_out",
  "is_out": false,
  "confidence": {
    "not_out": 0.6323500275611877,
    "full": 0.1614113748073578,
    "partial": 0.20623856782913208
  },
  "weather": {
    "station": "KSEA",
    "visibility_sm": 10.0,
    "ceiling_ft": 20000.0,
    "raw": "KSEA 182053Z VRB03KT 10SM FEW030 SCT080 BKN200 17/07 A3025 RMK AO2 SLP250 T01670072 58003"
  },
  "webcam_url": "https://atmos.uw.edu/data/images/webcam2_latest.jpg",
  "model_version": "latest"
}
