{
  "timestamp_utc": "2026-05-17T13:55:46Z",
  "class_index": 0,
  "class_name": "not_out",
  "is_out": false,
  "confidence": {
    "not_out": 0.9967821836471558,
    "full": 0.0004503348027355969,
    "partial": 0.0027674229349941015
  },
  "weather": {
    "station": "KSEA",
    "visibility_sm": 10.0,
    "ceiling_ft": 3800.0,
    "raw": "KSEA 171353Z 00000KT 10SM FEW010 BKN038 OVC060 07/06 A3027 RMK AO2 SLP258 T00670056 $"
  },
  "webcam_url": "https://atmos.uw.edu/data/images/webcam2_latest.jpg",
  "model_version": "latest"
}
