{
  "timestamp_utc": "2026-05-19T22:33:59Z",
  "class_index": 0,
  "class_name": "not_out",
  "is_out": false,
  "confidence": {
    "not_out": 0.9954196214675903,
    "full": 0.00003944884883821942,
    "partial": 0.00454095471650362
  },
  "weather": {
    "station": "KSEA",
    "visibility_sm": 10.0,
    "ceiling_ft": 2700.0,
    "raw": "KSEA 192153Z 17006KT 10SM BKN027 BKN065 17/09 A3025 RMK AO2 SLP251 T01670089"
  },
  "webcam_url": "https://atmos.uw.edu/data/images/webcam2_latest.jpg",
  "model_version": "latest"
}
