{
  "timestamp_utc": "2026-05-05T23:46:16Z",
  "class_index": 1,
  "class_name": "full",
  "is_out": true,
  "confidence": {
    "not_out": 0.08046772330999374,
    "full": 0.8899683952331543,
    "partial": 0.029563868418335915
  },
  "weather": {
    "station": "KSEA",
    "visibility_sm": 10.0,
    "ceiling_ft": null,
    "raw": "KSEA 052335Z 25008KT 10SM SCT024 17/11 A3000 RMK AO2 T01670111"
  },
  "webcam_url": "https://atmos.uw.edu/data/images/webcam2_latest.jpg",
  "model_version": "latest"
}
