{
  "timestamp_utc": "2026-05-18T07:02:48Z",
  "class_index": 0,
  "class_name": "not_out",
  "is_out": false,
  "confidence": {
    "not_out": 0.9982743263244629,
    "full": 0.0010324632748961449,
    "partial": 0.0006932166288606822
  },
  "weather": {
    "station": "KSEA",
    "visibility_sm": 10.0,
    "ceiling_ft": null,
    "raw": "KSEA 180353Z 23003KT 10SM FEW043 SCT250 14/05 A3025 RMK AO2 SLP249 T01390050 $"
  },
  "webcam_url": "https://atmos.uw.edu/data/images/webcam2_latest.jpg",
  "model_version": "latest"
}
