{
  "timestamp_utc": "2026-05-07T00:11:00Z",
  "class_index": 0,
  "class_name": "not_out",
  "is_out": false,
  "confidence": {
    "not_out": 0.9942805767059326,
    "full": 0.000010811844731506426,
    "partial": 0.005708673503249884
  },
  "weather": {
    "station": "KSEA",
    "visibility_sm": 10.0,
    "ceiling_ft": 2800.0,
    "raw": "KSEA 062353Z 23010KT 10SM OVC028 13/08 A3014 RMK AO2 SLP213 T01330083 10139 20117 58003 $"
  },
  "webcam_url": "https://atmos.uw.edu/data/images/webcam2_latest.jpg",
  "model_version": "latest"
}
