{
  "timestamp_utc": "2026-05-18T22:09:02Z",
  "class_index": 0,
  "class_name": "not_out",
  "is_out": false,
  "confidence": {
    "not_out": 0.7067453861236572,
    "full": 0.21650496125221252,
    "partial": 0.07674972712993622
  },
  "weather": {
    "station": "KSEA",
    "visibility_sm": 10.0,
    "ceiling_ft": null,
    "raw": "KSEA 182153Z VRB04G15KT 10SM FEW035 SCT080 SCT200 17/07 A3024 RMK AO2 SLP248 T01720067"
  },
  "webcam_url": "https://atmos.uw.edu/data/images/webcam2_latest.jpg",
  "model_version": "latest"
}
