{
  "timestamp_utc": "2026-04-23T01:14:08Z",
  "class_index": 0,
  "class_name": "not_out",
  "is_out": false,
  "confidence": {
    "not_out": 0.9907944798469543,
    "full": 9.272638271795586e-05,
    "partial": 0.009112779051065445
  },
  "weather": {
    "station": "KSEA",
    "visibility_sm": 10.0,
    "ceiling_ft": 3000.0,
    "raw": "KSEA 230053Z 20013KT 10SM OVC030 11/07 A3005 RMK AO2 SLP183 T01110072"
  },
  "webcam_url": "https://atmos.uw.edu/data/images/webcam2_latest.jpg",
  "model_version": "8a76262"
}
