{
  "timestamp_utc": "2026-05-21T19:37:17Z",
  "class_index": 1,
  "class_name": "full",
  "is_out": true,
  "confidence": {
    "not_out": 0.11168335378170013,
    "full": 0.8494817614555359,
    "partial": 0.0388348288834095
  },
  "weather": {
    "station": "KSEA",
    "visibility_sm": 10.0,
    "ceiling_ft": 25000.0,
    "raw": "KSEA 211853Z VRB05KT 10SM FEW100 FEW210 BKN250 19/09 A3013 RMK AO2 SLP207 T01890094"
  },
  "webcam_url": "https://atmos.uw.edu/data/images/webcam2_latest.jpg",
  "model_version": "latest"
}
