{
  "timestamp_utc": "2026-05-12T02:30:31Z",
  "class_index": 1,
  "class_name": "full",
  "is_out": true,
  "confidence": {
    "not_out": 0.01972246542572975,
    "full": 0.8552278280258179,
    "partial": 0.12504972517490387
  },
  "weather": {
    "station": "KSEA",
    "visibility_sm": 10.0,
    "ceiling_ft": null,
    "raw": "KSEA 120153Z 35011KT 10SM FEW250 19/06 A3005 RMK AO2 SLP180 T01940056"
  },
  "webcam_url": "https://atmos.uw.edu/data/images/webcam2_latest.jpg",
  "model_version": "latest"
}
