{
  "timestamp_utc": "2026-05-13T00:54:56Z",
  "class_index": 2,
  "class_name": "partial",
  "is_out": true,
  "confidence": {
    "not_out": 0.48482659459114075,
    "full": 0.028033634647727013,
    "partial": 0.48713982105255127
  },
  "weather": {
    "station": "KSEA",
    "visibility_sm": 10.0,
    "ceiling_ft": 12000.0,
    "raw": "KSEA 122353Z 20008KT 10SM FEW060 BKN120 BKN230 26/08 A2981 RMK AO2 SLP097 60000 T02560078 10278 20200 56012"
  },
  "webcam_url": "https://atmos.uw.edu/data/images/webcam2_latest.jpg",
  "model_version": "latest"
}
