{
  "timestamp_utc": "2026-05-24T06:31:02Z",
  "class_index": 0,
  "class_name": "not_out",
  "is_out": false,
  "confidence": {
    "not_out": 0.9988433122634888,
    "full": 0.0007660233532078564,
    "partial": 0.00039064616430550814
  },
  "weather": {
    "station": "KSEA",
    "visibility_sm": 10.0,
    "ceiling_ft": 3700.0,
    "raw": "KSEA 240553Z 16003KT 10SM BKN037 OVC055 14/09 A3000 RMK AO2 SLP166 T01440094 10183 20144 53009"
  },
  "webcam_url": "https://atmos.uw.edu/data/images/webcam2_latest.jpg",
  "model_version": "latest"
}
