{
  "timestamp_utc": "2026-05-06T02:17:13Z",
  "class_index": 2,
  "class_name": "partial",
  "is_out": true,
  "confidence": {
    "not_out": 0.015882480889558792,
    "full": 0.18908672034740448,
    "partial": 0.7950307726860046
  },
  "weather": {
    "station": "KSEA",
    "visibility_sm": 10.0,
    "ceiling_ft": null,
    "raw": "KSEA 060153Z 19007KT 10SM CLR 17/11 A2998 RMK AO2 SLP158 T01670106"
  },
  "webcam_url": "https://atmos.uw.edu/data/images/webcam2_latest.jpg",
  "model_version": "latest"
}
