{
  "timestamp_utc": "2026-05-06T15:52:41Z",
  "class_index": 0,
  "class_name": "not_out",
  "is_out": false,
  "confidence": {
    "not_out": 0.9996514320373535,
    "full": 0.0000051993820306961425,
    "partial": 0.00034337874967604876
  },
  "weather": {
    "station": "KSEA",
    "visibility_sm": 3.0,
    "ceiling_ft": 500.0,
    "raw": "KSEA 061453Z 22006KT 3SM BR BKN005 OVC011 11/10 A3012 RMK AO2 SFC VIS 4 SLP205 CIG 004V006 T01060100 51012 $"
  },
  "webcam_url": "https://atmos.uw.edu/data/images/webcam2_latest.jpg",
  "model_version": "latest"
}
