{
  "timestamp_utc": "2026-05-18T02:00:48Z",
  "class_index": 2,
  "class_name": "partial",
  "is_out": true,
  "confidence": {
    "not_out": 0.010604383423924446,
    "full": 0.36892902851104736,
    "partial": 0.6204665899276733
  },
  "weather": {
    "station": "KSEA",
    "visibility_sm": 10.0,
    "ceiling_ft": null,
    "raw": "KSEA 180153Z 29005KT 10SM FEW043 SCT250 16/04 A3025 RMK AO2 SLP252 T01610039 $"
  },
  "webcam_url": "https://atmos.uw.edu/data/images/webcam2_latest.jpg",
  "model_version": "latest"
}
