{
  "timestamp_utc": "2026-05-24T20:06:26Z",
  "class_index": 1,
  "class_name": "full",
  "is_out": true,
  "confidence": {
    "not_out": 0.016358206048607826,
    "full": 0.9613903760910034,
    "partial": 0.022251488640904427
  },
  "weather": {
    "station": "KSEA",
    "visibility_sm": 10.0,
    "ceiling_ft": 20000.0,
    "raw": "KSEA 241953Z 25003KT 10SM FEW030 SCT150 BKN200 17/07 A2999 RMK AO2 SLP162 T01670067"
  },
  "webcam_url": "https://atmos.uw.edu/data/images/webcam2_latest.jpg",
  "model_version": "latest"
}
