{
  "timestamp_utc": "2026-05-13T05:41:54Z",
  "class_index": 0,
  "class_name": "not_out",
  "is_out": false,
  "confidence": {
    "not_out": 0.9985201954841614,
    "full": 0.0010606200667098165,
    "partial": 0.00041923357639461756
  },
  "weather": {
    "station": "KSEA",
    "visibility_sm": 10.0,
    "ceiling_ft": 9500.0,
    "raw": "KSEA 130453Z 22008G20KT 10SM FEW050 BKN095 BKN130 16/07 A2989 RMK AO2 SLP126 T01560067"
  },
  "webcam_url": "https://atmos.uw.edu/data/images/webcam2_latest.jpg",
  "model_version": "latest"
}
