{
  "timestamp_utc": "2026-05-11T05:51:55Z",
  "class_index": 0,
  "class_name": "not_out",
  "is_out": false,
  "confidence": {
    "not_out": 0.9982799291610718,
    "full": 0.0009779817191883922,
    "partial": 0.000742113683372736
  },
  "weather": {
    "station": "KSEA",
    "visibility_sm": 10.0,
    "ceiling_ft": 7000.0,
    "raw": "KSEA 110453Z 03004KT 10SM FEW041 BKN070 15/08 A3015 RMK AO2 SLP215 T01500083 $"
  },
  "webcam_url": "https://atmos.uw.edu/data/images/webcam2_latest.jpg",
  "model_version": "latest"
}
