{
  "timestamp_utc": "2026-05-23T09:22:31Z",
  "class_index": 0,
  "class_name": "not_out",
  "is_out": false,
  "confidence": {
    "not_out": 0.9976977705955505,
    "full": 0.0015165379736572504,
    "partial": 0.0007856328156776726
  },
  "weather": {
    "station": "KSEA",
    "visibility_sm": 10.0,
    "ceiling_ft": null,
    "raw": "KSEA 230853Z 23006KT 10SM CLR 13/10 A2988 RMK AO2 SLP122 T01280100 53007"
  },
  "webcam_url": "https://atmos.uw.edu/data/images/webcam2_latest.jpg",
  "model_version": "latest"
}
