{
  "timestamp_utc": "2026-05-22T15:15:17Z",
  "class_index": 1,
  "class_name": "full",
  "is_out": true,
  "confidence": {
    "not_out": 0.010976197198033333,
    "full": 0.9533726572990417,
    "partial": 0.03565108776092529
  },
  "weather": {
    "station": "KSEA",
    "visibility_sm": 10.0,
    "ceiling_ft": null,
    "raw": "KSEA 221453Z 29003KT 10SM FEW130 SCT250 14/09 A2999 RMK AO2 SLP159 T01390094 53004"
  },
  "webcam_url": "https://atmos.uw.edu/data/images/webcam2_latest.jpg",
  "model_version": "latest"
}
