{
  "timestamp_utc": "2026-05-22T05:41:27Z",
  "class_index": 0,
  "class_name": "not_out",
  "is_out": false,
  "confidence": {
    "not_out": 0.9986051917076111,
    "full": 0.0009317730437032878,
    "partial": 0.00046309182653203607
  },
  "weather": {
    "station": "KSEA",
    "visibility_sm": 10.0,
    "ceiling_ft": null,
    "raw": "KSEA 220453Z 35009KT 10SM FEW100 SCT250 17/06 A3001 RMK AO2 SLP166 T01720061"
  },
  "webcam_url": "https://atmos.uw.edu/data/images/webcam2_latest.jpg",
  "model_version": "latest"
}
