{
  "timestamp_utc": "2026-05-21T16:36:01Z",
  "class_index": 1,
  "class_name": "full",
  "is_out": true,
  "confidence": {
    "not_out": 0.003472966607660055,
    "full": 0.9939751029014587,
    "partial": 0.0025518930051475763
  },
  "weather": {
    "station": "KSEA",
    "visibility_sm": 10.0,
    "ceiling_ft": null,
    "raw": "KSEA 211553Z 00000KT 10SM FEW250 15/08 A3017 RMK AO2 SLP221 T01500083"
  },
  "webcam_url": "https://atmos.uw.edu/data/images/webcam2_latest.jpg",
  "model_version": "latest"
}
