{
  "timestamp_utc": "2026-05-22T07:27:09Z",
  "class_index": 0,
  "class_name": "not_out",
  "is_out": false,
  "confidence": {
    "not_out": 0.9985349178314209,
    "full": 0.0010826445650309324,
    "partial": 0.00038241775473579764
  },
  "weather": {
    "station": "KSEA",
    "visibility_sm": 10.0,
    "ceiling_ft": null,
    "raw": "KSEA 220653Z 03009KT 10SM SCT250 17/07 A3000 RMK AO2 SLP162 T01720072"
  },
  "webcam_url": "https://atmos.uw.edu/data/images/webcam2_latest.jpg",
  "model_version": "latest"
}
