{
  "timestamp_utc": "2026-05-17T17:12:06Z",
  "class_index": 0,
  "class_name": "not_out",
  "is_out": false,
  "confidence": {
    "not_out": 0.9773803353309631,
    "full": 0.00005193555625737645,
    "partial": 0.02256777137517929
  },
  "weather": {
    "station": "KSEA",
    "visibility_sm": 10.0,
    "ceiling_ft": 2000.0,
    "raw": "KSEA 171653Z VRB04KT 10SM SCT015 BKN020 OVC035 09/07 A3030 RMK AO2 SLP268 T00940067 $"
  },
  "webcam_url": "https://atmos.uw.edu/data/images/webcam2_latest.jpg",
  "model_version": "latest"
}
