{
  "timestamp_utc": "2026-05-04T01:57:51Z",
  "class_index": 1,
  "class_name": "full",
  "is_out": true,
  "confidence": {
    "not_out": 0.022884391248226166,
    "full": 0.891933262348175,
    "partial": 0.08518239110708237
  },
  "weather": {
    "station": "KSEA",
    "visibility_sm": 10.0,
    "ceiling_ft": null,
    "raw": "KSEA 040153Z 35011KT 10SM FEW030 24/09 A2981 RMK AO2 SLP099 T02440089 $"
  },
  "webcam_url": "https://atmos.uw.edu/data/images/webcam2_latest.jpg",
  "model_version": "latest"
}
