{
  "timestamp_utc": "2026-05-13T16:16:37Z",
  "class_index": 0,
  "class_name": "not_out",
  "is_out": false,
  "confidence": {
    "not_out": 0.9968090653419495,
    "full": 0.0000072824718699848745,
    "partial": 0.0031836694106459618
  },
  "weather": {
    "station": "KSEA",
    "visibility_sm": 10.0,
    "ceiling_ft": 5500.0,
    "raw": "KSEA 131553Z 20009G17KT 10SM -RA FEW015 SCT032 BKN055 11/08 A2989 RMK AO2 RAB35 SLP128 P0000 T01060083"
  },
  "webcam_url": "https://atmos.uw.edu/data/images/webcam2_latest.jpg",
  "model_version": "latest"
}
