{
  "timestamp_utc": "2026-05-20T09:38:21Z",
  "class_index": 0,
  "class_name": "not_out",
  "is_out": false,
  "confidence": {
    "not_out": 0.9989608526229858,
    "full": 0.0005619149305857718,
    "partial": 0.00047721309238113463
  },
  "weather": {
    "station": "KSEA",
    "visibility_sm": 10.0,
    "ceiling_ft": 1400.0,
    "raw": "KSEA 200853Z 28004KT 10SM OVC014 11/09 A3023 RMK AO2 SLP242 T01110094 51002 $"
  },
  "webcam_url": "https://atmos.uw.edu/data/images/webcam2_latest.jpg",
  "model_version": "latest"
}
