{
  "timestamp_utc": "2026-05-15T02:16:24Z",
  "class_index": 0,
  "class_name": "not_out",
  "is_out": false,
  "confidence": {
    "not_out": 0.6126981973648071,
    "full": 0.0005016686045564711,
    "partial": 0.3868001401424408
  },
  "weather": {
    "station": "KSEA",
    "visibility_sm": 10.0,
    "ceiling_ft": 3700.0,
    "raw": "KSEA 150153Z 23010KT 10SM FEW028 BKN037 BKN080 12/07 A3011 RMK AO2 SLP203 T01220067 $"
  },
  "webcam_url": "https://atmos.uw.edu/data/images/webcam2_latest.jpg",
  "model_version": "latest"
}
