{
  "timestamp_utc": "2026-05-13T23:50:23Z",
  "class_index": 0,
  "class_name": "not_out",
  "is_out": false,
  "confidence": {
    "not_out": 0.9846243858337402,
    "full": 0.0008602977031841874,
    "partial": 0.014515385963022709
  },
  "weather": {
    "station": "KSEA",
    "visibility_sm": 10.0,
    "ceiling_ft": 2600.0,
    "raw": "KSEA 132324Z 21022G32KT 10SM FEW017 BKN026 BKN080 13/09 A3005 RMK AO2 PK WND 20032/2322 T01280094"
  },
  "webcam_url": "https://atmos.uw.edu/data/images/webcam2_latest.jpg",
  "model_version": "latest"
}
