{
  "timestamp_utc": "2026-05-21T15:05:22Z",
  "class_index": 2,
  "class_name": "partial",
  "is_out": true,
  "confidence": {
    "not_out": 0.008604827336966991,
    "full": 0.21525020897388458,
    "partial": 0.7761450409889221
  },
  "weather": {
    "station": "KSEA",
    "visibility_sm": 10.0,
    "ceiling_ft": null,
    "raw": "KSEA 211453Z 02005KT 10SM FEW250 14/08 A3017 RMK AO2 SLP220 T01390083 50004"
  },
  "webcam_url": "https://atmos.uw.edu/data/images/webcam2_latest.jpg",
  "model_version": "latest"
}
