{
  "timestamp_utc": "2026-05-06T01:31:56Z",
  "class_index": 2,
  "class_name": "partial",
  "is_out": true,
  "confidence": {
    "not_out": 0.028421912342309952,
    "full": 0.46506544947624207,
    "partial": 0.5065125823020935
  },
  "weather": {
    "station": "KSEA",
    "visibility_sm": 10.0,
    "ceiling_ft": null,
    "raw": "KSEA 060053Z 21004KT 10SM FEW028 17/11 A2998 RMK AO2 SLP158 T01670106"
  },
  "webcam_url": "https://atmos.uw.edu/data/images/webcam2_latest.jpg",
  "model_version": "latest"
}
