{
  "timestamp_utc": "2026-04-25T04:09:26Z",
  "class_index": 0,
  "class_name": "not_out",
  "is_out": false,
  "confidence": {
    "not_out": 0.9992830157279968,
    "full": 0.0003165367234032601,
    "partial": 0.0004005398659501225
  },
  "weather": {
    "station": "KSEA",
    "visibility_sm": 10.0,
    "ceiling_ft": 24000.0,
    "raw": "KSEA 250353Z 01010KT 10SM FEW080 FEW150 BKN240 13/M04 A2999 RMK AO2 SLP160 T01331039"
  },
  "webcam_url": "https://atmos.uw.edu/data/images/webcam2_latest.jpg",
  "model_version": "e9ada89"
}
