{
  "timestamp_utc": "2026-05-13T17:17:23Z",
  "class_index": 0,
  "class_name": "not_out",
  "is_out": false,
  "confidence": {
    "not_out": 0.9741775989532471,
    "full": 0.000024238745027105324,
    "partial": 0.025798123329877853
  },
  "weather": {
    "station": "KSEA",
    "visibility_sm": 10.0,
    "ceiling_ft": 5500.0,
    "raw": "KSEA 131653Z 20010KT 10SM -RA FEW017 SCT033 BKN055 11/08 A2991 RMK AO2 SLP133 P0001 T01060083"
  },
  "webcam_url": "https://atmos.uw.edu/data/images/webcam2_latest.jpg",
  "model_version": "latest"
}
