{
  "timestamp_utc": "2026-05-14T11:40:26Z",
  "class_index": 0,
  "class_name": "not_out",
  "is_out": false,
  "confidence": {
    "not_out": 0.9986366629600525,
    "full": 0.0010685918387025595,
    "partial": 0.00029473970062099397
  },
  "weather": {
    "station": "KSEA",
    "visibility_sm": 10.0,
    "ceiling_ft": 1500.0,
    "raw": "KSEA 141053Z 17010KT 10SM BKN015 OVC019 11/08 A3015 RMK AO2 SLP218 T01060078"
  },
  "webcam_url": "https://atmos.uw.edu/data/images/webcam2_latest.jpg",
  "model_version": "latest"
}
