{
  "timestamp_utc": "2026-05-12T22:54:05Z",
  "class_index": 1,
  "class_name": "full",
  "is_out": true,
  "confidence": {
    "not_out": 0.024578308686614037,
    "full": 0.8919421434402466,
    "partial": 0.08347950130701065
  },
  "weather": {
    "station": "KSEA",
    "visibility_sm": 10.0,
    "ceiling_ft": 14000.0,
    "raw": "KSEA 122153Z 25008KT 10SM FEW060 SCT110 BKN140 BKN200 26/09 A2982 RMK AO2 SLP104 T02610094"
  },
  "webcam_url": "https://atmos.uw.edu/data/images/webcam2_latest.jpg",
  "model_version": "latest"
}
