{
  "timestamp_utc": "2026-05-11T01:20:05Z",
  "class_index": 0,
  "class_name": "not_out",
  "is_out": false,
  "confidence": {
    "not_out": 0.9919203519821167,
    "full": 0.00009485843474976718,
    "partial": 0.007984758354723454
  },
  "weather": {
    "station": "KSEA",
    "visibility_sm": 10.0,
    "ceiling_ft": 6500.0,
    "raw": "KSEA 110053Z VRB03KT 10SM FEW041 BKN065 BKN085 18/07 A3013 RMK AO2 SLP209 T01780067 $"
  },
  "webcam_url": "https://atmos.uw.edu/data/images/webcam2_latest.jpg",
  "model_version": "latest"
}
