{
  "timestamp_utc": "2026-05-05T15:27:52Z",
  "class_index": 0,
  "class_name": "not_out",
  "is_out": false,
  "confidence": {
    "not_out": 0.9951044321060181,
    "full": 0.000031942898203851655,
    "partial": 0.004863704554736614
  },
  "weather": {
    "station": "KSEA",
    "visibility_sm": 10.0,
    "ceiling_ft": 1200.0,
    "raw": "KSEA 051453Z 22007KT 10SM OVC012 12/09 A3000 RMK AO2 SLP163 T01220094 53014"
  },
  "webcam_url": "https://atmos.uw.edu/data/images/webcam2_latest.jpg",
  "model_version": "latest"
}
