{
  "timestamp_utc": "2026-05-15T20:40:00Z",
  "class_index": 0,
  "class_name": "not_out",
  "is_out": false,
  "confidence": {
    "not_out": 0.9989044666290283,
    "full": 0.00000825960796646541,
    "partial": 0.001087354146875441
  },
  "weather": {
    "station": "KSEA",
    "visibility_sm": 9.0,
    "ceiling_ft": 3400.0,
    "raw": "KSEA 151953Z 21013KT 9SM -RA FEW026 BKN034 OVC046 09/07 A3013 RMK AO2 SLP210 P0001 T00890067"
  },
  "webcam_url": "https://atmos.uw.edu/data/images/webcam2_latest.jpg",
  "model_version": "latest"
}
