{
  "timestamp_utc": "2026-05-15T13:21:05Z",
  "class_index": 0,
  "class_name": "not_out",
  "is_out": false,
  "confidence": {
    "not_out": 0.8932493925094604,
    "full": 0.039266254752874374,
    "partial": 0.06748434156179428
  },
  "weather": {
    "station": "KSEA",
    "visibility_sm": 10.0,
    "ceiling_ft": null,
    "raw": "KSEA 151253Z 17011KT 10SM FEW010 SCT017 SCT230 08/06 A3013 RMK AO2 SLP211 T00780056 $"
  },
  "webcam_url": "https://atmos.uw.edu/data/images/webcam2_latest.jpg",
  "model_version": "latest"
}
