{
  "timestamp_utc": "2026-05-22T09:12:51Z",
  "class_index": 0,
  "class_name": "not_out",
  "is_out": false,
  "confidence": {
    "not_out": 0.9984385371208191,
    "full": 0.0011091966880485415,
    "partial": 0.00045223618508316576
  },
  "weather": {
    "station": "KSEA",
    "visibility_sm": 10.0,
    "ceiling_ft": null,
    "raw": "KSEA 220853Z 03004KT 10SM CLR 16/07 A2998 RMK AO2 SLP157 T01560072 58005"
  },
  "webcam_url": "https://atmos.uw.edu/data/images/webcam2_latest.jpg",
  "model_version": "latest"
}
