{
  "timestamp_utc": "2026-05-14T05:37:45Z",
  "class_index": 0,
  "class_name": "not_out",
  "is_out": false,
  "confidence": {
    "not_out": 0.9978834986686707,
    "full": 0.0016214834759011865,
    "partial": 0.0004949796129949391
  },
  "weather": {
    "station": "KSEA",
    "visibility_sm": 10.0,
    "ceiling_ft": 1900.0,
    "raw": "KSEA 140512Z 20013G21KT 10SM BKN019 OVC028 12/08 A3013 RMK AO2 T01170078"
  },
  "webcam_url": "https://atmos.uw.edu/data/images/webcam2_latest.jpg",
  "model_version": "latest"
}
